{"type":"FeatureCollection","features":[{"type":"Feature","properties":{"osm":"n369487083","name":"H\u1ea3i Ph\u00f2ng","name:en":"Haiphong","place":"city","population":"4664124"},"geometry":{"type":"Point","coordinates":[106.67904,20.8831]}},{"type":"Feature","properties":{"osm":"n369487835","name":"An L\u00e3o","name:en":"An L\u00e3o Commune","place":"town"},"geometry":{"type":"Point","coordinates":[106.55604,20.82187]}},{"type":"Feature","properties":{"osm":"n369488431","name":"\u0110\u1eb7c khu C\u00e1t H\u1ea3i","name:en":"C\u00e1t H\u1ea3i Special Administrative Region","place":"town","population":"71211"},"geometry":{"type":"Point","coordinates":[106.89059,20.797]}},{"type":"Feature","properties":{"osm":"n369488547","name":"Ti\u00ean L\u00e3ng","place":"quarter"},"geometry":{"type":"Point","coordinates":[106.55684,20.72579]}},{"type":"Feature","properties":{"osm":"n369492984","name":"An D\u01b0\u01a1ng","name:en":"An D\u01b0\u01a1ng Ward","place":"suburb"},"geometry":{"type":"Point","coordinates":[106.6128,20.86321]}},{"type":"Feature","properties":{"osm":"n369493611","name":"Qu\u1ea3ng Y\u00ean","name:en":"Qu\u1ea3ng Y\u00ean","place":"city","population":"85868"},"geometry":{"type":"Point","coordinates":[106.80244,20.93872]}},{"type":"Feature","properties":{"osm":"n369493707","name":"Th\u1ee7y Nguy\u00ean","name:en":"Th\u1ee7y Nguy\u00ean Ward","place":"suburb","population":"71131"},"geometry":{"type":"Point","coordinates":[106.67485,20.91799]}},{"type":"Feature","properties":{"osm":"n2491842777","name":"Tr\u01b0\u1eddng S\u01a1n","name:en":"Tr\u01b0\u1eddng S\u01a1n","place":"quarter"},"geometry":{"type":"Point","coordinates":[106.59751,20.81348]}},{"type":"Feature","properties":{"osm":"n4775009120","name":"V\u0103n Th\u1ecd","place":"village"},"geometry":{"type":"Point","coordinates":[106.5291,20.86932]}},{"type":"Feature","properties":{"osm":"n4826100657","name":"Li\u00ean V\u1ecb","place":"village"},"geometry":{"type":"Point","coordinates":[106.83204,20.87533]}},{"type":"Feature","properties":{"osm":"n4826100658","name":"Ba L\u00e0ng","place":"village"},"geometry":{"type":"Point","coordinates":[106.81052,20.90258]}},{"type":"Feature","properties":{"osm":"n6221327352","name":"T\u00e2n An","name:en":"Tan An","place":"suburb"},"geometry":{"type":"Point","coordinates":[106.86243,20.92477]}},{"type":"Feature","properties":{"osm":"n10258378919","name":"\u0110\u00f4ng H\u1ea3i","name:en":"\u0110\u00f4ng H\u1ea3i Ward","place":"suburb"},"geometry":{"type":"Point","coordinates":[106.73271,20.84732]}},{"type":"Feature","properties":{"osm":"n10258393371","name":"Gia Vi\u00ean","name:en":"Gia Vi\u00ean Ward","place":"suburb"},"geometry":{"type":"Point","coordinates":[106.70361,20.84911]}},{"type":"Feature","properties":{"osm":"n10259433093","name":"Ph\u00f9 Li\u1ec5n","name:en":"Ph\u00f9 Li\u1ec5n Ward","place":"suburb"},"geometry":{"type":"Point","coordinates":[106.63986,20.79145]}},{"type":"Feature","properties":{"osm":"n10259441267","name":"H\u01b0ng \u0110\u1ea1o","name:en":"H\u01b0ng \u0110\u1ea1o Ward","place":"suburb"},"geometry":{"type":"Point","coordinates":[106.7059,20.79505]}},{"type":"Feature","properties":{"osm":"n11222095226","name":"Ng\u00f4 Quy\u1ec1n","name:en":"Ng\u00f4 Quy\u1ec1n Ward","place":"suburb"},"geometry":{"type":"Point","coordinates":[106.70148,20.86691]}},{"type":"Feature","properties":{"osm":"n11222095227","name":"H\u1ea3i An","name:en":"H\u1ea3i An Ward","place":"suburb"},"geometry":{"type":"Point","coordinates":[106.72211,20.82978]}},{"type":"Feature","properties":{"osm":"n11222095228","name":"L\u00ea Ch\u00e2n","name:en":"L\u00ea Ch\u00e2n Ward","place":"suburb"},"geometry":{"type":"Point","coordinates":[106.6764,20.84501]}},{"type":"Feature","properties":{"osm":"n11222095229","name":"H\u1ed3ng B\u00e0ng","name:en":"H\u1ed3ng B\u00e0ng Ward","place":"suburb"},"geometry":{"type":"Point","coordinates":[106.65185,20.86859]}},{"type":"Feature","properties":{"osm":"n11222095230","name":"Ki\u1ebfn An","name:en":"Ki\u1ebfn An Ward","place":"suburb"},"geometry":{"type":"Point","coordinates":[106.62493,20.80788]}},{"type":"Feature","properties":{"osm":"n11222095231","name":"D\u01b0\u01a1ng Kinh","name:en":"D\u01b0\u01a1ng Kinh Ward","place":"suburb"},"geometry":{"type":"Point","coordinates":[106.72932,20.77731]}},{"type":"Feature","properties":{"osm":"n11516484314","name":"V\u0129nh An","place":"quarter"},"geometry":{"type":"Point","coordinates":[106.50361,20.72272]}},{"type":"Feature","properties":{"osm":"n11516484317","name":"Tr\u1ea5n D\u01b0\u01a1ng","place":"quarter"},"geometry":{"type":"Point","coordinates":[106.56876,20.64507]}},{"type":"Feature","properties":{"osm":"n11516484321","name":"T\u00e2n Li\u00ean","place":"quarter"},"geometry":{"type":"Point","coordinates":[106.50533,20.69807]}},{"type":"Feature","properties":{"osm":"n11516484324","name":"Tam C\u01b0\u1eddng","place":"quarter"},"geometry":{"type":"Point","coordinates":[106.53554,20.63487]}},{"type":"Feature","properties":{"osm":"n11516484326","name":"L\u00fd H\u1ecdc","place":"quarter"},"geometry":{"type":"Point","coordinates":[106.53399,20.65849]}},{"type":"Feature","properties":{"osm":"n11516484327","name":"Li\u00ean Am","place":"quarter"},"geometry":{"type":"Point","coordinates":[106.5152,20.64752]}},{"type":"Feature","properties":{"osm":"n11516484330","name":"H\u00f2a B\u00ecnh","place":"quarter"},"geometry":{"type":"Point","coordinates":[106.55348,20.6572]}},{"type":"Feature","properties":{"osm":"n11516484332","name":"Giang Bi\u00ean","place":"quarter"},"geometry":{"type":"Point","coordinates":[106.50069,20.74801]}},{"type":"Feature","properties":{"osm":"n11516484337","name":"Cao Minh","place":"quarter"},"geometry":{"type":"Point","coordinates":[106.52533,20.63359]}},{"type":"Feature","properties":{"osm":"n11516500806","name":"\u0110\u00f4ng H\u01b0ng","place":"quarter"},"geometry":{"type":"Point","coordinates":[106.64583,20.64387]}},{"type":"Feature","properties":{"osm":"n11516500807","name":"\u0110o\u00e0n L\u1eadp","place":"quarter"},"geometry":{"type":"Point","coordinates":[106.56644,20.69607]}},{"type":"Feature","properties":{"osm":"n11516500809","name":"Vinh Quang","place":"quarter"},"geometry":{"type":"Point","coordinates":[106.69441,20.65651]}},{"type":"Feature","properties":{"osm":"n11516500810","name":"T\u1ef1 C\u01b0\u1eddng","place":"quarter"},"geometry":{"type":"Point","coordinates":[106.53528,20.77144]}},{"type":"Feature","properties":{"osm":"n11516500812","name":"Ti\u00ean Thanh","place":"quarter"},"geometry":{"type":"Point","coordinates":[106.53099,20.72497]}},{"type":"Feature","properties":{"osm":"n11516500813","name":"Ti\u00ean Th\u1eafng","place":"quarter"},"geometry":{"type":"Point","coordinates":[106.623,20.69029]}},{"type":"Feature","properties":{"osm":"n11516500814","name":"Ti\u00ean Minh","place":"quarter"},"geometry":{"type":"Point","coordinates":[106.60048,20.69904]}},{"type":"Feature","properties":{"osm":"n11516500815","name":"Ti\u00ean C\u01b0\u1eddng","place":"quarter"},"geometry":{"type":"Point","coordinates":[106.51769,20.77188]}},{"type":"Feature","properties":{"osm":"n11516500816","name":"T\u00e2y H\u01b0ng","place":"quarter"},"geometry":{"type":"Point","coordinates":[106.6271,20.6481]}},{"type":"Feature","properties":{"osm":"n11516500817","name":"Quy\u1ebft Ti\u1ebfn","place":"quarter"},"geometry":{"type":"Point","coordinates":[106.54867,20.73444]}},{"type":"Feature","properties":{"osm":"n11516500818","name":"T\u00e2n Minh","place":"quarter"},"geometry":{"type":"Point","coordinates":[106.57957,20.71196]}},{"type":"Feature","properties":{"osm":"n11516500819","name":"Nam H\u01b0ng","place":"quarter"},"geometry":{"type":"Point","coordinates":[106.63382,20.66226]}},{"type":"Feature","properties":{"osm":"n11516500820","name":"Ki\u1ebfn Thi\u1ebft","place":"quarter"},"geometry":{"type":"Point","coordinates":[106.5291,20.68451]}},{"type":"Feature","properties":{"osm":"n11516500821","name":"Kh\u1edfi Ngh\u0129a","place":"quarter"},"geometry":{"type":"Point","coordinates":[106.53146,20.73412]}},{"type":"Feature","properties":{"osm":"n11516500822","name":"H\u00f9ng Th\u1eafng","place":"quarter"},"geometry":{"type":"Point","coordinates":[106.66429,20.67519]}},{"type":"Feature","properties":{"osm":"n11516500823","name":"C\u1ea5p Ti\u1ebfn","place":"quarter"},"geometry":{"type":"Point","coordinates":[106.54069,20.7061]}},{"type":"Feature","properties":{"osm":"n11516500825","name":"B\u1eafc H\u01b0ng","place":"quarter"},"geometry":{"type":"Point","coordinates":[106.63527,20.67254]}},{"type":"Feature","properties":{"osm":"n11516575850","name":"Ki\u1ebfn Minh","name:en":"Ki\u1ebfn Minh Commune","place":"town"},"geometry":{"type":"Point","coordinates":[106.68936,20.75281]}},{"type":"Feature","properties":{"osm":"n11516575851","name":"Ki\u1ebfn H\u1ea3i","name:en":"Ki\u1ebfn H\u1ea3i Commune","place":"town"},"geometry":{"type":"Point","coordinates":[106.72774,20.7151]}},{"type":"Feature","properties":{"osm":"n11516575852","name":"Ki\u1ebfn H\u01b0ng","name:en":"Ki\u1ebfn H\u01b0ng Commune","place":"town"},"geometry":{"type":"Point","coordinates":[106.66819,20.72149]}},{"type":"Feature","properties":{"osm":"n11516575862","name":"Nghi D\u01b0\u01a1ng","name:en":"Nghi D\u01b0\u01a1ng Commune","place":"town"},"geometry":{"type":"Point","coordinates":[106.64248,20.73539]}},{"type":"Feature","properties":{"osm":"n11516575863","name":"Ki\u1ebfn Th\u1ee5y","name:en":"Ki\u1ebfn Th\u1ee5y Commune","place":"town"},"geometry":{"type":"Point","coordinates":[106.66872,20.75083]}},{"type":"Feature","properties":{"osm":"n11516627168","name":"Tr\u01b0\u1eddng Th\u1ecd","place":"quarter"},"geometry":{"type":"Point","coordinates":[106.53511,20.83523]}},{"type":"Feature","properties":{"osm":"n11516628269","name":"Tr\u01b0\u1eddng Th\u00e0nh","place":"quarter"},"geometry":{"type":"Point","coordinates":[106.56318,20.84486]}},{"type":"Feature","properties":{"osm":"n11516628270","name":"Th\u00e1i S\u01a1n","place":"quarter"},"geometry":{"type":"Point","coordinates":[106.60259,20.7869]}},{"type":"Feature","properties":{"osm":"n11516628271","name":"T\u00e2n Vi\u00ean","place":"quarter"},"geometry":{"type":"Point","coordinates":[106.55519,20.78131]}},{"type":"Feature","properties":{"osm":"n11516628272","name":"T\u00e2n D\u00e2n","place":"quarter"},"geometry":{"type":"Point","coordinates":[106.57742,20.80194]}},{"type":"Feature","properties":{"osm":"n11516628273","name":"Qu\u1ed1c Tu\u1ea5n","place":"quarter"},"geometry":{"type":"Point","coordinates":[106.54781,20.80306]}},{"type":"Feature","properties":{"osm":"n11516628274","name":"Quang Trung","place":"quarter"},"geometry":{"type":"Point","coordinates":[106.53049,20.81004]}},{"type":"Feature","properties":{"osm":"n11516628275","name":"Quang H\u01b0ng","place":"quarter"},"geometry":{"type":"Point","coordinates":[106.52327,20.8248]}},{"type":"Feature","properties":{"osm":"n11516628276","name":"M\u1ef9 \u0110\u1ee9c","place":"quarter"},"geometry":{"type":"Point","coordinates":[106.59989,20.76392]}},{"type":"Feature","properties":{"osm":"n11516628277","name":"Chi\u1ebfn Th\u1eafng","place":"quarter"},"geometry":{"type":"Point","coordinates":[106.58738,20.75395]}},{"type":"Feature","properties":{"osm":"n11516628278","name":"An Ti\u1ebfn","place":"quarter"},"geometry":{"type":"Point","coordinates":[106.55605,20.83098]}},{"type":"Feature","properties":{"osm":"n11516628279","name":"B\u00e1t Trang","place":"quarter"},"geometry":{"type":"Point","coordinates":[106.51262,20.85015]}},{"type":"Feature","properties":{"osm":"n11516628280","name":"An Th\u1ecd","place":"quarter"},"geometry":{"type":"Point","coordinates":[106.60532,20.7452]}},{"type":"Feature","properties":{"osm":"n11516628281","name":"An Th\u1eafng","place":"quarter"},"geometry":{"type":"Point","coordinates":[106.5787,20.81984]}},{"type":"Feature","properties":{"osm":"n11516628282","name":"An Th\u00e1i","place":"quarter"},"geometry":{"type":"Point","coordinates":[106.62128,20.75876]}},{"type":"Feature","properties":{"osm":"n11516632537","name":"An H\u1ea3i","name:en":"An H\u1ea3i Ward","place":"suburb"},"geometry":{"type":"Point","coordinates":[106.63732,20.86088]}},{"type":"Feature","properties":{"osm":"n11516632549","name":"H\u1ed3ng An","name:en":"H\u1ed3ng An Ward","place":"suburb"},"geometry":{"type":"Point","coordinates":[106.605,20.9119]}},{"type":"Feature","properties":{"osm":"n11516632550","name":"An Phong","name:en":"An Phong Ward","place":"suburb"},"geometry":{"type":"Point","coordinates":[106.56921,20.87259]}},{"type":"Feature","properties":{"osm":"n11939981113","name":"Phong C\u1ed1c","name:en":"Phong Coc Ward","place":"suburb"},"geometry":{"type":"Point","coordinates":[106.80849,20.90095]}},{"type":"Feature","properties":{"osm":"n11939981114","name":"H\u00e0 An","name:en":"Ha An Ward","place":"suburb"},"geometry":{"type":"Point","coordinates":[106.85835,20.92404]}},{"type":"Feature","properties":{"osm":"n11939981115","name":"Ho\u00e0ng T\u00e2n","place":"village"},"geometry":{"type":"Point","coordinates":[106.90693,20.92288]}},{"type":"Feature","properties":{"osm":"n11939981117","name":"C\u1ea9m La","place":"village"},"geometry":{"type":"Point","coordinates":[106.80934,20.91358]}},{"type":"Feature","properties":{"osm":"n11939981118","name":"Ti\u1ec1n An","place":"village"},"geometry":{"type":"Point","coordinates":[106.83874,20.93469]}},{"type":"Feature","properties":{"osm":"n12156766353","name":"Tr\u1ea1i Gi\u1eefa","place":"quarter"},"geometry":{"type":"Point","coordinates":[106.5063,20.87979]}},{"type":"Feature","properties":{"osm":"n12156766354","name":"H\u01b0ng H\u00f2a","place":"quarter"},"geometry":{"type":"Point","coordinates":[106.5038,20.88717]}},{"type":"Feature","properties":{"osm":"n12156766355","name":"B\u1eafc Th\u1eafng","place":"quarter"},"geometry":{"type":"Point","coordinates":[106.50511,20.89059]}},{"type":"Feature","properties":{"osm":"n12318872986","name":"Nam Tri\u1ec7u","name:en":"Nam Tri\u1ec7u Ward","place":"suburb"},"geometry":{"type":"Point","coordinates":[106.74272,20.9257]}},{"type":"Feature","properties":{"osm":"n12318872990","name":"H\u00f2a B\u00ecnh","name:en":"H\u00f2a B\u00ecnh Ward","place":"suburb"},"geometry":{"type":"Point","coordinates":[106.70817,20.93278]}},{"type":"Feature","properties":{"osm":"n12318872996","name":"Thi\u00ean H\u01b0\u01a1ng","name:en":"Thi\u00ean H\u01b0\u01a1ng Ward","place":"suburb"},"geometry":{"type":"Point","coordinates":[106.64453,20.9226]}},{"type":"Feature","properties":{"osm":"n12330704012","name":"T\u1ed5 d\u00e2n ph\u1ed1 6","place":"quarter"},"geometry":{"type":"Point","coordinates":[106.74849,20.94388]}},{"type":"Feature","properties":{"osm":"n12330704013","name":"T\u1ed5 d\u00e2n ph\u1ed1 8","place":"quarter"},"geometry":{"type":"Point","coordinates":[106.76191,20.93836]}},{"type":"Feature","properties":{"osm":"n12330704014","name":"T\u1ed5 d\u00e2n ph\u1ed1 5","place":"quarter"},"geometry":{"type":"Point","coordinates":[106.75545,20.93505]}},{"type":"Feature","properties":{"osm":"n12330704015","name":"T\u1ed5 d\u00e2n ph\u1ed1 3","place":"quarter"},"geometry":{"type":"Point","coordinates":[106.75807,20.93304]}},{"type":"Feature","properties":{"osm":"n12330704016","name":"T\u1ed5 d\u00e2n ph\u1ed1 2","place":"quarter"},"geometry":{"type":"Point","coordinates":[106.75949,20.93016]}},{"type":"Feature","properties":{"osm":"n12330704017","name":"T\u1ed5 d\u00e2n ph\u1ed1 1","place":"quarter"},"geometry":{"type":"Point","coordinates":[106.75852,20.92789]}},{"type":"Feature","properties":{"osm":"n12330704018","name":"R\u1ed3ng","place":"quarter"},"geometry":{"type":"Point","coordinates":[106.74772,20.93289]}},{"type":"Feature","properties":{"osm":"n12330704019","name":"Ch\u00e3o","place":"quarter"},"geometry":{"type":"Point","coordinates":[106.74258,20.93331]}},{"type":"Feature","properties":{"osm":"n12330704020","name":"Trung","place":"quarter"},"geometry":{"type":"Point","coordinates":[106.74494,20.92539]}},{"type":"Feature","properties":{"osm":"n12330704021","name":"S\u1ecf","place":"quarter"},"geometry":{"type":"Point","coordinates":[106.73826,20.92706]}},{"type":"Feature","properties":{"osm":"n12330704022","name":"Nam","place":"quarter"},"geometry":{"type":"Point","coordinates":[106.74481,20.92376]}},{"type":"Feature","properties":{"osm":"n12330704023","name":"M\u1ee9c","place":"quarter"},"geometry":{"type":"Point","coordinates":[106.74016,20.93006]}},{"type":"Feature","properties":{"osm":"n12330704024","name":"\u0110\u00f4ng","place":"quarter"},"geometry":{"type":"Point","coordinates":[106.74661,20.92705]}},{"type":"Feature","properties":{"osm":"n12330704025","name":"B\u1ea5c","place":"quarter"},"geometry":{"type":"Point","coordinates":[106.74494,20.929]}},{"type":"Feature","properties":{"osm":"n12330704026","name":"T\u1ed5 d\u00e2n ph\u1ed1 6","place":"quarter"},"geometry":{"type":"Point","coordinates":[106.74395,20.91291]}},{"type":"Feature","properties":{"osm":"n12330704027","name":"T\u1ed5 d\u00e2n ph\u1ed1 5","place":"quarter"},"geometry":{"type":"Point","coordinates":[106.74501,20.9153]}},{"type":"Feature","properties":{"osm":"n12330704028","name":"T\u1ed5 d\u00e2n ph\u1ed1 4","place":"quarter"},"geometry":{"type":"Point","coordinates":[106.74337,20.91685]}},{"type":"Feature","properties":{"osm":"n12330704029","name":"T\u1ed5 d\u00e2n ph\u1ed1 3","place":"quarter"},"geometry":{"type":"Point","coordinates":[106.74325,20.91961]}},{"type":"Feature","properties":{"osm":"n12330704030","name":"T\u1ed5 d\u00e2n ph\u1ed1 2","place":"quarter"},"geometry":{"type":"Point","coordinates":[106.7461,20.91902]}},{"type":"Feature","properties":{"osm":"n12330704031","name":"T\u1ed5 d\u00e2n ph\u1ed1 1","place":"quarter"},"geometry":{"type":"Point","coordinates":[106.74479,20.92178]}},{"type":"Feature","properties":{"osm":"n12330704042","name":"Song \u0110\u1ef1c","place":"quarter"},"geometry":{"type":"Point","coordinates":[106.73074,20.90265]}},{"type":"Feature","properties":{"osm":"n12330704043","name":"Kh\u1ecfm C\u00e2y","place":"quarter"},"geometry":{"type":"Point","coordinates":[106.74151,20.89736]}},{"type":"Feature","properties":{"osm":"n12330704044","name":"H\u1eadu Long","place":"quarter"},"geometry":{"type":"Point","coordinates":[106.73063,20.9142]}},{"type":"Feature","properties":{"osm":"n12330704045","name":"\u0110\u01b0\u1eddng Na","place":"quarter"},"geometry":{"type":"Point","coordinates":[106.74668,20.89999]}},{"type":"Feature","properties":{"osm":"n12330704046","name":"C\u1ed1ng S\u01a1n","place":"quarter"},"geometry":{"type":"Point","coordinates":[106.73488,20.89676]}},{"type":"Feature","properties":{"osm":"n12330704047","name":"T\u00e2n L\u1eadp","place":"quarter"},"geometry":{"type":"Point","coordinates":[106.73149,20.89354]}},{"type":"Feature","properties":{"osm":"n12330704048","name":"L\u00e3ng C\u00e1p","place":"quarter"},"geometry":{"type":"Point","coordinates":[106.74299,20.9018]}},{"type":"Feature","properties":{"osm":"n12330704049","name":"L\u1ea1ch S\u1ebd","place":"quarter"},"geometry":{"type":"Point","coordinates":[106.73714,20.91049]}},{"type":"Feature","properties":{"osm":"n12330704050","name":"\u0110\u01b0\u1eddng Tr\u01b0\u1ee1ng","place":"quarter"},"geometry":{"type":"Point","coordinates":[106.74101,20.90496]}},{"type":"Feature","properties":{"osm":"n12330704051","name":"\u0110\u01b0\u1eddng H\u01b0\u01a1ng","place":"quarter"},"geometry":{"type":"Point","coordinates":[106.73235,20.91283]}},{"type":"Feature","properties":{"osm":"n12330704052","name":"\u0110\u1ed3ng M\u1edbi","place":"quarter"},"geometry":{"type":"Point","coordinates":[106.74092,20.90769]}},{"type":"Feature","properties":{"osm":"n12330704053","name":"\u0110\u1ea7u C\u1ea7u","place":"quarter"},"geometry":{"type":"Point","coordinates":[106.74068,20.91264]}},{"type":"Feature","properties":{"osm":"n12330704054","name":"B\u1ea3o Ki\u1ebfm","place":"quarter"},"geometry":{"type":"Point","coordinates":[106.734,20.90501]}},{"type":"Feature","properties":{"osm":"n12330704055","name":"T\u1ed5 d\u00e2n ph\u1ed1 12","place":"quarter"},"geometry":{"type":"Point","coordinates":[106.718,20.93519]}},{"type":"Feature","properties":{"osm":"n12330704056","name":"T\u1ed5 d\u00e2n ph\u1ed1 10","place":"quarter"},"geometry":{"type":"Point","coordinates":[106.7201,20.9364]}},{"type":"Feature","properties":{"osm":"n12330704057","name":"T\u1ed5 d\u00e2n ph\u1ed1 9","place":"quarter"},"geometry":{"type":"Point","coordinates":[106.72237,20.93719]}},{"type":"Feature","properties":{"osm":"n12330704058","name":"T\u1ed5 d\u00e2n ph\u1ed1 8","place":"quarter"},"geometry":{"type":"Point","coordinates":[106.72604,20.93766]}},{"type":"Feature","properties":{"osm":"n12330704059","name":"T\u1ed5 d\u00e2n ph\u1ed1 7","place":"quarter"},"geometry":{"type":"Point","coordinates":[106.72595,20.9393]}},{"type":"Feature","properties":{"osm":"n12330704060","name":"T\u1ed5 d\u00e2n ph\u1ed1 6","place":"quarter"},"geometry":{"type":"Point","coordinates":[106.72997,20.93999]}},{"type":"Feature","properties":{"osm":"n12330704061","name":"T\u1ed5 d\u00e2n ph\u1ed1 5","place":"quarter"},"geometry":{"type":"Point","coordinates":[106.73271,20.94144]}},{"type":"Feature","properties":{"osm":"n12330704062","name":"T\u1ed5 d\u00e2n ph\u1ed1 4","place":"quarter"},"geometry":{"type":"Point","coordinates":[106.73647,20.94187]}},{"type":"Feature","properties":{"osm":"n12330704063","name":"T\u1ed5 d\u00e2n ph\u1ed1 3","place":"quarter"},"geometry":{"type":"Point","coordinates":[106.73839,20.94415]}},{"type":"Feature","properties":{"osm":"n12330704064","name":"T\u1ed5 d\u00e2n ph\u1ed1 2","place":"quarter"},"geometry":{"type":"Point","coordinates":[106.73907,20.94098]}},{"type":"Feature","properties":{"osm":"n12330704065","name":"T\u1ed5 d\u00e2n ph\u1ed1 1","place":"quarter"},"geometry":{"type":"Point","coordinates":[106.74096,20.9457]}},{"type":"Feature","properties":{"osm":"n12330704066","name":"H\u00e0 T\u00e2y","place":"quarter"},"geometry":{"type":"Point","coordinates":[106.69896,20.9457]}},{"type":"Feature","properties":{"osm":"n12330704067","name":"T\u00e2y Tr\u1ea1i","place":"quarter"},"geometry":{"type":"Point","coordinates":[106.70355,20.93515]}},{"type":"Feature","properties":{"osm":"n12330704068","name":"R\u00fap","place":"quarter"},"geometry":{"type":"Point","coordinates":[106.70264,20.93053]}},{"type":"Feature","properties":{"osm":"n12330704069","name":"\u0110\u00f4ng T\u00e2y","place":"quarter"},"geometry":{"type":"Point","coordinates":[106.70509,20.93358]}},{"type":"Feature","properties":{"osm":"n12330704070","name":"\u0110\u00ecnh","place":"quarter"},"geometry":{"type":"Point","coordinates":[106.70439,20.93085]}},{"type":"Feature","properties":{"osm":"n12330704071","name":"T\u00e2y","place":"quarter"},"geometry":{"type":"Point","coordinates":[106.7113,20.93401]}},{"type":"Feature","properties":{"osm":"n12330704072","name":"\u0110\u00f4ng","place":"quarter"},"geometry":{"type":"Point","coordinates":[106.71451,20.9345]}},{"type":"Feature","properties":{"osm":"n12330704073","name":"\u0110\u1ea7m","place":"quarter"},"geometry":{"type":"Point","coordinates":[106.71833,20.92227]}},{"type":"Feature","properties":{"osm":"n12330704074","name":"T\u1ed5 d\u00e2n ph\u1ed1 8","place":"quarter"},"geometry":{"type":"Point","coordinates":[106.71337,20.91478]}},{"type":"Feature","properties":{"osm":"n12330704075","name":"T\u1ed5 d\u00e2n ph\u1ed1 7","place":"quarter"},"geometry":{"type":"Point","coordinates":[106.70928,20.92429]}},{"type":"Feature","properties":{"osm":"n12330704076","name":"T\u1ed5 d\u00e2n ph\u1ed1 6","place":"quarter"},"geometry":{"type":"Point","coordinates":[106.70749,20.9289]}},{"type":"Feature","properties":{"osm":"n12330704077","name":"T\u1ed5 d\u00e2n ph\u1ed1 5","place":"quarter"},"geometry":{"type":"Point","coordinates":[106.70703,20.93093]}},{"type":"Feature","properties":{"osm":"n12330704078","name":"T\u1ed5 d\u00e2n ph\u1ed1 3","place":"quarter"},"geometry":{"type":"Point","coordinates":[106.70884,20.93254]}},{"type":"Feature","properties":{"osm":"n12330704079","name":"T\u1ed5 d\u00e2n ph\u1ed1 1","place":"quarter"},"geometry":{"type":"Point","coordinates":[106.71149,20.93164]}},{"type":"Feature","properties":{"osm":"n12330704083","name":"T\u1ed5 d\u00e2n ph\u1ed1 12","place":"quarter"},"geometry":{"type":"Point","coordinates":[106.68833,20.94989]}},{"type":"Feature","properties":{"osm":"n12330704086","name":"T\u1ed5 d\u00e2n ph\u1ed1 9","place":"quarter"},"geometry":{"type":"Point","coordinates":[106.68154,20.93985]}},{"type":"Feature","properties":{"osm":"n12330704087","name":"T\u1ed5 d\u00e2n ph\u1ed1 8","place":"quarter"},"geometry":{"type":"Point","coordinates":[106.6752,20.94098]}},{"type":"Feature","properties":{"osm":"n12330704088","name":"T\u1ed5 d\u00e2n ph\u1ed1 7","place":"quarter"},"geometry":{"type":"Point","coordinates":[106.67582,20.93673]}},{"type":"Feature","properties":{"osm":"n12330704089","name":"T\u1ed5 d\u00e2n ph\u1ed1 6","place":"quarter"},"geometry":{"type":"Point","coordinates":[106.67821,20.93363]}},{"type":"Feature","properties":{"osm":"n12330704090","name":"T\u1ed5 d\u00e2n ph\u1ed1 5","place":"quarter"},"geometry":{"type":"Point","coordinates":[106.68294,20.93043]}},{"type":"Feature","properties":{"osm":"n12330704091","name":"T\u1ed5 d\u00e2n ph\u1ed1 4","place":"quarter"},"geometry":{"type":"Point","coordinates":[106.68378,20.92871]}},{"type":"Feature","properties":{"osm":"n12330704092","name":"T\u1ed5 d\u00e2n ph\u1ed1 3","place":"quarter"},"geometry":{"type":"Point","coordinates":[106.68592,20.9341]}},{"type":"Feature","properties":{"osm":"n12330704093","name":"T\u1ed5 d\u00e2n ph\u1ed1 2","place":"quarter"},"geometry":{"type":"Point","coordinates":[106.68685,20.93234]}},{"type":"Feature","properties":{"osm":"n12330704094","name":"T\u1ed5 d\u00e2n ph\u1ed1 1","place":"quarter"},"geometry":{"type":"Point","coordinates":[106.69051,20.92984]}},{"type":"Feature","properties":{"osm":"n12330704095","name":"S\u00fa 2","place":"quarter"},"geometry":{"type":"Point","coordinates":[106.64857,20.89653]}},{"type":"Feature","properties":{"osm":"n12330704096","name":"S\u00fa 1","place":"quarter"},"geometry":{"type":"Point","coordinates":[106.64307,20.89735]}},{"type":"Feature","properties":{"osm":"n12330704097","name":"H\u1ea7u","place":"quarter"},"geometry":{"type":"Point","coordinates":[106.64376,20.89252]}},{"type":"Feature","properties":{"osm":"n12330704098","name":"\u0110\u00f4ng","place":"quarter"},"geometry":{"type":"Point","coordinates":[106.65102,20.89397]}},{"type":"Feature","properties":{"osm":"n12330704099","name":"\u0110\u1ec1n","place":"quarter"},"geometry":{"type":"Point","coordinates":[106.64824,20.89174]}},{"type":"Feature","properties":{"osm":"n12330704100","name":"T\u1ed5 d\u00e2n ph\u1ed1 7","place":"quarter"},"geometry":{"type":"Point","coordinates":[106.63179,20.90065]}},{"type":"Feature","properties":{"osm":"n12330714701","name":"T\u1ed5 d\u00e2n ph\u1ed1 6","place":"quarter"},"geometry":{"type":"Point","coordinates":[106.63077,20.89902]}},{"type":"Feature","properties":{"osm":"n12330714702","name":"T\u1ed5 d\u00e2n ph\u1ed1 5","place":"quarter"},"geometry":{"type":"Point","coordinates":[106.62918,20.90104]}},{"type":"Feature","properties":{"osm":"n12330714703","name":"T\u1ed5 d\u00e2n ph\u1ed1 4","place":"quarter"},"geometry":{"type":"Point","coordinates":[106.62791,20.8947]}},{"type":"Feature","properties":{"osm":"n12330714704","name":"T\u1ed5 d\u00e2n ph\u1ed1 3","place":"quarter"},"geometry":{"type":"Point","coordinates":[106.62851,20.892]}},{"type":"Feature","properties":{"osm":"n12330714705","name":"T\u1ed5 d\u00e2n ph\u1ed1 2","place":"quarter"},"geometry":{"type":"Point","coordinates":[106.62958,20.89046]}},{"type":"Feature","properties":{"osm":"n12330714706","name":"T\u1ed5 d\u00e2n ph\u1ed1 1","place":"quarter"},"geometry":{"type":"Point","coordinates":[106.63037,20.88896]}},{"type":"Feature","properties":{"osm":"n12330714707","name":"M\u1ef9 C\u1ee5","place":"quarter"},"geometry":{"type":"Point","coordinates":[106.65846,20.89052]}},{"type":"Feature","properties":{"osm":"n12330714708","name":"L\u00e2u Tr\u1ea1i","place":"quarter"},"geometry":{"type":"Point","coordinates":[106.66707,20.88588]}},{"type":"Feature","properties":{"osm":"n12330714709","name":"L\u00e2u L\u00e0ng","place":"quarter"},"geometry":{"type":"Point","coordinates":[106.66173,20.88461]}},{"type":"Feature","properties":{"osm":"n12330714710","name":"Gi\u1eefa","place":"quarter"},"geometry":{"type":"Point","coordinates":[106.66005,20.89867]}},{"type":"Feature","properties":{"osm":"n12330714711","name":"\u0110\u01b0\u1eddng \u0110\u00e1","place":"quarter"},"geometry":{"type":"Point","coordinates":[106.66287,20.90087]}},{"type":"Feature","properties":{"osm":"n12330714712","name":"\u0110\u1ed3ng Qu\u00e1n","place":"quarter"},"geometry":{"type":"Point","coordinates":[106.65631,20.88649]}},{"type":"Feature","properties":{"osm":"n12330714713","name":"\u0110\u00f4ng Hoa","place":"quarter"},"geometry":{"type":"Point","coordinates":[106.66566,20.89273]}},{"type":"Feature","properties":{"osm":"n12330714714","name":"\u0110\u1ea7u C\u1ea7u","place":"quarter"},"geometry":{"type":"Point","coordinates":[106.66131,20.89216]}},{"type":"Feature","properties":{"osm":"n12330714715","name":"\u0110\u1ea7m \u0110\u1ec1n","place":"quarter"},"geometry":{"type":"Point","coordinates":[106.66764,20.8987]}},{"type":"Feature","properties":{"osm":"n12330714716","name":"C\u1ed5ng \u0110\u1ea5t","place":"quarter"},"geometry":{"type":"Point","coordinates":[106.66306,20.891]}},{"type":"Feature","properties":{"osm":"n12330714717","name":"Ch\u00f9a","place":"quarter"},"geometry":{"type":"Point","coordinates":[106.65952,20.89583]}},{"type":"Feature","properties":{"osm":"n12330714718","name":"B\u00e1i Trong","place":"quarter"},"geometry":{"type":"Point","coordinates":[106.66163,20.88784]}},{"type":"Feature","properties":{"osm":"n12330714719","name":"B\u00e1i Ngo\u00e0i","place":"quarter"},"geometry":{"type":"Point","coordinates":[106.6638,20.88774]}},{"type":"Feature","properties":{"osm":"n12330714720","name":"T\u1ed5 d\u00e2n ph\u1ed1 5","place":"quarter"},"geometry":{"type":"Point","coordinates":[106.64265,20.93588]}},{"type":"Feature","properties":{"osm":"n12330714721","name":"T\u1ed5 d\u00e2n ph\u1ed1 4","place":"quarter"},"geometry":{"type":"Point","coordinates":[106.64861,20.93079]}},{"type":"Feature","properties":{"osm":"n12330714722","name":"T\u1ed5 d\u00e2n ph\u1ed1 9","place":"quarter"},"geometry":{"type":"Point","coordinates":[106.64624,20.92359]}},{"type":"Feature","properties":{"osm":"n12330714723","name":"T\u1ed5 d\u00e2n ph\u1ed1 8","place":"quarter"},"geometry":{"type":"Point","coordinates":[106.64766,20.9217]}},{"type":"Feature","properties":{"osm":"n12330714724","name":"T\u1ed5 d\u00e2n ph\u1ed1 7","place":"quarter"},"geometry":{"type":"Point","coordinates":[106.64248,20.92184]}},{"type":"Feature","properties":{"osm":"n12330714725","name":"T\u1ed5 d\u00e2n ph\u1ed1 3","place":"quarter"},"geometry":{"type":"Point","coordinates":[106.65508,20.91817]}},{"type":"Feature","properties":{"osm":"n12330714726","name":"T\u1ed5 d\u00e2n ph\u1ed1 2","place":"quarter"},"geometry":{"type":"Point","coordinates":[106.65308,20.91218]}},{"type":"Feature","properties":{"osm":"n12330714727","name":"T\u1ed5 d\u00e2n ph\u1ed1 1","place":"quarter"},"geometry":{"type":"Point","coordinates":[106.64616,20.90996]}},{"type":"Feature","properties":{"osm":"n12330714728","name":"T\u1ed5 d\u00e2n ph\u1ed1 7","place":"quarter"},"geometry":{"type":"Point","coordinates":[106.63682,20.92644]}},{"type":"Feature","properties":{"osm":"n12330714729","name":"T\u1ed5 d\u00e2n ph\u1ed1 6","place":"quarter"},"geometry":{"type":"Point","coordinates":[106.63458,20.92328]}},{"type":"Feature","properties":{"osm":"n12330714730","name":"T\u1ed5 d\u00e2n ph\u1ed1 5","place":"quarter"},"geometry":{"type":"Point","coordinates":[106.6349,20.92058]}},{"type":"Feature","properties":{"osm":"n12330714731","name":"T\u1ed5 d\u00e2n ph\u1ed1 6","place":"quarter"},"geometry":{"type":"Point","coordinates":[106.63366,20.93649]}},{"type":"Feature","properties":{"osm":"n12330714732","name":"T\u1ed5 d\u00e2n ph\u1ed1 5","place":"quarter"},"geometry":{"type":"Point","coordinates":[106.62778,20.92933]}},{"type":"Feature","properties":{"osm":"n12330714733","name":"T\u1ed5 d\u00e2n ph\u1ed1 4","place":"quarter"},"geometry":{"type":"Point","coordinates":[106.62866,20.93247]}},{"type":"Feature","properties":{"osm":"n12330714734","name":"T\u1ed5 d\u00e2n ph\u1ed1 3","place":"quarter"},"geometry":{"type":"Point","coordinates":[106.63408,20.93883]}},{"type":"Feature","properties":{"osm":"n12330714735","name":"T\u1ed5 d\u00e2n ph\u1ed1 2","place":"quarter"},"geometry":{"type":"Point","coordinates":[106.6336,20.94129]}},{"type":"Feature","properties":{"osm":"n12330714736","name":"T\u1ed5 d\u00e2n ph\u1ed1 1","place":"quarter"},"geometry":{"type":"Point","coordinates":[106.6361,20.94431]}},{"type":"Feature","properties":{"osm":"n12330714737","name":"T\u1ed5 d\u00e2n ph\u1ed1 4","place":"quarter"},"geometry":{"type":"Point","coordinates":[106.62899,20.92419]}},{"type":"Feature","properties":{"osm":"n12330714738","name":"T\u1ed5 d\u00e2n ph\u1ed1 3","place":"quarter"},"geometry":{"type":"Point","coordinates":[106.62648,20.91822]}},{"type":"Feature","properties":{"osm":"n12330714739","name":"T\u1ed5 d\u00e2n ph\u1ed1 2","place":"quarter"},"geometry":{"type":"Point","coordinates":[106.63688,20.91879]}},{"type":"Feature","properties":{"osm":"n12330714740","name":"T\u1ed5 d\u00e2n ph\u1ed1 1","place":"quarter"},"geometry":{"type":"Point","coordinates":[106.63919,20.91465]}},{"type":"Feature","properties":{"osm":"n12330714806","name":"Chu V\u01b0\u1eddn","place":"quarter"},"geometry":{"type":"Point","coordinates":[106.67089,20.9485]}},{"type":"Feature","properties":{"osm":"n12330714812","name":"T\u1ed5 d\u00e2n ph\u1ed1 8","place":"quarter"},"geometry":{"type":"Point","coordinates":[106.64418,20.94472]}},{"type":"Feature","properties":{"osm":"n12330714813","name":"T\u1ed5 d\u00e2n ph\u1ed1 7","place":"quarter"},"geometry":{"type":"Point","coordinates":[106.64927,20.94305]}},{"type":"Feature","properties":{"osm":"n12330714814","name":"T\u1ed5 d\u00e2n ph\u1ed1 4","place":"quarter"},"geometry":{"type":"Point","coordinates":[106.66649,20.94026]}},{"type":"Feature","properties":{"osm":"n12330714815","name":"T\u1ed5 d\u00e2n ph\u1ed1 3","place":"quarter"},"geometry":{"type":"Point","coordinates":[106.66015,20.93777]}},{"type":"Feature","properties":{"osm":"n12330714816","name":"T\u1ed5 d\u00e2n ph\u1ed1 2","place":"quarter"},"geometry":{"type":"Point","coordinates":[106.65784,20.93531]}},{"type":"Feature","properties":{"osm":"n12330714817","name":"T\u1ed5 d\u00e2n ph\u1ed1 1","place":"quarter"},"geometry":{"type":"Point","coordinates":[106.65561,20.93346]}},{"type":"Feature","properties":{"osm":"n12330714818","name":"\u0110\u01b0\u1eddng 10","place":"quarter"},"geometry":{"type":"Point","coordinates":[106.67295,20.90005]}},{"type":"Feature","properties":{"osm":"n12330714819","name":"T\u1ed5 d\u00e2n ph\u1ed1 7","place":"quarter"},"geometry":{"type":"Point","coordinates":[106.68064,20.89963]}},{"type":"Feature","properties":{"osm":"n12330714820","name":"T\u1ed5 d\u00e2n ph\u1ed1 6","place":"quarter"},"geometry":{"type":"Point","coordinates":[106.68063,20.897]}},{"type":"Feature","properties":{"osm":"n12330714821","name":"T\u1ed5 d\u00e2n ph\u1ed1 4B","place":"quarter"},"geometry":{"type":"Point","coordinates":[106.67349,20.8936]}},{"type":"Feature","properties":{"osm":"n12330714822","name":"T\u1ed5 d\u00e2n ph\u1ed1 4A","place":"quarter"},"geometry":{"type":"Point","coordinates":[106.67716,20.8951]}},{"type":"Feature","properties":{"osm":"n12330714823","name":"T\u1ed5 d\u00e2n ph\u1ed1 3","place":"quarter"},"geometry":{"type":"Point","coordinates":[106.67684,20.8992]}},{"type":"Feature","properties":{"osm":"n12330714824","name":"T\u1ed5 d\u00e2n ph\u1ed1 2","place":"quarter"},"geometry":{"type":"Point","coordinates":[106.67525,20.90024]}},{"type":"Feature","properties":{"osm":"n12330714825","name":"T\u1ed5 d\u00e2n ph\u1ed1 1","place":"quarter"},"geometry":{"type":"Point","coordinates":[106.6767,20.90403]}},{"type":"Feature","properties":{"osm":"n12330714826","name":"Th\u1ea7u \u0110\u00e2u","place":"quarter"},"geometry":{"type":"Point","coordinates":[106.69043,20.90102]}},{"type":"Feature","properties":{"osm":"n12330714827","name":"T\u00e2y H\u1eefu Quan","place":"quarter"},"geometry":{"type":"Point","coordinates":[106.68772,20.88593]}},{"type":"Feature","properties":{"osm":"n12330714828","name":"T\u00e2y Gi\u1eefa","place":"quarter"},"geometry":{"type":"Point","coordinates":[106.68563,20.89805]}},{"type":"Feature","properties":{"osm":"n12330714829","name":"\u0110\u00f4ng Nh\u00e0 Th\u1edd","place":"quarter"},"geometry":{"type":"Point","coordinates":[106.69054,20.88566]}},{"type":"Feature","properties":{"osm":"n12330714830","name":"\u0110\u00f4ng Nam","place":"quarter"},"geometry":{"type":"Point","coordinates":[106.68792,20.89744]}},{"type":"Feature","properties":{"osm":"n12330714831","name":"\u0110\u1ea7u C\u1ea7u","place":"quarter"},"geometry":{"type":"Point","coordinates":[106.69046,20.89289]}},{"type":"Feature","properties":{"osm":"n12330714832","name":"Ch\u00e2n L\u1ea7m","place":"quarter"},"geometry":{"type":"Point","coordinates":[106.68718,20.89019]}},{"type":"Feature","properties":{"osm":"n12330714833","name":"B\u00e3i C\u00e1t","place":"quarter"},"geometry":{"type":"Point","coordinates":[106.69266,20.89171]}},{"type":"Feature","properties":{"osm":"n12330714834","name":"B\u1ea5c Vang","place":"quarter"},"geometry":{"type":"Point","coordinates":[106.68687,20.9009]}},{"type":"Feature","properties":{"osm":"n12330714835","name":"\u00c1p Tr\u00e0n","place":"quarter"},"geometry":{"type":"Point","coordinates":[106.69181,20.89502]}},{"type":"Feature","properties":{"osm":"n12330714841","name":"Th\u00f4n 2","place":"hamlet"},"geometry":{"type":"Point","coordinates":[106.60742,20.93828]}},{"type":"Feature","properties":{"osm":"n12330714842","name":"Th\u00f4n 1","place":"hamlet"},"geometry":{"type":"Point","coordinates":[106.60923,20.94155]}},{"type":"Feature","properties":{"osm":"n12330714851","name":"Th\u00f4n 3","place":"hamlet"},"geometry":{"type":"Point","coordinates":[106.61149,20.92953]}},{"type":"Feature","properties":{"osm":"n12330714852","name":"Th\u00f4n 9","place":"hamlet"},"geometry":{"type":"Point","coordinates":[106.62694,20.9423]}},{"type":"Feature","properties":{"osm":"n12330714853","name":"Th\u00f4n 8","place":"hamlet"},"geometry":{"type":"Point","coordinates":[106.62243,20.94359]}},{"type":"Feature","properties":{"osm":"n12330714854","name":"Th\u00f4n 7","place":"hamlet"},"geometry":{"type":"Point","coordinates":[106.61863,20.94221]}},{"type":"Feature","properties":{"osm":"n12330714855","name":"Th\u00f4n 6","place":"hamlet"},"geometry":{"type":"Point","coordinates":[106.6227,20.9399]}},{"type":"Feature","properties":{"osm":"n12330714856","name":"Th\u00f4n 5","place":"hamlet"},"geometry":{"type":"Point","coordinates":[106.62007,20.936]}},{"type":"Feature","properties":{"osm":"n12330714857","name":"Th\u00f4n 4","place":"hamlet"},"geometry":{"type":"Point","coordinates":[106.61964,20.93279]}},{"type":"Feature","properties":{"osm":"n12330714858","name":"Th\u00f4n 2","place":"hamlet"},"geometry":{"type":"Point","coordinates":[106.61647,20.93013]}},{"type":"Feature","properties":{"osm":"n12330714859","name":"Th\u00f4n 1","place":"hamlet"},"geometry":{"type":"Point","coordinates":[106.61842,20.926]}},{"type":"Feature","properties":{"osm":"n12330714881","name":"Sim","place":"quarter"},"geometry":{"type":"Point","coordinates":[106.6959,20.93436]}},{"type":"Feature","properties":{"osm":"n12330714882","name":"S\u00e1u Phi\u00ean","place":"quarter"},"geometry":{"type":"Point","coordinates":[106.7035,20.8935]}},{"type":"Feature","properties":{"osm":"n12330714883","name":"C\u00e2y \u0110a","place":"quarter"},"geometry":{"type":"Point","coordinates":[106.70118,20.91823]}},{"type":"Feature","properties":{"osm":"n12330714884","name":"B\u1ea5c","place":"quarter"},"geometry":{"type":"Point","coordinates":[106.69657,20.93211]}},{"type":"Feature","properties":{"osm":"n12330714885","name":"An Tr\u1ea1i","place":"quarter"},"geometry":{"type":"Point","coordinates":[106.69765,20.92204]}},{"type":"Feature","properties":{"osm":"n12330714886","name":"An Ti\u1ebfn","place":"quarter"},"geometry":{"type":"Point","coordinates":[106.69641,20.92779]}},{"type":"Feature","properties":{"osm":"n12330714887","name":"An Th\u1eafng","place":"quarter"},"geometry":{"type":"Point","coordinates":[106.69707,20.93031]}},{"type":"Feature","properties":{"osm":"n12330714888","name":"An N\u1ed9i","place":"quarter"},"geometry":{"type":"Point","coordinates":[106.69723,20.92412]}},{"type":"Feature","properties":{"osm":"n12330714889","name":"An L\u1ee3i","place":"quarter"},"geometry":{"type":"Point","coordinates":[106.69851,20.93083]}},{"type":"Feature","properties":{"osm":"n12330714890","name":"An L\u1eadp","place":"quarter"},"geometry":{"type":"Point","coordinates":[106.69901,20.92439]}},{"type":"Feature","properties":{"osm":"n12330714891","name":"An Ho\u00e0","place":"quarter"},"geometry":{"type":"Point","coordinates":[106.69675,20.92548]}},{"type":"Feature","properties":{"osm":"n12330714892","name":"An H\u1ed3","place":"quarter"},"geometry":{"type":"Point","coordinates":[106.6947,20.92911]}},{"type":"Feature","properties":{"osm":"n12330714893","name":"An B\u00ecnh","place":"quarter"},"geometry":{"type":"Point","coordinates":[106.69485,20.92646]}},{"type":"Feature","properties":{"osm":"n12330714894","name":"T\u1ed5 d\u00e2n ph\u1ed1 6","place":"quarter"},"geometry":{"type":"Point","coordinates":[106.66001,20.92397]}},{"type":"Feature","properties":{"osm":"n12330714895","name":"T\u1ed5 d\u00e2n ph\u1ed1 7","place":"quarter"},"geometry":{"type":"Point","coordinates":[106.65294,20.92442]}},{"type":"Feature","properties":{"osm":"n12330714896","name":"T\u1ed5 d\u00e2n ph\u1ed1 5","place":"quarter"},"geometry":{"type":"Point","coordinates":[106.6651,20.92231]}},{"type":"Feature","properties":{"osm":"n12330714897","name":"T\u1ed5 d\u00e2n ph\u1ed1 4","place":"quarter"},"geometry":{"type":"Point","coordinates":[106.67011,20.91118]}},{"type":"Feature","properties":{"osm":"n12330714898","name":"T\u1ed5 d\u00e2n ph\u1ed1 2","place":"quarter"},"geometry":{"type":"Point","coordinates":[106.67767,20.90808]}},{"type":"Feature","properties":{"osm":"n12330714899","name":"T\u1ed5 d\u00e2n ph\u1ed1 1","place":"quarter"},"geometry":{"type":"Point","coordinates":[106.67475,20.90761]}},{"type":"Feature","properties":{"osm":"n12330714900","name":"Tr\u1ea1i","place":"quarter"},"geometry":{"type":"Point","coordinates":[106.68949,20.92471]}},{"type":"Feature","properties":{"osm":"n12330714901","name":"T\u00e2y Nam","place":"quarter"},"geometry":{"type":"Point","coordinates":[106.68318,20.91344]}},{"type":"Feature","properties":{"osm":"n12330714902","name":"Sanh Soi","place":"quarter"},"geometry":{"type":"Point","coordinates":[106.68325,20.92642]}},{"type":"Feature","properties":{"osm":"n12330714904","name":"N\u00fai 2","place":"quarter"},"geometry":{"type":"Point","coordinates":[106.67459,20.92494]}},{"type":"Feature","properties":{"osm":"n12330714905","name":"N\u00fai 1","place":"quarter"},"geometry":{"type":"Point","coordinates":[106.67346,20.92896]}},{"type":"Feature","properties":{"osm":"n12330714906","name":"M\u00e1nh","place":"quarter"},"geometry":{"type":"Point","coordinates":[106.68106,20.92374]}},{"type":"Feature","properties":{"osm":"n12330714907","name":"\u0110\u1ed3ng M\u00e1t","place":"quarter"},"geometry":{"type":"Point","coordinates":[106.68959,20.92267]}},{"type":"Feature","properties":{"osm":"n12330714908","name":"\u0110\u1ed1ng Am","place":"quarter"},"geometry":{"type":"Point","coordinates":[106.68554,20.91542]}},{"type":"Feature","properties":{"osm":"n12330714909","name":"\u0110\u00f4ng","place":"quarter"},"geometry":{"type":"Point","coordinates":[106.68222,20.91544]}},{"type":"Feature","properties":{"osm":"n12330714910","name":"B\u1ea5c 2","place":"quarter"},"geometry":{"type":"Point","coordinates":[106.68529,20.92019]}},{"type":"Feature","properties":{"osm":"n12330714911","name":"B\u1ea5c 1","place":"quarter"},"geometry":{"type":"Point","coordinates":[106.68179,20.919]}},{"type":"Feature","properties":{"osm":"n12330714913","name":"H\u00e0m Long","place":"quarter"},"geometry":{"type":"Point","coordinates":[106.67993,20.91624]}},{"type":"Feature","properties":{"osm":"n12330714914","name":"\u0110\u00e0 N\u1eb5ng","place":"quarter"},"geometry":{"type":"Point","coordinates":[106.67583,20.91314]}},{"type":"Feature","properties":{"osm":"n12330714915","name":"B\u1ea1ch \u0110\u1eb1ng II","place":"quarter"},"geometry":{"type":"Point","coordinates":[106.67896,20.91915]}},{"type":"Feature","properties":{"osm":"n12330714916","name":"B\u1ea1ch \u0110\u1eb1ng I","place":"quarter"},"geometry":{"type":"Point","coordinates":[106.67741,20.92057]}},{"type":"Feature","properties":{"osm":"n12330714917","name":"T\u1ed5 d\u00e2n ph\u1ed1 25/10","place":"quarter"},"geometry":{"type":"Point","coordinates":[106.67163,20.91662]}},{"type":"Feature","properties":{"osm":"n12669500972","name":"C\u1ed9ng H\u00f2a","place":"suburb"},"geometry":{"type":"Point","coordinates":[106.82637,20.94429]}},{"type":"Feature","properties":{"osm":"n12669500974","name":"Li\u00ean H\u00f2a","name:en":"Lien Hoa Ward","place":"suburb"},"geometry":{"type":"Point","coordinates":[106.83678,20.87526]}},{"type":"Feature","properties":{"osm":"n12669500975","name":"Ti\u1ec1n Phong","place":"village"},"geometry":{"type":"Point","coordinates":[106.84366,20.85342]}},{"type":"Feature","properties":{"osm":"n12669500976","name":"Y\u00ean H\u1ea3i","place":"quarter"},"geometry":{"type":"Point","coordinates":[106.80078,20.90345]}},{"type":"Feature","properties":{"osm":"n12669500977","name":"Nam H\u00f2a","place":"suburb"},"geometry":{"type":"Point","coordinates":[106.79387,20.92145]}},{"type":"Feature","properties":{"osm":"n12669500978","name":"Y\u00ean Giang","place":"suburb"},"geometry":{"type":"Point","coordinates":[106.79216,20.94114]}},{"type":"Feature","properties":{"osm":"n12669500979","name":"Qu\u1ea3ng Y\u00ean","name:en":"Quang Yen Ward","place":"suburb"},"geometry":{"type":"Point","coordinates":[106.80272,20.9418]}},{"type":"Feature","properties":{"osm":"n12669552760","name":"Phong H\u1ea3i","place":"suburb"},"geometry":{"type":"Point","coordinates":[106.81603,20.90387]}},{"type":"Feature","properties":{"osm":"n12921378676","name":"An Bi\u00ean","name:en":"An Bi\u00ean Ward","place":"suburb"},"geometry":{"type":"Point","coordinates":[106.68005,20.83008]}},{"type":"Feature","properties":{"osm":"n12922934601","name":"Nam \u0110\u1ed3 S\u01a1n","name:en":"Nam \u0110\u1ed3 S\u01a1n Ward","place":"suburb"},"geometry":{"type":"Point","coordinates":[106.75119,20.74965]}},{"type":"Feature","properties":{"osm":"n12922934602","name":"\u0110\u1ed3 S\u01a1n","name:en":"\u0110\u1ed3 S\u01a1n Ward","place":"suburb"},"geometry":{"type":"Point","coordinates":[106.78567,20.71976]}},{"type":"Feature","properties":{"osm":"n12948776700","name":"Nguy\u1ec5n B\u1ec9nh Khi\u00eam","name:en":"Nguy\u1ec5n B\u1ec9nh Khi\u00eam Commune","place":"town"},"geometry":{"type":"Point","coordinates":[106.56828,20.64048]}},{"type":"Feature","properties":{"osm":"n12948799701","name":"V\u0129nh Am","name:en":"V\u0129nh Am Commune","place":"town"},"geometry":{"type":"Point","coordinates":[106.54275,20.63578]}},{"type":"Feature","properties":{"osm":"n12949327216","name":"H\u00f9ng Th\u1eafng","name:en":"H\u00f9ng Th\u1eafng Commune","place":"town"},"geometry":{"type":"Point","coordinates":[106.65622,20.67635]}},{"type":"Feature","properties":{"osm":"n12949327217","name":"Ch\u1ea5n H\u01b0ng","name:en":"Ch\u1ea5n H\u01b0ng Commune","place":"town"},"geometry":{"type":"Point","coordinates":[106.63589,20.66359]}},{"type":"Feature","properties":{"osm":"n12949327218","name":"Ti\u00ean Minh","name:en":"Ti\u00ean Minh Commune","place":"town"},"geometry":{"type":"Point","coordinates":[106.58684,20.70704]}},{"type":"Feature","properties":{"osm":"n12949327219","name":"Ti\u00ean L\u00e3ng","name:en":"Ti\u00ean L\u00e3ng Commune","place":"town"},"geometry":{"type":"Point","coordinates":[106.56063,20.72882]}},{"type":"Feature","properties":{"osm":"n12949327220","name":"T\u00e2n Minh","name:en":"T\u00e2n Minh Commune","place":"town"},"geometry":{"type":"Point","coordinates":[106.53861,20.70297]}},{"type":"Feature","properties":{"osm":"n12949327221","name":"Quy\u1ebft Th\u1eafng","name:en":"Quy\u1ebft Th\u1eafng Commune","place":"town"},"geometry":{"type":"Point","coordinates":[106.51938,20.77148]}},{"type":"Feature","properties":{"osm":"n12950674337","name":"An H\u01b0ng","name:en":"An H\u01b0ng Commune","place":"town"},"geometry":{"type":"Point","coordinates":[106.60547,20.74353]}},{"type":"Feature","properties":{"osm":"n12950674346","name":"An Kh\u00e1nh","name:en":"An Kh\u00e1nh Commune","place":"town"},"geometry":{"type":"Point","coordinates":[106.60043,20.76349]}},{"type":"Feature","properties":{"osm":"n12950674347","name":"An Tr\u01b0\u1eddng","name:en":"An Tr\u01b0\u1eddng Commune","place":"town"},"geometry":{"type":"Point","coordinates":[106.56138,20.84467]}},{"type":"Feature","properties":{"osm":"n12950674350","name":"An Quang","name:en":"An Quang Commune","place":"town"},"geometry":{"type":"Point","coordinates":[106.52876,20.80389]}},{"type":"Feature","properties":{"osm":"n12954790842","name":"Kim Th\u00e0nh","name:en":"Kim Th\u00e0nh Commune","place":"town"},"geometry":{"type":"Point","coordinates":[106.50966,20.90259]}},{"type":"Feature","properties":{"osm":"n13208660176","name":"Kinh \u0110\u00f4","place":"quarter"},"geometry":{"type":"Point","coordinates":[106.71173,20.881]}},{"type":"Feature","properties":{"osm":"n13208660177","name":"\u0110\u1ea3o Vua","place":"quarter"},"geometry":{"type":"Point","coordinates":[106.71525,20.88347]}},{"type":"Feature","properties":{"osm":"n13208660178","name":"Ho\u00e0ng Gia","place":"quarter"},"geometry":{"type":"Point","coordinates":[106.73084,20.88039]}},{"type":"Feature","properties":{"osm":"n13208660179","name":"Qu\u00fd T\u1ed9c","place":"quarter"},"geometry":{"type":"Point","coordinates":[106.74331,20.87143]}},{"type":"Feature","properties":{"osm":"n13208660180","name":"Thi\u00ean \u0110\u01b0\u1eddng","place":"quarter"},"geometry":{"type":"Point","coordinates":[106.74173,20.86454]}},{"type":"Feature","properties":{"osm":"n13208660181","name":"Ho\u00e0ng Th\u00e0nh","place":"quarter"},"geometry":{"type":"Point","coordinates":[106.74695,20.86121]}},{"type":"Feature","properties":{"osm":"n13208660182","name":"Komorebi","place":"quarter"},"geometry":{"type":"Point","coordinates":[106.74534,20.85825]}},{"type":"Feature","properties":{"osm":"n13208660183","name":"Myabi","place":"quarter"},"geometry":{"type":"Point","coordinates":[106.73905,20.86058]}},{"type":"Feature","properties":{"osm":"n13208660184","name":"T\u00e0i L\u1ed9c","place":"quarter"},"geometry":{"type":"Point","coordinates":[106.728,20.86597]}},{"type":"Feature","properties":{"osm":"n13208660185","name":"Golf Land","place":"quarter"},"geometry":{"type":"Point","coordinates":[106.73721,20.8734]}},{"type":"Feature","properties":{"osm":"n13449373902","name":"M\u00e1y T\u01a1","place":"quarter"},"geometry":{"type":"Point","coordinates":[106.69461,20.86392]}},{"type":"Feature","properties":{"osm":"n13449373903","name":"\u0110\u00f4ng Kh\u00ea","place":"quarter"},"geometry":{"type":"Point","coordinates":[106.70155,20.85312]}},{"type":"Feature","properties":{"osm":"n13449373904","name":"C\u1ea7u Tre","place":"quarter"},"geometry":{"type":"Point","coordinates":[106.70498,20.86105]}},{"type":"Feature","properties":{"osm":"n13449373905","name":"V\u1ea1n M\u1ef9","place":"quarter"},"geometry":{"type":"Point","coordinates":[106.71028,20.86104]}},{"type":"Feature","properties":{"osm":"n13449373906","name":"M\u00e1y Chai","place":"quarter"},"geometry":{"type":"Point","coordinates":[106.70327,20.87122]}},{"type":"Feature","properties":{"osm":"n13449373907","name":"Gia Vi\u00ean","place":"quarter"},"geometry":{"type":"Point","coordinates":[106.69275,20.85925]}},{"type":"Feature","properties":{"osm":"n13449373908","name":"C\u1ea7u \u0110\u1ea5t","place":"quarter"},"geometry":{"type":"Point","coordinates":[106.68692,20.85703]}},{"type":"Feature","properties":{"osm":"n13449373909","name":"L\u1ea1ch Tray","place":"quarter"},"geometry":{"type":"Point","coordinates":[106.69344,20.84907]}},{"type":"Feature","properties":{"osm":"n13449373910","name":"\u0110\u1eb1ng Giang","place":"quarter"},"geometry":{"type":"Point","coordinates":[106.70269,20.84259]}},{"type":"Feature","properties":{"osm":"n13449373911","name":"\u0110\u1ed3ng Qu\u1ed1c B\u00ecnh","place":"quarter"},"geometry":{"type":"Point","coordinates":[106.6981,20.83898]}},{"type":"Feature","properties":{"osm":"n13449373912","name":"K\u00eanh D\u01b0\u01a1ng","place":"quarter"},"geometry":{"type":"Point","coordinates":[106.68776,20.83281]}},{"type":"Feature","properties":{"osm":"n13449373913","name":"V\u0129nh Ni\u1ec7m","place":"quarter"},"geometry":{"type":"Point","coordinates":[106.68385,20.82277]}},{"type":"Feature","properties":{"osm":"n13449373914","name":"D\u01b0 H\u00e0ng K\u00eanh","place":"quarter"},"geometry":{"type":"Point","coordinates":[106.68037,20.84011]}},{"type":"Feature","properties":{"osm":"n13449373915","name":"H\u00e0ng K\u00eanh","place":"quarter"},"geometry":{"type":"Point","coordinates":[106.68527,20.85055]}},{"type":"Feature","properties":{"osm":"n13449373916","name":"An Bi\u00ean","place":"quarter"},"geometry":{"type":"Point","coordinates":[106.67944,20.85324]}},{"type":"Feature","properties":{"osm":"n13449373917","name":"C\u00e1t D\u00e0i","place":"quarter"},"geometry":{"type":"Point","coordinates":[106.67385,20.85255]}},{"type":"Feature","properties":{"osm":"n13449373918","name":"Lam S\u01a1n","place":"quarter"},"geometry":{"type":"Point","coordinates":[106.66304,20.84895]}},{"type":"Feature","properties":{"osm":"n13449373919","name":"An D\u01b0\u01a1ng","place":"quarter"},"geometry":{"type":"Point","coordinates":[106.6669,20.84834]}},{"type":"Feature","properties":{"osm":"n13449373920","name":"Ni\u1ec7m Ngh\u0129a","place":"quarter"},"geometry":{"type":"Point","coordinates":[106.66504,20.84154]}},{"type":"Feature","properties":{"osm":"n13449373921","name":"Ngh\u0129a X\u00e1","place":"quarter"},"geometry":{"type":"Point","coordinates":[106.67063,20.84136]}},{"type":"Feature","properties":{"osm":"n13449373922","name":"D\u01b0 H\u00e0ng","place":"quarter"},"geometry":{"type":"Point","coordinates":[106.67886,20.84703]}},{"type":"Feature","properties":{"osm":"n13449373923","name":"H\u1ed3 Nam","place":"quarter"},"geometry":{"type":"Point","coordinates":[106.67412,20.84895]}},{"type":"Feature","properties":{"osm":"n13449373924","name":"\u0110\u00f4ng H\u1ea3i","place":"quarter"},"geometry":{"type":"Point","coordinates":[106.68863,20.84401]}},{"type":"Feature","properties":{"osm":"n13449373925","name":"Tr\u1ea7n Nguy\u00ean H\u00e3n","place":"quarter"},"geometry":{"type":"Point","coordinates":[106.67156,20.84902]}},{"type":"Feature","properties":{"osm":"n13449373926","name":"H\u1ea1 L\u00fd","place":"quarter"},"geometry":{"type":"Point","coordinates":[106.67304,20.86218]}},{"type":"Feature","properties":{"osm":"n13449373927","name":"Phan B\u1ed9i Ch\u00e2u","place":"quarter"},"geometry":{"type":"Point","coordinates":[106.67532,20.85617]}},{"type":"Feature","properties":{"osm":"n13449373928","name":"Ho\u00e0ng V\u0103n Th\u1ee5","place":"quarter"},"geometry":{"type":"Point","coordinates":[106.68192,20.85952]}},{"type":"Feature","properties":{"osm":"n13449373929","name":"Minh Khai","place":"quarter"},"geometry":{"type":"Point","coordinates":[106.68461,20.86179]}},{"type":"Feature","properties":{"osm":"n13449373930","name":"Th\u01b0\u1ee3ng L\u00fd","place":"quarter"},"geometry":{"type":"Point","coordinates":[106.6661,20.86399]}},{"type":"Feature","properties":{"osm":"n13449373931","name":"Tr\u1ea1i Chu\u1ed1i","place":"quarter"},"geometry":{"type":"Point","coordinates":[106.66272,20.85705]}},{"type":"Feature","properties":{"osm":"n13449373932","name":"S\u1edf D\u1ea7u","place":"quarter"},"geometry":{"type":"Point","coordinates":[106.65546,20.87127]}},{"type":"Feature","properties":{"osm":"n13449373933","name":"H\u00f9ng V\u01b0\u01a1ng","place":"quarter"},"geometry":{"type":"Point","coordinates":[106.63667,20.87375]}},{"type":"Feature","properties":{"osm":"n13449373934","name":"Qu\u00e1n Toan","place":"quarter"},"geometry":{"type":"Point","coordinates":[106.60408,20.89341]}},{"type":"Feature","properties":{"osm":"n13449373935","name":"An \u0110\u1ed3ng","place":"quarter"},"geometry":{"type":"Point","coordinates":[106.64268,20.85771]}},{"type":"Feature","properties":{"osm":"n13449373936","name":"L\u00e3m H\u00e0","place":"quarter"},"geometry":{"type":"Point","coordinates":[106.66007,20.83518]}},{"type":"Feature","properties":{"osm":"n13449373937","name":"\u0110\u1ed3ng H\u00f2a","place":"quarter"},"geometry":{"type":"Point","coordinates":[106.66305,20.8184]}},{"type":"Feature","properties":{"osm":"n13449373938","name":"Qu\u00e1n Tr\u1eef","place":"quarter"},"geometry":{"type":"Point","coordinates":[106.64948,20.82259]}},{"type":"Feature","properties":{"osm":"n13449373939","name":"B\u1eafc S\u01a1n","place":"quarter"},"geometry":{"type":"Point","coordinates":[106.64305,20.8237]}},{"type":"Feature","properties":{"osm":"n13449373940","name":"Nam S\u01a1n","place":"quarter"},"geometry":{"type":"Point","coordinates":[106.64758,20.81437]}},{"type":"Feature","properties":{"osm":"n13449373941","name":"Tr\u1ea7n Th\u00e0nh Ng\u1ecd","place":"quarter"},"geometry":{"type":"Point","coordinates":[106.62457,20.80882]}},{"type":"Feature","properties":{"osm":"n13449373942","name":"V\u0103n \u0110\u1ea9u","place":"quarter"},"geometry":{"type":"Point","coordinates":[106.63588,20.79413]}},{"type":"Feature","properties":{"osm":"n13449373943","name":"Ph\u00f9 Li\u1ec5n","place":"quarter"},"geometry":{"type":"Point","coordinates":[106.62568,20.79396]}},{"type":"Feature","properties":{"osm":"n13449373944","name":"Ng\u1ecdc S\u01a1n","place":"quarter"},"geometry":{"type":"Point","coordinates":[106.62183,20.81156]}},{"type":"Feature","properties":{"osm":"n13449373945","name":"Tr\u00e0ng Minh","place":"quarter"},"geometry":{"type":"Point","coordinates":[106.61972,20.7874]}},{"type":"Feature","properties":{"osm":"n13449373946","name":"\u0110a Ph\u00fac","place":"quarter"},"geometry":{"type":"Point","coordinates":[106.66074,20.8]}},{"type":"Feature","properties":{"osm":"n13449373947","name":"H\u01b0ng \u0110\u1ea1o","place":"quarter"},"geometry":{"type":"Point","coordinates":[106.68641,20.80199]}},{"type":"Feature","properties":{"osm":"n13449373948","name":"Anh D\u0169ng 8","place":"quarter"},"geometry":{"type":"Point","coordinates":[106.69869,20.80535]}},{"type":"Feature","properties":{"osm":"n13449373949","name":"H\u1ea3i Th\u00e0nh","place":"quarter"},"geometry":{"type":"Point","coordinates":[106.71609,20.79777]}},{"type":"Feature","properties":{"osm":"n13449373950","name":"H\u00f2a Ngh\u0129a","place":"quarter"},"geometry":{"type":"Point","coordinates":[106.7195,20.77709]}},{"type":"Feature","properties":{"osm":"n13449373951","name":"T\u00e2n Th\u00e0nh","place":"quarter"},"geometry":{"type":"Point","coordinates":[106.75797,20.75253]}},{"type":"Feature","properties":{"osm":"n13449373952","name":"H\u1ee3p \u0110\u1ee9c","place":"quarter"},"geometry":{"type":"Point","coordinates":[106.74317,20.74946]}},{"type":"Feature","properties":{"osm":"n13449373953","name":"Minh \u0110\u1ee9c","place":"quarter"},"geometry":{"type":"Point","coordinates":[106.75145,20.73622]}},{"type":"Feature","properties":{"osm":"n13449373954","name":"B\u00e0ng La","place":"quarter"},"geometry":{"type":"Point","coordinates":[106.74066,20.71163]}},{"type":"Feature","properties":{"osm":"n13449373955","name":"Ng\u1ecdc Xuy\u00ean","place":"quarter"},"geometry":{"type":"Point","coordinates":[106.78116,20.72286]}},{"type":"Feature","properties":{"osm":"n13449373956","name":"H\u1ea3i S\u01a1n","place":"quarter"},"geometry":{"type":"Point","coordinates":[106.78882,20.71618]}},{"type":"Feature","properties":{"osm":"n13449373957","name":"V\u1ea1n H\u01b0\u01a1ng","place":"quarter"},"geometry":{"type":"Point","coordinates":[106.79067,20.69761]}}]}