{"type":"FeatureCollection","features":[{"type":"Feature","properties":{"osm":"w1499910633","power":"minor_line","operator":"EVN"},"geometry":{"type":"LineString","coordinates":[[105.95365,21.00911],[105.95364,21.00911],[105.95372,21.0091],[105.95382,21.00915],[105.95383,21.00924],[105.95393,21.00942],[105.95421,21.00935],[105.95424,21.00937],[105.95427,21.00934],[105.95454,21.00912],[105.95501,21.00878],[105.95537,21.00851],[105.95585,21.00813],[105.95613,21.00795],[105.95653,21.00767],[105.95681,21.00747],[105.95722,21.00716],[105.95758,21.00687],[105.95792,21.00665],[105.95823,21.00642],[105.95846,21.00627],[105.95867,21.00612],[105.95901,21.00586],[105.9594,21.00561],[105.95967,21.00539],[105.9598,21.00545],[105.95998,21.00553],[105.96027,21.00574],[105.96041,21.00568],[105.96064,21.00554],[105.96092,21.00538],[105.96101,21.00533],[105.96117,21.00524],[105.9615,21.00508],[105.96173,21.00496],[105.9619,21.00489],[105.962,21.00481],[105.96225,21.00466],[105.9622,21.00431],[105.96225,21.00426],[105.96233,21.00421],[105.96254,21.00406],[105.9628,21.00388],[105.96294,21.00374],[105.96309,21.00365],[105.96312,21.00361],[105.96337,21.00337],[105.96338,21.00336],[105.96348,21.00328],[105.96362,21.00311],[105.96344,21.00298],[105.9635,21.00277],[105.9639,21.00254],[105.96408,21.00265],[105.96426,21.00248],[105.96448,21.00224],[105.96469,21.00202],[105.96479,21.00185],[105.9652,21.00144],[105.96627,21.00053],[105.96671,21.00024],[105.96804,20.99924],[105.96805,20.99922],[105.96844,20.99892],[105.96871,20.99872],[105.96894,20.99856],[105.96907,20.99847],[105.96925,20.99844],[105.96964,20.99815],[105.97009,20.99783],[105.97038,20.9976],[105.97049,20.99757],[105.97068,20.99736],[105.97107,20.99699],[105.97115,20.99684],[105.97129,20.99664],[105.97145,20.99639],[105.97156,20.9962],[105.97172,20.99594],[105.97176,20.99586],[105.97181,20.99579],[105.97191,20.99558],[105.97195,20.99539],[105.97205,20.99519],[105.97218,20.99503],[105.97228,20.99484],[105.97249,20.99443],[105.97259,20.99426],[105.97268,20.99413],[105.97281,20.9939],[105.97295,20.99365],[105.97318,20.99328],[105.97328,20.99302],[105.97343,20.99281],[105.97355,20.99258],[105.97358,20.9926],[105.97359,20.99257],[105.97374,20.9923],[105.974,20.99194],[105.97419,20.99152],[105.97436,20.9913],[105.97466,20.99067],[105.97469,20.99065],[105.97485,20.99034],[105.97487,20.99036],[105.97502,20.9901],[105.97527,20.98966],[105.9755,20.98923],[105.97581,20.98877],[105.97598,20.98847],[105.97629,20.98794],[105.97645,20.98766],[105.97656,20.98735],[105.97659,20.98738],[105.97666,20.98721],[105.97686,20.98697],[105.97696,20.98682],[105.97707,20.98654],[105.9771,20.98655],[105.9773,20.98618],[105.97758,20.98571],[105.97781,20.98532],[105.97787,20.98518],[105.97788,20.98517],[105.97817,20.98472],[105.97837,20.98439],[105.97846,20.98429],[105.97869,20.98402],[105.97877,20.98396],[105.97877,20.98396],[105.97898,20.98365],[105.97898,20.98365],[105.97916,20.98338],[105.97919,20.9834],[105.97958,20.98295],[105.97994,20.98262],[105.98021,20.98234],[105.98059,20.98199],[105.98066,20.98193],[105.98119,20.98139],[105.98134,20.98127],[105.9816,20.98098],[105.98183,20.9808],[105.98216,20.9805],[105.98248,20.98014],[105.98263,20.98003],[105.98277,20.9799],[105.98303,20.97973],[105.98336,20.9795],[105.98381,20.97925],[105.9843,20.97896],[105.98449,20.97885],[105.98468,20.97872],[105.98492,20.97858],[105.98493,20.97861],[105.98521,20.97848],[105.98565,20.97818],[105.98623,20.97786],[105.98669,20.97763],[105.98707,20.97747],[105.98748,20.97726],[105.98787,20.97712],[105.98791,20.97711],[105.98814,20.97702],[105.98817,20.97702],[105.98856,20.977],[105.98899,20.97694],[105.98921,20.97689],[105.98963,20.97686],[105.99017,20.9768],[105.99047,20.97678],[105.99048,20.97681],[105.99096,20.97677],[105.99149,20.97672],[105.99207,20.97664],[105.99209,20.97668],[105.99267,20.9766],[105.99268,20.97663],[105.99325,20.97657],[105.99376,20.97653],[105.99431,20.97649],[105.99481,20.97645],[105.99537,20.9764],[105.99579,20.97637],[105.99579,20.97635],[105.99678,20.97609],[105.99763,20.97609],[105.99764,20.97609],[105.99776,20.97604],[105.99777,20.97602],[105.99778,20.97604],[105.99777,20.97604],[105.99821,20.976],[105.99821,20.976],[105.99901,20.97591],[105.99986,20.97582],[106.00067,20.97579],[106.00152,20.9757],[106.00237,20.97562],[106.00333,20.97569],[106.00424,20.97565],[106.00465,20.97568],[106.00519,20.97574],[106.0059,20.97592],[106.00654,20.97609],[106.00745,20.97638],[106.00836,20.97663],[106.00928,20.97689],[106.00966,20.97702],[106.01021,20.97716],[106.01071,20.9773],[106.01143,20.97752],[106.01175,20.9776],[106.01218,20.97773],[106.01252,20.97782],[106.013,20.97796],[106.01301,20.97795],[106.01341,20.97806],[106.01386,20.9782],[106.01443,20.97837],[106.01481,20.97846],[106.01527,20.9786],[106.0156,20.97868],[106.01616,20.97883],[106.01659,20.97896],[106.01719,20.97914],[106.01755,20.97923],[106.01754,20.97927],[106.01799,20.97939],[106.018,20.97936],[106.01846,20.9795],[106.01889,20.97964],[106.01936,20.97975],[106.01982,20.9799],[106.02036,20.98006],[106.02078,20.98018],[106.02126,20.9803],[106.02172,20.98044],[106.02213,20.98054],[106.02273,20.98071],[106.02308,20.98082],[106.0236,20.98096],[106.02359,20.981],[106.02398,20.98108],[106.02444,20.9812],[106.0249,20.98134],[106.02581,20.9816],[106.02627,20.98173],[106.02666,20.98182],[106.02751,20.98192],[106.02862,20.98242],[106.02909,20.98255],[106.02958,20.9827],[106.03008,20.98284],[106.03047,20.98296],[106.0308,20.98306],[106.0312,20.98319],[106.03158,20.9833],[106.03213,20.98343],[106.03213,20.98346],[106.03255,20.98357],[106.03313,20.98372],[106.03363,20.98385],[106.0345,20.98414],[106.0345,20.98416],[106.03522,20.98436],[106.03573,20.98451],[106.03641,20.98473],[106.03702,20.9849],[106.03743,20.98502],[106.03776,20.98509],[106.0385,20.98531],[106.03913,20.98543],[106.03974,20.98545],[106.03976,20.98547],[106.04014,20.98545],[106.04109,20.98545],[106.04159,20.98544],[106.04217,20.98545],[106.04264,20.98545],[106.04311,20.98541],[106.0431,20.98544],[106.04401,20.98543],[106.04455,20.98541],[106.04509,20.98543],[106.04554,20.98544],[106.04599,20.98545],[106.04643,20.98544],[106.04695,20.98542],[106.04741,20.98539],[106.04805,20.98538],[106.04843,20.98539],[106.04895,20.98537],[106.04896,20.98541],[106.04979,20.98538],[106.05027,20.98537],[106.05081,20.98536],[106.05125,20.98535],[106.05176,20.98533],[106.05254,20.98532],[106.05286,20.98532],[106.05342,20.98531],[106.05392,20.98527],[106.05461,20.98526],[106.0551,20.98527],[106.05578,20.98527],[106.05634,20.98527],[106.05663,20.98527],[106.05707,20.98524],[106.05706,20.98527],[106.05752,20.98524],[106.05796,20.98524],[106.05856,20.98525],[106.0589,20.98525],[106.05957,20.98524],[106.05989,20.98524],[106.06038,20.98524],[106.06091,20.98523],[106.06139,20.98523],[106.06183,20.98522],[106.06231,20.98521],[106.06274,20.98522],[106.06325,20.98522],[106.06387,20.98522],[106.06437,20.98522],[106.06496,20.9852],[106.06565,20.98522],[106.06615,20.98519],[106.06664,20.98519],[106.0671,20.98518],[106.0671,20.9852],[106.06759,20.98518],[106.06811,20.98518],[106.06871,20.98514],[106.06871,20.98517],[106.06909,20.98512],[106.06956,20.9851],[106.06957,20.98512],[106.07003,20.985],[106.07043,20.9849],[106.07045,20.98491],[106.07087,20.98479],[106.07126,20.98464],[106.07175,20.98446],[106.07175,20.98449],[106.07226,20.98423],[106.07268,20.98402],[106.07312,20.98378],[106.07356,20.98358],[106.07618,20.98232],[106.07674,20.98206],[106.07807,20.98142],[106.07864,20.98114],[106.0791,20.98095],[106.07944,20.9808],[106.07995,20.98054],[106.08041,20.98032],[106.08079,20.98014],[106.08123,20.9799],[106.08123,20.97991],[106.08159,20.97974],[106.08215,20.97946],[106.08275,20.97917],[106.08344,20.97886],[106.08379,20.97867],[106.08422,20.97847],[106.08462,20.97826],[106.08504,20.97806],[106.08559,20.9778],[106.08594,20.97765],[106.08638,20.97743],[106.08678,20.97723],[106.08716,20.97697],[106.08719,20.97698],[106.08767,20.97679],[106.08803,20.97665],[106.08837,20.97649],[106.08936,20.976],[106.0898,20.97579],[106.09026,20.97556],[106.09061,20.97528],[106.09062,20.9753],[106.0909,20.97513],[106.09091,20.97516],[106.09138,20.97491],[106.09139,20.97493],[106.09189,20.97469],[106.09232,20.97447],[106.0927,20.97431],[106.09317,20.97405],[106.09362,20.97386],[106.09399,20.9737],[106.09451,20.9734],[106.09486,20.97324],[106.09532,20.97304],[106.09561,20.97289],[106.09609,20.97265],[106.0966,20.9724],[106.0972,20.97212],[106.09747,20.97201],[106.09785,20.97176],[106.09826,20.97155],[106.09862,20.97138],[106.09947,20.97094],[106.09999,20.9707],[106.1003,20.97052],[106.10094,20.9702],[106.10164,20.96987],[106.10214,20.96963],[106.1026,20.9694],[106.10346,20.96906],[106.10434,20.96863],[106.10469,20.96847],[106.10501,20.96829],[106.10545,20.9681],[106.106,20.96786],[106.10648,20.96762],[106.10689,20.96742],[106.10727,20.96727],[106.10768,20.96709],[106.1081,20.96686],[106.10863,20.96665],[106.10902,20.96646],[106.10938,20.96629],[106.10981,20.96608],[106.11007,20.96595],[106.11041,20.96577],[106.11145,20.96538],[106.11199,20.96526],[106.11201,20.96528],[106.11251,20.96523],[106.11288,20.96523],[106.11348,20.96525],[106.114,20.96526],[106.11452,20.96528],[106.11487,20.96529],[106.1152,20.9653],[106.11552,20.96531],[106.11637,20.96535],[106.11685,20.96536],[106.11723,20.96538],[106.11813,20.96536],[106.11862,20.96541],[106.1192,20.96545],[106.12068,20.96545],[106.12115,20.96547],[106.12176,20.96552],[106.12222,20.96555],[106.12261,20.96557],[106.12305,20.96557],[106.12306,20.96559],[106.12361,20.96551],[106.12403,20.96554],[106.12451,20.96556],[106.12497,20.96556],[106.12547,20.96556],[106.12598,20.9656],[106.12598,20.96562],[106.1265,20.96561],[106.12685,20.96561],[106.12733,20.9656],[106.1279,20.96558],[106.12845,20.9656],[106.12885,20.96561],[106.12925,20.96563],[106.12973,20.96563],[106.12973,20.96567],[106.13031,20.96569],[106.13075,20.96569],[106.13075,20.96573],[106.13101,20.96574],[106.13109,20.96574],[106.13128,20.96575],[106.13171,20.96576],[106.13228,20.96578],[106.13279,20.96579],[106.13311,20.96581],[106.13373,20.96583],[106.13421,20.96587],[106.13464,20.96589],[106.13508,20.96591],[106.1356,20.96594],[106.13614,20.96596],[106.13653,20.96597],[106.13702,20.96598],[106.13752,20.96599],[106.13795,20.96601],[106.13838,20.96604],[106.13887,20.96605],[106.13943,20.96608],[106.13993,20.96607],[106.1405,20.9661],[106.14089,20.96612],[106.14121,20.96615],[106.1417,20.96617],[106.14228,20.96619],[106.14271,20.96619],[106.1427,20.96622],[106.14319,20.96622],[106.1436,20.96625],[106.14411,20.96628],[106.1445,20.96629],[106.14512,20.96633],[106.14554,20.96633],[106.14611,20.96637],[106.14658,20.96641],[106.14706,20.96639],[106.14751,20.96642],[106.14797,20.96644],[106.1484,20.96644],[106.14845,20.96644],[106.14902,20.9665],[106.14948,20.9665],[106.14992,20.96651],[106.15049,20.96654],[106.15087,20.96656],[106.1513,20.96658],[106.15168,20.96658],[106.15231,20.96662],[106.15278,20.96663],[106.15322,20.96661],[106.15321,20.96663],[106.15371,20.96659],[106.15427,20.96654],[106.15465,20.9665],[106.15522,20.96645],[106.15571,20.96639],[106.15611,20.96635],[106.15698,20.96623],[106.15698,20.96626],[106.15726,20.96623],[106.15761,20.96616],[106.15797,20.96613],[106.15835,20.96609],[106.15903,20.96603],[106.15948,20.96607],[106.16004,20.96613],[106.16003,20.96616],[106.1605,20.96623],[106.16103,20.96635],[106.16155,20.96644],[106.16202,20.96656],[106.16244,20.96667],[106.16278,20.96673],[106.16327,20.96684],[106.16371,20.96692],[106.16371,20.96696],[106.16417,20.96704],[106.16489,20.96713],[106.16489,20.96714],[106.16517,20.96718],[106.16561,20.96722],[106.16611,20.96726],[106.16655,20.96732],[106.16701,20.96737],[106.16741,20.9674],[106.1674,20.96743],[106.16806,20.9675],[106.16806,20.96747],[106.16851,20.96752],[106.16893,20.96755],[106.16935,20.96756],[106.16978,20.96751],[106.17019,20.9674],[106.17058,20.96722],[106.17088,20.9671],[106.17131,20.96684],[106.17174,20.96661],[106.1722,20.96638],[106.17261,20.96617],[106.17292,20.966],[106.17326,20.96586],[106.17361,20.96571],[106.17398,20.96552],[106.17436,20.96528],[106.17476,20.96507],[106.17509,20.96473],[106.17538,20.96453],[106.17579,20.96435],[106.17616,20.96419],[106.17664,20.96401],[106.17707,20.96385],[106.1775,20.96371],[106.17793,20.9635],[106.17838,20.9633],[106.17839,20.96333],[106.1788,20.96309],[106.17925,20.96288],[106.17967,20.96277],[106.18019,20.96256],[106.18057,20.9624],[106.18099,20.96226],[106.18152,20.96209],[106.18196,20.96193],[106.18234,20.96184],[106.18271,20.96173],[106.18336,20.96155],[106.18438,20.96135],[106.18468,20.96129],[106.18495,20.96124],[106.1852,20.96117],[106.18568,20.96108],[106.18613,20.961],[106.18653,20.96093],[106.18722,20.96081],[106.18768,20.96071],[106.18811,20.96063],[106.18866,20.96054],[106.18904,20.96045],[106.18925,20.9604],[106.18925,20.96038],[106.18994,20.96016],[106.19024,20.96002],[106.19076,20.95992],[106.19137,20.95979],[106.19137,20.95981],[106.19187,20.95973],[106.19244,20.9596],[106.19324,20.95944],[106.19421,20.95913],[106.19438,20.9591],[106.19475,20.95902],[106.19513,20.95889],[106.19551,20.95874],[106.19637,20.95857],[106.19686,20.95838],[106.19741,20.95829],[106.19778,20.95823],[106.19833,20.95817],[106.19878,20.95813],[106.19926,20.95804],[106.19976,20.95802],[106.20018,20.9579],[106.20068,20.95781],[106.20116,20.95771],[106.20162,20.95763],[106.20216,20.95748],[106.20267,20.95737],[106.20312,20.95736],[106.20353,20.9573],[106.20406,20.9574],[106.20447,20.95717],[106.20494,20.95706],[106.20542,20.95699],[106.20588,20.9569],[106.20636,20.95682],[106.20689,20.95678],[106.2069,20.9568],[106.20739,20.9567],[106.20772,20.95659],[106.20804,20.95655],[106.20837,20.9565],[106.20883,20.95634],[106.20919,20.95631],[106.20952,20.95627],[106.21016,20.95615],[106.21016,20.95618],[106.21102,20.95596],[106.21127,20.95592],[106.21153,20.95584],[106.21188,20.95577],[106.21209,20.95575],[106.21278,20.95564],[106.21332,20.95552],[106.21382,20.95536],[106.21428,20.95526],[106.21475,20.95517],[106.21514,20.95508],[106.21567,20.95497],[106.21612,20.95488],[106.21658,20.95478],[106.21705,20.95468],[106.21752,20.95459],[106.21803,20.95448],[106.21846,20.95445],[106.21931,20.95428],[106.22012,20.95414],[106.22069,20.95392],[106.22131,20.95375],[106.22204,20.95368],[106.2226,20.95354],[106.22306,20.95348],[106.22345,20.95335],[106.22403,20.95331],[106.22444,20.95316],[106.22535,20.95293],[106.22627,20.95278],[106.22722,20.95256],[106.22766,20.95246],[106.22812,20.95237],[106.22905,20.95218],[106.22951,20.95208],[106.22993,20.95198],[106.23047,20.95187],[106.23107,20.95174],[106.23172,20.9517],[106.23238,20.95165],[106.23296,20.95158],[106.23338,20.95149],[106.23393,20.95142],[106.2347,20.9512],[106.23524,20.9511],[106.23607,20.95099],[106.23688,20.95091],[106.23761,20.95085],[106.23797,20.95082],[106.23835,20.95073],[106.23886,20.95062],[106.23935,20.95061],[106.23978,20.95058],[106.24034,20.95051],[106.24145,20.95022],[106.2415,20.9502],[106.2416,20.9505],[106.24166,20.95049],[106.24166,20.95052],[106.24213,20.95043],[106.24271,20.95033],[106.24314,20.95026],[106.24353,20.9502],[106.2441,20.9501],[106.24444,20.95004],[106.24442,20.95],[106.24501,20.94971],[106.24501,20.94977],[106.24552,20.94965],[106.24552,20.94961],[106.24628,20.94947],[106.24711,20.94919],[106.24769,20.94917],[106.24916,20.94884],[106.24964,20.94874],[106.25002,20.94865],[106.25051,20.94858],[106.25086,20.94852],[106.25117,20.94848],[106.25154,20.94845],[106.25202,20.9484],[106.25248,20.94833],[106.25297,20.94822],[106.25333,20.94815],[106.2537,20.94813],[106.25428,20.94804],[106.25474,20.94797],[106.25581,20.94789],[106.25695,20.94772],[106.2581,20.94754],[106.26352,20.94652],[106.26452,20.9464],[106.26501,20.94634],[106.26684,20.94606],[106.26731,20.94596],[106.26782,20.94591],[106.26824,20.94585],[106.26869,20.94578],[106.26905,20.94569],[106.26961,20.94556],[106.27153,20.94487],[106.2721,20.94472],[106.27274,20.94448],[106.2732,20.94429],[106.27346,20.94418],[106.27382,20.94404],[106.27413,20.9439],[106.27414,20.94395],[106.27455,20.9439],[106.27488,20.94394],[106.27593,20.94376],[106.27641,20.94368],[106.27685,20.94363],[106.27746,20.94363],[106.2782,20.94359],[106.27835,20.94356],[106.27834,20.94358],[106.27847,20.94372],[106.27904,20.9437],[106.27965,20.9437],[106.28015,20.94367],[106.28058,20.94364],[106.28111,20.94362],[106.28111,20.94365],[106.28152,20.94358],[106.28205,20.94358],[106.28243,20.94358],[106.28302,20.94355],[106.28349,20.94353],[106.28413,20.94352],[106.28463,20.94348],[106.28516,20.94344],[106.28565,20.94342],[106.28604,20.94339],[106.28647,20.94337],[106.28685,20.94334],[106.28716,20.94331],[106.28797,20.94329],[106.28854,20.94325],[106.28906,20.94324],[106.28958,20.94319],[106.29043,20.94313],[106.29135,20.94311],[106.29189,20.94309],[106.29251,20.94304],[106.29312,20.94301],[106.29375,20.94299],[106.29417,20.94295],[106.29418,20.94297],[106.29464,20.9429],[106.2953,20.94288],[106.29583,20.94283],[106.29627,20.94282],[106.29628,20.94284],[106.29692,20.94278],[106.29734,20.94279],[106.2978,20.94276],[106.2985,20.94271],[106.29896,20.9427],[106.29948,20.94267],[106.30003,20.94264],[106.30004,20.94263],[106.30065,20.94262],[106.30067,20.94262],[106.3011,20.9426],[106.30169,20.94257],[106.3023,20.94251],[106.3023,20.94254],[106.30293,20.94251],[106.30334,20.94247],[106.30334,20.94251],[106.30366,20.94246],[106.30416,20.94246],[106.30471,20.94246],[106.30517,20.94248],[106.30563,20.94254],[106.3061,20.94262],[106.30638,20.9427],[106.307,20.94281],[106.30748,20.94297],[106.30799,20.94315],[106.30834,20.94329],[106.30867,20.94341],[106.30902,20.94356],[106.31052,20.94417],[106.31094,20.94432],[106.3114,20.94451],[106.31174,20.94464],[106.31235,20.94486],[106.31235,20.94488],[106.3133,20.94525],[106.31351,20.94536],[106.3135,20.94538],[106.31397,20.94555],[106.31445,20.94573],[106.31481,20.94588],[106.31533,20.94611],[106.31568,20.94622],[106.31614,20.94642],[106.31662,20.94661],[106.31709,20.94679],[106.31741,20.94691],[106.31797,20.94711],[106.31832,20.94725],[106.31846,20.94731],[106.31881,20.94745],[106.31919,20.94762],[106.31963,20.94779],[106.32011,20.94794],[106.32044,20.94802],[106.32095,20.94814],[106.32134,20.94821],[106.32176,20.94825],[106.32176,20.94827],[106.32248,20.94834],[106.3229,20.94833],[106.32291,20.94836],[106.32305,20.94837],[106.32329,20.94838],[106.32354,20.94837],[106.32381,20.94835],[106.32435,20.94832],[106.32469,20.94827],[106.32527,20.94821],[106.32561,20.94816],[106.32611,20.94806],[106.32672,20.94801],[106.32727,20.94791],[106.3277,20.94784],[106.32815,20.94778],[106.32891,20.94758],[106.32951,20.94745],[106.32967,20.94744],[106.33133,20.94721],[106.33181,20.94714],[106.33237,20.94704],[106.333,20.94696],[106.33344,20.94689],[106.33379,20.94687],[106.33426,20.94681],[106.3347,20.94674],[106.33468,20.9469],[106.33513,20.94685],[106.33526,20.94692],[106.33513,20.94664],[106.33543,20.94687],[106.33556,20.94685],[106.33576,20.94681],[106.33612,20.94675],[106.33617,20.94672],[106.3363,20.94671],[106.3363,20.94672],[106.33675,20.94665],[106.33675,20.94663],[106.33677,20.94654],[106.33677,20.94645],[106.33705,20.9464],[106.33704,20.94643],[106.33738,20.94634],[106.33791,20.94626],[106.33826,20.94619],[106.33868,20.94613],[106.33938,20.94599],[106.33937,20.94603],[106.33969,20.94599],[106.34011,20.94592],[106.34092,20.94577],[106.34148,20.9457],[106.34708,20.94479],[106.34744,20.94471],[106.34745,20.94474],[106.34795,20.94466],[106.3484,20.9446],[106.34883,20.94453],[106.34929,20.94449],[106.34977,20.94439],[106.35026,20.94432],[106.35069,20.94426],[106.35069,20.94428],[106.35126,20.94418],[106.35173,20.94413],[106.35194,20.94411],[106.35239,20.94405],[106.35239,20.94404],[106.35253,20.94401],[106.35253,20.94402],[106.35289,20.94396],[106.35288,20.94395],[106.35323,20.94388],[106.35324,20.94389],[106.35352,20.94384],[106.35351,20.94383],[106.35387,20.94377],[106.35387,20.94378],[106.35433,20.94371],[106.35433,20.9437],[106.35464,20.94365],[106.35464,20.94366],[106.35491,20.94362],[106.35491,20.94361],[106.35518,20.94357],[106.3552,20.94357],[106.35541,20.94354],[106.35541,20.94353],[106.35594,20.94346],[106.35594,20.94348],[106.35635,20.9434],[106.35667,20.94331],[106.35667,20.94334],[106.35731,20.94325],[106.35791,20.94324],[106.35858,20.94333],[106.35906,20.94349],[106.35949,20.94364],[106.35994,20.94393],[106.36023,20.94415],[106.3606,20.94448],[106.36088,20.94483],[106.3612,20.94536],[106.3614,20.94595],[106.36159,20.9466],[106.36168,20.94723],[106.36178,20.94786],[106.36185,20.94827],[106.36191,20.94873],[106.36198,20.94921],[106.36204,20.9496],[106.3621,20.95011],[106.36227,20.95087],[106.36242,20.95159],[106.3624,20.9516],[106.36246,20.95228],[106.3625,20.95263],[106.36247,20.95263],[106.36266,20.95314],[106.3629,20.9535],[106.3631,20.95399],[106.36307,20.954],[106.36318,20.95418],[106.36346,20.95453],[106.36344,20.95454],[106.36376,20.95486],[106.36378,20.95484],[106.3641,20.95516],[106.36444,20.95543],[106.36474,20.95569],[106.36507,20.95596],[106.36542,20.95627],[106.36577,20.9565],[106.36612,20.95683],[106.36614,20.95682],[106.367,20.95758],[106.36729,20.95783],[106.36754,20.958],[106.36788,20.95826],[106.36826,20.95859],[106.36864,20.95891],[106.36897,20.95919],[106.36935,20.95948],[106.36969,20.9598],[106.37005,20.9601],[106.37042,20.96041],[106.37077,20.96071],[106.37111,20.96101],[106.37109,20.96102],[106.37151,20.96134],[106.37191,20.96166],[106.37227,20.96191],[106.3726,20.96221],[106.37259,20.96222],[106.37286,20.96246],[106.37288,20.96245],[106.37331,20.96279],[106.37364,20.96311],[106.37405,20.96338],[106.37438,20.9637],[106.3747,20.96395],[106.37512,20.96429],[106.37555,20.96467],[106.37583,20.96484],[106.37621,20.96512],[106.37658,20.96532],[106.3772,20.96572],[106.37762,20.96607],[106.37788,20.96626],[106.37831,20.96656],[106.37864,20.96687],[106.37866,20.96733],[106.37904,20.96773],[106.37937,20.96804],[106.37977,20.96839],[106.38011,20.96867],[106.38039,20.96889],[106.38081,20.9693],[106.38147,20.96989],[106.38179,20.9702],[106.38212,20.97046],[106.38241,20.97065],[106.38282,20.971],[106.38316,20.97127],[106.38355,20.97156],[106.38391,20.9718],[106.38425,20.97202],[106.3847,20.97222],[106.38518,20.97242],[106.38571,20.97255],[106.38569,20.97259],[106.38614,20.97272],[106.38617,20.97269],[106.38651,20.97281],[106.38688,20.97292],[106.38723,20.97303],[106.38722,20.97305],[106.38761,20.97315],[106.38761,20.97313],[106.38797,20.97324],[106.38796,20.97325],[106.38828,20.97332],[106.3888,20.97346],[106.38926,20.9736],[106.38966,20.97373],[106.39015,20.97391],[106.39074,20.97418],[106.39125,20.97437],[106.3917,20.97457],[106.39228,20.97478],[106.39292,20.97495],[106.39328,20.975],[106.39327,20.97504],[106.3939,20.9751],[106.3943,20.97516],[106.39429,20.97519],[106.39468,20.97523],[106.39518,20.9753],[106.39572,20.9754],[106.39631,20.97545],[106.3963,20.97549],[106.39674,20.97556],[106.39707,20.97561],[106.39748,20.97565],[106.398,20.97573],[106.39833,20.97577],[106.39879,20.97587],[106.39943,20.97595],[106.39989,20.97602],[106.39988,20.97605],[106.40038,20.97609],[106.4008,20.97615],[106.40143,20.97628],[106.40182,20.97633],[106.40181,20.97636],[106.40234,20.9764],[106.40272,20.97648],[106.40317,20.97653],[106.40371,20.97659],[106.4037,20.97662],[106.40423,20.97669],[106.40474,20.97673],[106.40524,20.97682],[106.4058,20.97686],[106.40579,20.9769],[106.40621,20.97693],[106.40695,20.97707],[106.40755,20.97715],[106.40804,20.97723],[106.40844,20.97728],[106.40888,20.97735],[106.40946,20.97743],[106.40986,20.97749],[106.41023,20.97755],[106.41072,20.97763],[106.41128,20.97771],[106.41188,20.97781],[106.41233,20.97787],[106.4127,20.9779],[106.41328,20.978],[106.41401,20.97811],[106.41473,20.97821],[106.41529,20.97831],[106.4159,20.97839],[106.41656,20.97847],[106.41691,20.97853],[106.41752,20.97863],[106.41791,20.97864],[106.41842,20.97874],[106.41888,20.97884],[106.41914,20.97887],[106.41979,20.97894],[106.42058,20.97904],[106.42123,20.97907],[106.42123,20.97909],[106.42175,20.97903],[106.42225,20.97891],[106.42264,20.97883],[106.42313,20.9787],[106.42362,20.97858],[106.42424,20.97842],[106.42466,20.97832],[106.42499,20.97823],[106.42559,20.97811],[106.42596,20.97801],[106.42647,20.97789],[106.42707,20.97775],[106.4274,20.97767],[106.42782,20.97758],[106.42815,20.9775],[106.42871,20.97735],[106.42925,20.97719],[106.42972,20.97706],[106.43017,20.97698],[106.43054,20.97688],[106.43098,20.97677],[106.4315,20.97666],[106.43196,20.97651],[106.43242,20.97634],[106.43284,20.97612],[106.43327,20.97592],[106.43367,20.97574],[106.43416,20.97548],[106.43455,20.97527],[106.43493,20.97509],[106.43515,20.97497],[106.43555,20.97478],[106.4363,20.97441],[106.43663,20.97423],[106.43689,20.97407],[106.43748,20.97382],[106.43781,20.97365],[106.43819,20.97344],[106.43863,20.97324],[106.43897,20.97303],[106.43929,20.97286],[106.43972,20.97266],[106.44023,20.9724],[106.44051,20.97227],[106.44081,20.97213],[106.44137,20.97188],[106.44175,20.97165],[106.44177,20.97167],[106.44216,20.97147],[106.44257,20.97125],[106.44288,20.97109],[106.44333,20.97085],[106.44333,20.97087],[106.44374,20.97069],[106.44374,20.97071],[106.44424,20.97045],[106.44463,20.97024],[106.44496,20.97008],[106.44539,20.96986],[106.44575,20.96968],[106.44607,20.96952],[106.44653,20.96932],[106.44699,20.96919],[106.44742,20.9691],[106.44794,20.96903],[106.44833,20.96901],[106.4488,20.96896],[106.4492,20.96892],[106.44961,20.96892],[106.44985,20.9689],[106.45012,20.96888],[106.45053,20.96883],[106.45085,20.9688],[106.45129,20.96874],[106.45164,20.96871],[106.452,20.96867],[106.45245,20.96862],[106.45245,20.96864],[106.45293,20.96858],[106.45342,20.96854],[106.45344,20.96854],[106.45371,20.96852],[106.45416,20.96849],[106.45443,20.96846],[106.45466,20.96843],[106.4551,20.9684],[106.45549,20.96837],[106.45595,20.96833],[106.45637,20.96833],[106.45675,20.96835],[106.4572,20.96832],[106.45771,20.96831],[106.4582,20.96837],[106.45867,20.96849],[106.45966,20.96874],[106.46029,20.96891],[106.46072,20.96898],[106.46072,20.969],[106.46118,20.96909],[106.46164,20.9692],[106.46209,20.96931],[106.4625,20.96942],[106.46297,20.96953],[106.46335,20.96964],[106.46382,20.96976],[106.46424,20.96985],[106.46469,20.96998],[106.46514,20.97007],[106.46544,20.97016],[106.46582,20.97021],[106.46628,20.97032],[106.46678,20.97047],[106.46727,20.97061],[106.4677,20.97074],[106.46817,20.97085],[106.46855,20.97095],[106.46897,20.97103],[106.46952,20.97118],[106.46997,20.97127],[106.47033,20.97132],[106.47033,20.97134],[106.47082,20.97141],[106.47151,20.97153],[106.4715,20.97155],[106.4722,20.97167],[106.47265,20.97172],[106.47329,20.97186],[106.47365,20.97192],[106.47407,20.97201],[106.47442,20.97208],[106.47488,20.97218],[106.47532,20.97225],[106.47579,20.97233],[106.47644,20.97246],[106.47677,20.97254],[106.47727,20.97264],[106.47796,20.97276],[106.48025,20.97313],[106.4807,20.97318],[106.48119,20.97326],[106.48166,20.97333],[106.48215,20.97337],[106.4827,20.97334],[106.48334,20.97327],[106.48389,20.97321],[106.48451,20.97317],[106.48497,20.97313],[106.48547,20.97308],[106.48593,20.97303],[106.48647,20.97291],[106.48689,20.97287],[106.48734,20.97281],[106.48781,20.97279],[106.48832,20.97275],[106.48878,20.97268],[106.48924,20.97263],[106.48977,20.97257],[106.48978,20.97259],[106.49019,20.97247],[106.49021,20.97249],[106.49081,20.97226],[106.49136,20.9721],[106.49229,20.97174],[106.49341,20.97145],[106.49389,20.97124],[106.49425,20.97109],[106.49471,20.97091],[106.49511,20.97078],[106.49557,20.97062],[106.49594,20.97048],[106.49642,20.97031],[106.49696,20.97016],[106.49739,20.97003],[106.49783,20.96987],[106.49832,20.96974],[106.49881,20.96957],[106.49916,20.96945],[106.50003,20.96914],[106.501,20.96881],[106.5013,20.96872],[106.50233,20.96837],[106.50285,20.9682],[106.50327,20.96808],[106.50374,20.96789],[106.50433,20.96768],[106.50433,20.9677],[106.50461,20.9676],[106.5051,20.96743],[106.50511,20.96746],[106.50565,20.96726],[106.50623,20.96705],[106.50624,20.96709],[106.50659,20.96697],[106.50659,20.96697],[106.50688,20.96678],[106.50688,20.9668],[106.50747,20.96663],[106.50792,20.9665],[106.50834,20.96638],[106.50875,20.96626],[106.50876,20.96629],[106.5092,20.96626],[106.5092,20.96628],[106.50971,20.96616],[106.51019,20.96605],[106.51061,20.96597],[106.51115,20.96585],[106.51152,20.9658],[106.51151,20.96578],[106.512,20.96559],[106.512,20.96557],[106.51245,20.96549],[106.51331,20.96532],[106.51374,20.96525],[106.51426,20.96516],[106.51478,20.96503],[106.51532,20.96479],[106.51569,20.96453],[106.51569,20.96456],[106.51614,20.96433],[106.51615,20.96434],[106.51642,20.96411],[106.51676,20.96386],[106.51721,20.96352],[106.51755,20.96325],[106.51756,20.96327],[106.5179,20.96297],[106.51829,20.96271],[106.5187,20.96241],[106.51898,20.96221],[106.51933,20.9619],[106.51979,20.96158],[106.52014,20.96129],[106.52052,20.96101],[106.52087,20.96072],[106.5213,20.96038],[106.52163,20.96013],[106.52201,20.95984],[106.52237,20.95958],[106.52268,20.95927],[106.52317,20.95895],[106.52348,20.95872],[106.5235,20.95874],[106.52386,20.95844],[106.52425,20.95817],[106.52461,20.95785],[106.52463,20.95787],[106.52492,20.95762],[106.52536,20.95728],[106.5258,20.95696],[106.52616,20.9567],[106.52653,20.95644],[106.52685,20.95617],[106.52722,20.95587],[106.52723,20.9559],[106.52758,20.95559],[106.52786,20.95538],[106.52835,20.95503],[106.52877,20.95463],[106.52944,20.95403],[106.52977,20.95373],[106.53005,20.95345],[106.53029,20.95322],[106.53092,20.95259],[106.53093,20.95263],[106.53121,20.95237],[106.53174,20.95191],[106.53198,20.95163],[106.53244,20.95115],[106.53275,20.95085],[106.53278,20.95087],[106.53314,20.95053],[106.53331,20.95041],[106.53369,20.95001],[106.5337,20.95004],[106.53411,20.94962],[106.53446,20.94931],[106.53448,20.94934],[106.53481,20.94901],[106.53481,20.94903],[106.53518,20.94875],[106.53547,20.94856],[106.5358,20.94833],[106.53609,20.94813],[106.5364,20.94792],[106.53677,20.94769],[106.53713,20.94744],[106.53755,20.94718],[106.53798,20.94692],[106.53837,20.94675],[106.53878,20.94656],[106.53922,20.94635],[106.53968,20.94614],[106.54009,20.94595],[106.54042,20.94577],[106.54042,20.9458],[106.54094,20.9455],[106.54131,20.94528],[106.54176,20.94504],[106.54206,20.94488],[106.54251,20.94443],[106.54287,20.94424],[106.54324,20.9439],[106.54361,20.94357],[106.54388,20.94321],[106.54392,20.94323],[106.54422,20.94286],[106.54449,20.9425],[106.54472,20.94222],[106.54493,20.94194],[106.54533,20.94149],[106.54563,20.94105],[106.54593,20.94068],[106.54647,20.93997],[106.54672,20.93966],[106.54703,20.93928],[106.54732,20.93889],[106.54761,20.93855],[106.54795,20.93814],[106.54816,20.93786],[106.54848,20.93745],[106.5487,20.93711],[106.54895,20.93683],[106.54915,20.9366],[106.54949,20.93614],[106.54988,20.93565],[106.55012,20.93529],[106.55015,20.93531],[106.55053,20.9348],[106.55049,20.93477],[106.55075,20.93452],[106.55103,20.93415],[106.55147,20.93359],[106.55149,20.93362],[106.55164,20.93339],[106.55191,20.93306],[106.55217,20.93272],[106.55245,20.93233],[106.55274,20.93197],[106.55276,20.932],[106.55302,20.93165],[106.55328,20.93132],[106.55361,20.93084],[106.55384,20.93056],[106.55406,20.93023],[106.5543,20.92985],[106.55453,20.9295],[106.55484,20.929],[106.55507,20.9286],[106.55532,20.92823],[106.55559,20.92783],[106.55586,20.92735],[106.55588,20.92736],[106.55613,20.92703],[106.55633,20.92666],[106.55655,20.92632],[106.55657,20.92634],[106.55677,20.92596],[106.55704,20.92554],[106.55724,20.92523],[106.55754,20.92472],[106.55779,20.92436],[106.55801,20.92399],[106.55831,20.92357],[106.55856,20.92317],[106.55879,20.92279],[106.55922,20.92204],[106.55969,20.92129],[106.55989,20.92097],[106.56018,20.92056],[106.56037,20.92026],[106.56056,20.91986],[106.5606,20.91988],[106.56086,20.91938],[106.56119,20.91893],[106.56147,20.91854],[106.5617,20.91824],[106.56192,20.91797],[106.56222,20.9177]]}}]}