{"type":"FeatureCollection","features":[{"type":"Feature","properties":{"osm":"n2476237249","name":"Tr\u01b0\u1eddng M\u1ea7m Non H\u1eefu Ngh\u1ecb;Nh\u00e0 V\u0103n H\u00f3a Tr\u1ea1i L\u1ebb","amenity":"school"},"geometry":{"type":"Point","coordinates":[106.68596,20.83218]}},{"type":"Feature","properties":{"osm":"n2476456864","name":"UBND Ph\u01b0\u1eddng V\u0129nh Ni\u1ec7m","amenity":"townhall"},"geometry":{"type":"Point","coordinates":[106.6768,20.83158]}},{"type":"Feature","properties":{"osm":"n2476530992","name":"UBND Ph\u01b0\u1eddng Ngh\u0129a X\u00e1","amenity":"townhall"},"geometry":{"type":"Point","coordinates":[106.66998,20.8391]}},{"type":"Feature","properties":{"osm":"n2476796974","name":"Tr\u01b0\u1eddng m\u1ea7m non Sao Vi\u1ec7t","amenity":"school"},"geometry":{"type":"Point","coordinates":[106.70643,20.82651]}},{"type":"Feature","properties":{"osm":"n2476796994","name":"Tr\u01b0\u1eddng m\u1ea7m non B\u00ecnh Minh","amenity":"school"},"geometry":{"type":"Point","coordinates":[106.70931,20.82414]}},{"type":"Feature","properties":{"osm":"n2476796999","name":"Tr\u01b0\u1eddng m\u1ea7m non Baby","amenity":"school"},"geometry":{"type":"Point","coordinates":[106.71113,20.82432]}},{"type":"Feature","properties":{"osm":"n2476797000","name":"Tr\u01b0\u1eddng m\u00e2n non B\u00ecnh Minh c\u01a1 s\u1edf 2","amenity":"school"},"geometry":{"type":"Point","coordinates":[106.71146,20.82384]}},{"type":"Feature","properties":{"osm":"n2476797004","name":"Tr\u01b0\u1eddng m\u1ea7m non Bambi","amenity":"school"},"geometry":{"type":"Point","coordinates":[106.7088,20.82773]}},{"type":"Feature","properties":{"osm":"n2476797009","name":"Tr\u01b0\u1eddng m\u1ea7m non Smart kids","amenity":"school"},"geometry":{"type":"Point","coordinates":[106.71112,20.82511]}},{"type":"Feature","properties":{"osm":"n2476797011","name":"Tr\u01b0\u1eddng m\u1ea7m non Hoa Ph\u01b0\u1ee3ng","amenity":"school"},"geometry":{"type":"Point","coordinates":[106.71271,20.82557]}},{"type":"Feature","properties":{"osm":"n2477237880","name":"Trung T\u00e2m H\u1ecdc Th\u1ef1c T\u1ebf","amenity":"school"},"geometry":{"type":"Point","coordinates":[106.69011,20.83048]}},{"type":"Feature","properties":{"osm":"n2481335127","name":"Tr\u01b0\u1eddng Trung h\u1ecdc c\u01a1 s\u1edf Ho\u00e0ng Di\u1ec7u","amenity":"school"},"geometry":{"type":"Point","coordinates":[106.68476,20.84567]}},{"type":"Feature","properties":{"osm":"n2481335128","name":"Tr\u01b0\u1eddng Trung h\u1ecdc c\u01a1 s\u1edf Tr\u01b0\u01a1ng C\u00f4ng \u0110\u1ecbnh","amenity":"school"},"geometry":{"type":"Point","coordinates":[106.68275,20.84553]}},{"type":"Feature","properties":{"osm":"n2481335129","name":"Tr\u01b0\u1eddng Ti\u1ec3u H\u1ecdc Nguy\u1ec5n C\u00f4ng Tr\u1ee9","amenity":"school"},"geometry":{"type":"Point","coordinates":[106.68318,20.84564]}},{"type":"Feature","properties":{"osm":"n2481335132","name":"Tr\u01b0\u1eddng Ti\u1ec3u H\u1ecdc T\u00e2n Tr\u00e0o","amenity":"school"},"geometry":{"type":"Point","coordinates":[106.68769,20.84447]}},{"type":"Feature","properties":{"osm":"n2482006975","name":"KTX B\u1ec7nh vi\u1ec7n \u0110HY","amenity":"college"},"geometry":{"type":"Point","coordinates":[106.69666,20.83741]}},{"type":"Feature","properties":{"osm":"n2482094599","name":"Ngo\u1ea1i Ng\u1eef Vi\u1ec7t M\u0129","amenity":"community_centre"},"geometry":{"type":"Point","coordinates":[106.69427,20.83941]}},{"type":"Feature","properties":{"osm":"n2483260119","name":"Nh\u00e0 V\u0103n H\u00f3a Ph\u1ed1 Nam Ph\u00e1t","amenity":"community_centre"},"geometry":{"type":"Point","coordinates":[106.69598,20.83328]}},{"type":"Feature","properties":{"osm":"n2487483447","name":"Tr\u01b0\u1eddng M\u1ea7m Non K\u00eanh D\u01b0\u01a1ng-Khu 2","amenity":"school"},"geometry":{"type":"Point","coordinates":[106.69151,20.83074]}},{"type":"Feature","properties":{"osm":"n2487522168","name":"Tr\u01b0\u1eddng d\u1ea1y ngh\u1ec1 Xi M\u0103ng","amenity":"school"},"geometry":{"type":"Point","coordinates":[106.66107,20.86515]}},{"type":"Feature","properties":{"osm":"n2487639339","name":"Tr\u01b0\u1eddng Trung h\u1ecdc ph\u1ed5 th\u00f4ng Th\u00e1i Phi\u00ean","amenity":"school"},"geometry":{"type":"Point","coordinates":[106.70604,20.86055]}},{"type":"Feature","properties":{"osm":"n2487639377","name":"Tr\u01b0\u1eddng ti\u1ec3u h\u1ecdc Tr\u1ea7n Qu\u1ed1c To\u1ea3n","amenity":"school"},"geometry":{"type":"Point","coordinates":[106.70565,20.86286]}},{"type":"Feature","properties":{"osm":"n2491844272","name":"Tr\u01b0\u1eddng Trung h\u1ecdc c\u01a1 s\u1edf Nam H\u1ea3i","amenity":"school"},"geometry":{"type":"Point","coordinates":[106.74266,20.82819]}},{"type":"Feature","properties":{"osm":"n2494901582","name":"Tr\u01b0\u1eddng m\u1ea7m non G\u1ea5u B\u00f4ng","amenity":"school"},"geometry":{"type":"Point","coordinates":[106.65599,20.86863]}},{"type":"Feature","properties":{"osm":"n2495831854","name":"C\u00f4ng ty vi\u1ec5n th\u00f4ng FPT chi nh\u00e1nh H\u1ea3i Ph\u00f2ng","amenity":"townhall"},"geometry":{"type":"Point","coordinates":[106.70144,20.83488]}},{"type":"Feature","properties":{"osm":"n2495832003","name":"Tr\u01b0\u1eddng cao \u0111\u1eb3ng ngh\u1ec1 Duy\u00ean H\u1ea3i","amenity":"college"},"geometry":{"type":"Point","coordinates":[106.66578,20.82886]}},{"type":"Feature","properties":{"osm":"n2495832007","name":"Tr\u01b0\u1eddng trung c\u1ea5p ngh\u1ec1 An D\u01b0\u01a1ng","amenity":"college"},"geometry":{"type":"Point","coordinates":[106.61421,20.86616]}},{"type":"Feature","properties":{"osm":"n2495832014","name":"UBND x\u00e3 \u00d0\u1eb7ng C\u01b0\u01a1ng","amenity":"townhall"},"geometry":{"type":"Point","coordinates":[106.60307,20.84912]}},{"type":"Feature","properties":{"osm":"n2496861315","name":"Tr\u01b0\u1eddng Trung h\u1ecdc ph\u1ed5 th\u00f4ng n\u0103ng khi\u1ebfu Tr\u1ea7n Ph\u00fa","amenity":"school"},"geometry":{"type":"Point","coordinates":[106.68655,20.85838]}},{"type":"Feature","properties":{"osm":"n2497005986","name":"Tr\u01b0\u1eddng Ti\u1ec3u H\u1ecdc Nguy\u1ec5n Du","amenity":"school"},"geometry":{"type":"Point","coordinates":[106.67619,20.85585]}},{"type":"Feature","properties":{"osm":"n4183652871","amenity":"shelter"},"geometry":{"type":"Point","coordinates":[106.52324,20.80273]}},{"type":"Feature","properties":{"osm":"n4370766292","name":"Phuong Lien English Centre","amenity":"school"},"geometry":{"type":"Point","coordinates":[106.6623,20.84893]}},{"type":"Feature","properties":{"osm":"n4394430213","name":"Phuong Lien English Centre","amenity":"school"},"geometry":{"type":"Point","coordinates":[106.66269,20.84918]}},{"type":"Feature","properties":{"osm":"n4395632289","name":"Ton Duc Thang Street","amenity":"school"},"geometry":{"type":"Point","coordinates":[106.66863,20.8492]}},{"type":"Feature","properties":{"osm":"n4469422989","amenity":"shelter"},"geometry":{"type":"Point","coordinates":[106.69165,20.84462]}},{"type":"Feature","properties":{"osm":"n5294753325","name":"Phu Long","amenity":"community_centre"},"geometry":{"type":"Point","coordinates":[106.92828,20.80469]}},{"type":"Feature","properties":{"osm":"n6358085426","amenity":"school"},"geometry":{"type":"Point","coordinates":[106.8252,20.90078]}},{"type":"Feature","properties":{"osm":"n6369498380","name":"Nh\u00e0 K\u00e8n","amenity":"shelter"},"geometry":{"type":"Point","coordinates":[106.68639,20.85888]}},{"type":"Feature","properties":{"osm":"n7007373161","name":"3/63/59 Ph\u1ea1m V\u0103n \u0110\u1ed3ng","amenity":"shelter"},"geometry":{"type":"Point","coordinates":[106.69997,20.82029]}},{"type":"Feature","properties":{"osm":"n7128054285","name:en":"IELTS FIGHTER","amenity":"school"},"geometry":{"type":"Point","coordinates":[106.69781,20.83304]}},{"type":"Feature","properties":{"osm":"n7496299277","name":"Trung t\u00e2m th\u1ec3 thao v\u0103n h\u00f3a ph\u01b0\u1eddng \u0110\u0103ng Giang","amenity":"community_centre"},"geometry":{"type":"Point","coordinates":[106.69656,20.84535]}},{"type":"Feature","properties":{"osm":"n8903183250","amenity":"shelter"},"geometry":{"type":"Point","coordinates":[106.69606,20.86366]}},{"type":"Feature","properties":{"osm":"n9673704374","name":"Trung t\u00e2m H\u00e0nh ch\u00ednh - Ch\u00ednh tr\u1ecb Qu\u1eadn L\u00ea Ch\u00e2n","amenity":"townhall"},"geometry":{"type":"Point","coordinates":[106.68084,20.84929]}},{"type":"Feature","properties":{"osm":"n10102169170","name":"UBND Qu\u1eadn H\u1ed3ng B\u00e0ng","amenity":"townhall"},"geometry":{"type":"Point","coordinates":[106.65637,20.86413]}},{"type":"Feature","properties":{"osm":"n10102256360","name":"UBND Qu\u1eadn Ng\u00f4 Quy\u1ec1n","amenity":"townhall"},"geometry":{"type":"Point","coordinates":[106.70017,20.85188]}},{"type":"Feature","properties":{"osm":"n10253417294","name":"UBND Qu\u1eadn \u0110\u1ed3 S\u01a1n","amenity":"townhall"},"geometry":{"type":"Point","coordinates":[106.78268,20.7159]}},{"type":"Feature","properties":{"osm":"n10253417336","name":"UBND Qu\u1eadn D\u01b0\u01a1ng Kinh","amenity":"townhall"},"geometry":{"type":"Point","coordinates":[106.70666,20.79399]}},{"type":"Feature","properties":{"osm":"n11185770002","name":"Tr\u01b0\u1eddng Ti\u1ec3u H\u1ecdc Th\u1ef1c H\u00e0nh","amenity":"school"},"geometry":{"type":"Point","coordinates":[106.6245,20.80452]}},{"type":"Feature","properties":{"osm":"n11185819674","name":"Tr\u01b0\u1eddng Ti\u1ec3u H\u1ecdc Ng\u1ecdc S\u01a1n","amenity":"school"},"geometry":{"type":"Point","coordinates":[106.61934,20.80993]}},{"type":"Feature","properties":{"osm":"n11188322868","name":"Tr\u01b0\u1eddng Ti\u1ec3u H\u1ecdc Th\u1ecb Tr\u1ea5n An L\u00e3o","amenity":"school"},"geometry":{"type":"Point","coordinates":[106.55686,20.8181]}},{"type":"Feature","properties":{"osm":"n11415323649","name":"Trung t\u00e2m ngo\u1ea1i ng\u1eef D\u01b0\u01a1ng Kinh","amenity":"school"},"geometry":{"type":"Point","coordinates":[106.72464,20.78131]}},{"type":"Feature","properties":{"osm":"n11415323651","name":"Tr\u01b0\u1eddng Trung h\u1ecdc c\u01a1 s\u1edf x\u00e3 Y\u00ean Phong","amenity":"school"},"geometry":{"type":"Point","coordinates":[106.72024,20.7834]}},{"type":"Feature","properties":{"osm":"n12799683501","name":"Tr\u01b0\u1eddng Trung h\u1ecdc c\u01a1 s\u1edf B\u1eafc S\u01a1n","amenity":"school"},"geometry":{"type":"Point","coordinates":[106.62655,20.81647]}},{"type":"Feature","properties":{"osm":"n13676259784","amenity":"school"},"geometry":{"type":"Point","coordinates":[106.59098,20.86251]}},{"type":"Feature","properties":{"osm":"n14097507731","name":"\u0110\u1ea3ng \u1ee7y - U\u1ef7 ban Nh\u00e2n d\u00e2n Th\u00e0nh ph\u1ed1 H\u1ea3i Ph\u00f2ng","amenity":"townhall"},"geometry":{"type":"Point","coordinates":[106.67802,20.88217]}},{"type":"Feature","properties":{"osm":"n14097507734","name":"V\u0103n ph\u00f2ng \u0110o\u00e0n \u0110\u1ea1i bi\u1ec3u Qu\u1ed1c h\u1ed9i v\u00e0 H\u1ed9i \u0111\u1ed3ng Nh\u00e2n d\u00e2n Th\u00e0nh ph\u1ed1 H\u1ea3i Ph\u00f2ng","amenity":"townhall"},"geometry":{"type":"Point","coordinates":[106.67971,20.88222]}},{"type":"Feature","properties":{"osm":"w239951085","name":"UBND Ph\u01b0\u1eddng K\u00eanh D\u01b0\u01a1ng","amenity":"townhall","building":"office","from_area":true},"geometry":{"type":"Point","coordinates":[106.68826,20.83164]}},{"type":"Feature","properties":{"osm":"w240346629","name":"Tr\u01b0\u1eddng M\u1ea7m Non H\u1eefu Ngh\u1ecb","amenity":"school","from_area":true},"geometry":{"type":"Point","coordinates":[106.68979,20.83582]}},{"type":"Feature","properties":{"osm":"w240409589","name":"Tr\u01b0\u1eddng Trung h\u1ecdc c\u01a1 s\u1edf Nguy\u1ec5n \u0110\u00ecnh Chi\u1ec3u","amenity":"school","from_area":true},"geometry":{"type":"Point","coordinates":[106.68743,20.85059]}},{"type":"Feature","properties":{"osm":"w240453211","name":"Tr\u01b0\u1eddng Ti\u1ec3u h\u1ecdc L\u00ea H\u1ed3ng Phong","amenity":"school","from_area":true},"geometry":{"type":"Point","coordinates":[106.69718,20.83751]}},{"type":"Feature","properties":{"osm":"w240453659","name":"Trung t\u00e2m H\u00e0nh ch\u00ednh - Ch\u00ednh tr\u1ecb Qu\u1eadn H\u1ea3i An","amenity":"townhall","from_area":true},"geometry":{"type":"Point","coordinates":[106.71978,20.83365]}},{"type":"Feature","properties":{"osm":"w240456379","name":"Tr\u01b0\u1eddng Trung h\u1ecdc c\u01a1 s\u1edf L\u00ea L\u1ee3i","amenity":"school","from_area":true},"geometry":{"type":"Point","coordinates":[106.70955,20.82577]}},{"type":"Feature","properties":{"osm":"w240456380","name":"Tr\u01b0\u1eddng Trung h\u1ecdc ph\u1ed5 th\u00f4ng L\u00ea Qu\u00fd \u0110\u00f4n","amenity":"school","from_area":true},"geometry":{"type":"Point","coordinates":[106.70707,20.82571]}},{"type":"Feature","properties":{"osm":"w240457742","name":"Tr\u01b0\u1eddng Trung h\u1ecdc c\u01a1 s\u1edf T\u00f4 Hi\u1ec7u","amenity":"school","from_area":true},"geometry":{"type":"Point","coordinates":[106.67353,20.84944]}},{"type":"Feature","properties":{"osm":"w240463141","name":"Tr\u01b0\u1eddng Trung h\u1ecdc c\u01a1 s\u1edf Ng\u00f4 Quy\u1ec1n","amenity":"school","from_area":true},"geometry":{"type":"Point","coordinates":[106.67846,20.85486]}},{"type":"Feature","properties":{"osm":"w240463680","name":"Tr\u01b0\u1eddng m\u1ea7m non C\u00e1t Bi","amenity":"school","from_area":true},"geometry":{"type":"Point","coordinates":[106.71115,20.82529]}},{"type":"Feature","properties":{"osm":"w240473052","name":"Cung V\u0103n H\u00f3a Thi\u1ebfu Nhi TP","amenity":"community_centre","from_area":true},"geometry":{"type":"Point","coordinates":[106.69272,20.8458]}},{"type":"Feature","properties":{"osm":"w240474767","name":"Tr\u01b0\u1eddng Trung h\u1ecdc ph\u1ed5 th\u00f4ng DL th\u0103ng Long","amenity":"school","from_area":true},"geometry":{"type":"Point","coordinates":[106.69552,20.84196]}},{"type":"Feature","properties":{"osm":"w240476472","name":"Tr\u01b0\u1eddng Ch\u00ednh tr\u1ecb T\u00f4 Hi\u1ec7u","amenity":"college","from_area":true},"geometry":{"type":"Point","coordinates":[106.69376,20.83867]}},{"type":"Feature","properties":{"osm":"w240478058","name":"Tr\u01b0\u1eddng Cao \u0110\u1eb3ng V\u0103n H\u00f3a Ngh\u1ec7 Thu\u1eadt H\u1ea3i Ph\u00f2ng","amenity":"college","from_area":true},"geometry":{"type":"Point","coordinates":[106.70548,20.82814]}},{"type":"Feature","properties":{"osm":"w240478182","name":"Tr\u01b0\u1eddng Cao \u0111\u1eb3ng C\u00f4ng ngh\u1ec7, Kinh t\u1ebf v\u00e0 Thu\u1ef7 s\u1ea3n","amenity":"college","from_area":true},"geometry":{"type":"Point","coordinates":[106.6934,20.82878]}},{"type":"Feature","properties":{"osm":"w240514245","name":"Tr\u01b0\u1eddng Trung h\u1ecdc ph\u1ed5 th\u00f4ng d\u00e2n l\u1eadp Nguy\u1ec5n B\u1ec9nh Khi\u00eam","amenity":"school","from_area":true},"geometry":{"type":"Point","coordinates":[106.67001,20.84146]}},{"type":"Feature","properties":{"osm":"w240518175","name":"Tr\u01b0\u1eddng ti\u1ec3u h\u1ecdc \u0111\u1eb1ng Giang","amenity":"school","from_area":true},"geometry":{"type":"Point","coordinates":[106.69937,20.84527]}},{"type":"Feature","properties":{"osm":"w240518176","name":"Tr\u01b0\u1eddng Trung h\u1ecdc c\u01a1 s\u1edf An \u0110\u00e0","amenity":"school","from_area":true},"geometry":{"type":"Point","coordinates":[106.70113,20.84655]}},{"type":"Feature","properties":{"osm":"w240524814","name":"Tr\u01b0\u1eddng Trung H\u1ecdc C\u01a1 S\u1edf Nguy\u1ec5n H\u1eefu Tu\u1ec7","amenity":"school","from_area":true},"geometry":{"type":"Point","coordinates":[106.69673,20.85714]}},{"type":"Feature","properties":{"osm":"w240531998","name":"Tr\u01b0\u1eddng Ti\u1ec3u H\u1ecdc \u0110\u1eb1ng L\u00e2m","amenity":"school","from_area":true},"geometry":{"type":"Point","coordinates":[106.70958,20.83294]}},{"type":"Feature","properties":{"osm":"w240542505","name":"Tr\u01b0\u1eddng Khi\u1ebfm Th\u00ednh","amenity":"school","from_area":true},"geometry":{"type":"Point","coordinates":[106.70389,20.82827]}},{"type":"Feature","properties":{"osm":"w240590221","name":"Tr\u01b0\u1eddng Cao \u0111\u1eb3ng Giao th\u00f4ng V\u1eadn t\u1ea3i \u0110\u01b0\u1eddng thu\u1ef7 I (c\u01a1 s\u1edf 2)","amenity":"college","from_area":true},"geometry":{"type":"Point","coordinates":[106.66034,20.8447]}},{"type":"Feature","properties":{"osm":"w240590376","name":"Tr\u01b0\u1eddng Ph\u1ed5 th\u00f4ng Hermann Gmeiner H\u1ea3i Ph\u00f2ng","amenity":"school","from_area":true},"geometry":{"type":"Point","coordinates":[106.71139,20.84613]}},{"type":"Feature","properties":{"osm":"w240654959","name":"Tr\u01b0\u1eddng Trung h\u1ecdc c\u01a1 s\u1edf Ng\u00f4 Gia T\u1ef1","amenity":"school","from_area":true},"geometry":{"type":"Point","coordinates":[106.66587,20.85797]}},{"type":"Feature","properties":{"osm":"w240674455","name":"Trung c\u1ea5p du l\u1ecbch H\u1ea3i Ph\u00f2ng","amenity":"school","from_area":true},"geometry":{"type":"Point","coordinates":[106.68969,20.86235]}},{"type":"Feature","properties":{"osm":"w240742013","name":"Tr\u01b0\u1eddng Trung h\u1ecdc c\u01a1 s\u1edf An \u0110\u1ed3ng","amenity":"school","from_area":true},"geometry":{"type":"Point","coordinates":[106.64873,20.85575]}},{"type":"Feature","properties":{"osm":"w240773490","name":"Tr\u01b0\u1eddng Trung h\u1ecdc ph\u1ed5 th\u00f4ng Hoa \u0110\u1ed9ng","amenity":"school","from_area":true},"geometry":{"type":"Point","coordinates":[106.66637,20.88934]}},{"type":"Feature","properties":{"osm":"w240775770","name":"Tr\u01b0\u1eddng Cao \u0111\u1eb3ng H\u00e0ng h\u1ea3i v\u00e0 \u0110\u01b0\u1eddng th\u1ee7y I","amenity":"college","from_area":true},"geometry":{"type":"Point","coordinates":[106.7217,20.85989]}},{"type":"Feature","properties":{"osm":"w240775771","name":"Tr\u01b0\u1eddng Trung h\u1ecdc ph\u1ed5 th\u00f4ng chuy\u00ean Tr\u1ea7n Ph\u00fa","amenity":"school","from_area":true},"geometry":{"type":"Point","coordinates":[106.7121,20.84298]}},{"type":"Feature","properties":{"osm":"w240781281","name":"Tr\u01b0\u1eddng Ti\u1ec3u H\u1ecdc D\u01b0\u01a1ng Quan","amenity":"school","from_area":true},"geometry":{"type":"Point","coordinates":[106.68516,20.89474]}},{"type":"Feature","properties":{"osm":"w240785844","name":"Tr\u01b0\u1eddng Trung h\u1ecdc c\u01a1 s\u1edf D\u01b0\u01a1ng Quan","amenity":"school","from_area":true},"geometry":{"type":"Point","coordinates":[106.68584,20.89443]}},{"type":"Feature","properties":{"osm":"w240893938","name":"Cao \u0110\u1eb3ng C\u00f4ng Ngh\u1ec7 Viettronics","amenity":"college","from_area":true},"geometry":{"type":"Point","coordinates":[106.70404,20.82683]}},{"type":"Feature","properties":{"osm":"w240967595","name":"Trung t\u00e2m d\u1ea1y ngh\u1ec1 Ng\u00f4 Quy\u1ec1n","amenity":"school","from_area":true},"geometry":{"type":"Point","coordinates":[106.69674,20.85665]}},{"type":"Feature","properties":{"osm":"w240989016","name":"Tr\u01b0\u1eddng Ti\u1ec3u h\u1ecdc C\u00e1t Bi","amenity":"school","from_area":true},"geometry":{"type":"Point","coordinates":[106.71001,20.82542]}},{"type":"Feature","properties":{"osm":"w241060805","name":"Tr\u01b0\u1eddng Trung h\u1ecdc c\u01a1 s\u1edf Nguy\u1ec5n B\u00e1 Ng\u1ecdc","amenity":"school","from_area":true},"geometry":{"type":"Point","coordinates":[106.66681,20.84875]}},{"type":"Feature","properties":{"osm":"w241060807","name":"Tr\u01b0\u1eddng Ti\u1ec3u h\u1ecdc Nguy\u1ec5n \u0110\u1ee9c C\u1ea3nh","amenity":"school","from_area":true},"geometry":{"type":"Point","coordinates":[106.66598,20.85038]}},{"type":"Feature","properties":{"osm":"w241065221","name":"Tr\u01b0\u1eddng trung c\u1ea5p ngh\u1ec1 Xi m\u0103ng","amenity":"college","from_area":true},"geometry":{"type":"Point","coordinates":[106.66098,20.86504]}},{"type":"Feature","properties":{"osm":"w241073073","name":"Tr\u01b0\u1eddng Ti\u1ec3u h\u1ecdc Ng\u00f4 Gia T\u1ef1","amenity":"school","from_area":true},"geometry":{"type":"Point","coordinates":[106.66642,20.85796]}},{"type":"Feature","properties":{"osm":"w241074446","name":"Tru\u01b0\u1eddng ti\u1ec3u h\u1ecdc Tr\u1ea7n Qu\u1ed1c To\u1ea3n","amenity":"school","from_area":true},"geometry":{"type":"Point","coordinates":[106.70556,20.86298]}},{"type":"Feature","properties":{"osm":"w241077186","name":"Tr\u01b0\u1eddng Trung h\u1ecdc c\u01a1 s\u1edf \u0110\u00e0 N\u1eb5ng","amenity":"school","from_area":true},"geometry":{"type":"Point","coordinates":[106.70153,20.85965]}},{"type":"Feature","properties":{"osm":"w241077189","name":"Tr\u01b0\u1eddng b\u1ed3i d\u01b0\u1ee1ng c\u00e1n b\u1ed9","amenity":"college","from_area":true},"geometry":{"type":"Point","coordinates":[106.70353,20.85987]}},{"type":"Feature","properties":{"osm":"w241107097","name":"Tr\u01b0\u1eddng Trung h\u1ecdc c\u01a1 s\u1edf \u0110\u1eb1ng H\u1ea3i","amenity":"school","from_area":true},"geometry":{"type":"Point","coordinates":[106.71687,20.84136]}},{"type":"Feature","properties":{"osm":"w241107117","name":"Tr\u01b0\u1eddng Ti\u1ec3u H\u1ecdc \u0110\u1eb1ng H\u00e0i","amenity":"school","from_area":true},"geometry":{"type":"Point","coordinates":[106.71771,20.83923]}},{"type":"Feature","properties":{"osm":"w241127666","name":"Tr\u01b0\u1eddng Trung h\u1ecdc c\u01a1 s\u1edf D\u01b0 H\u00e0ng K\u00eanh","amenity":"school","from_area":true},"geometry":{"type":"Point","coordinates":[106.67868,20.83604]}},{"type":"Feature","properties":{"osm":"w241127676","name":"Tr\u01b0\u1eddng Trung h\u1ecdc c\u01a1 s\u1edf L\u00ea H\u1ed3ng Phong","amenity":"school","from_area":true},"geometry":{"type":"Point","coordinates":[106.69867,20.83816]}},{"type":"Feature","properties":{"osm":"w241140108","name":"Tr\u01b0\u1eddng m\u1ea7m non \u0110\u1eb1ng H\u1ea3i","amenity":"school","from_area":true},"geometry":{"type":"Point","coordinates":[106.71847,20.84156]}},{"type":"Feature","properties":{"osm":"w241198924","name":"Tr\u01b0\u1eddng Trung h\u1ecdc c\u01a1 s\u1edf L\u00ea Ch\u00e2n","amenity":"school","from_area":true},"geometry":{"type":"Point","coordinates":[106.67303,20.84203]}},{"type":"Feature","properties":{"osm":"w241198925","name":"Tr\u01b0\u1eddng Ti\u1ec3u H\u1ecdc D\u01b0 H\u00e0ng K\u00eanh","amenity":"school","from_area":true},"geometry":{"type":"Point","coordinates":[106.68369,20.8352]}},{"type":"Feature","properties":{"osm":"w241199340","name":"Tr\u01b0\u1eddng Ti\u1ec3u h\u1ecdc \u0110\u00f4ng H\u1ea3i 2","amenity":"school","from_area":true},"geometry":{"type":"Point","coordinates":[106.72987,20.84435]}},{"type":"Feature","properties":{"osm":"w241200717","name":"Trung T\u00e2m GD th\u01b0\u1eddng xuy\u00ean Qu\u1eadn H\u1ea3i An","amenity":"school","from_area":true},"geometry":{"type":"Point","coordinates":[106.71056,20.83307]}},{"type":"Feature","properties":{"osm":"w241211253","name":"Tr\u01b0\u1eddng Ti\u1ec3u h\u1ecdc Nguy\u1ec5n Th\u01b0\u1ee3ng Hi\u1ec1n","amenity":"school","from_area":true},"geometry":{"type":"Point","coordinates":[106.69647,20.86426]}},{"type":"Feature","properties":{"osm":"w241211767","name":"Tr\u01b0\u1eddng Trung h\u1ecdc c\u01a1 s\u1edf V\u00f5 Th\u1ecb S\u00e1u","amenity":"school","from_area":true},"geometry":{"type":"Point","coordinates":[106.66789,20.84353]}},{"type":"Feature","properties":{"osm":"w241212181","name":"Tr\u01b0\u1eddng Trung h\u1ecdc c\u01a1 s\u1edf L\u1ea1c Vi\u00ean","amenity":"school","from_area":true},"geometry":{"type":"Point","coordinates":[106.70015,20.86515]}},{"type":"Feature","properties":{"osm":"w241212182","name":"Tr\u01b0\u1eddng Ti\u1ec3u h\u1ecdc Th\u00e1i Phi\u00ean","amenity":"school","from_area":true},"geometry":{"type":"Point","coordinates":[106.70201,20.85962]}},{"type":"Feature","properties":{"osm":"w241217580","name":"Tr\u01b0\u1eddng ti\u1ec3u h\u1ecdc \u0111\u1eb1ng Giang","amenity":"school","from_area":true},"geometry":{"type":"Point","coordinates":[106.69943,20.84513]}},{"type":"Feature","properties":{"osm":"w241425392","name":"Tr\u01b0\u1eddng Trung h\u1ecdc ph\u1ed5 th\u00f4ng H\u1ed3ng B\u00e0ng","amenity":"school","from_area":true},"geometry":{"type":"Point","coordinates":[106.65047,20.86665]}},{"type":"Feature","properties":{"osm":"w241425393","name":"Tr\u01b0\u1eddng ti\u1ec3u h\u1ecdc B\u1ea1ch \u0110\u1eb1ng","amenity":"school","from_area":true},"geometry":{"type":"Point","coordinates":[106.64951,20.86706]}},{"type":"Feature","properties":{"osm":"w241425398","name":"Trung h\u1ecdc c\u01a1 s\u1edf T\u00e2n D\u01b0\u01a1ng","amenity":"school","from_area":true},"geometry":{"type":"Point","coordinates":[106.6721,20.89896]}},{"type":"Feature","properties":{"osm":"w241425399","name":"Tr\u01b0\u1eddng ti\u1ec3u h\u1ecdc T\u00e2n D\u01b0\u01a1ng","amenity":"school","from_area":true},"geometry":{"type":"Point","coordinates":[106.67399,20.89922]}},{"type":"Feature","properties":{"osm":"w241425401","name":"C\u01a1 quan h\u00e0nh ch\u00ednh","amenity":"community_centre","from_area":true},"geometry":{"type":"Point","coordinates":[106.67306,20.89911]}},{"type":"Feature","properties":{"osm":"w241441012","name":"Tr\u01b0\u1eddng Trung h\u1ecdc ph\u1ed5 th\u00f4ng L\u00ea Ch\u00e2n","amenity":"school","from_area":true},"geometry":{"type":"Point","coordinates":[106.68734,20.82519]}},{"type":"Feature","properties":{"osm":"w241450300","name":"Ti\u1ec3u H\u1ecdc V\u0129nh Ni\u1ec7m","amenity":"school","from_area":true},"geometry":{"type":"Point","coordinates":[106.67768,20.83167]}},{"type":"Feature","properties":{"osm":"w241457661","name":"Tr\u01b0\u1eddng Trung h\u1ecdc c\u01a1 s\u1edf Chu V\u0103n An","amenity":"school","from_area":true},"geometry":{"type":"Point","coordinates":[106.69012,20.85204]}},{"type":"Feature","properties":{"osm":"w241457662","name":"Tr\u01b0\u1eddng Ti\u1ec3u h\u1ecdc Chu V\u0103n An","amenity":"school","from_area":true},"geometry":{"type":"Point","coordinates":[106.68961,20.85237]}},{"type":"Feature","properties":{"osm":"w241574815","name":"Tr\u01b0\u1eddng Trung h\u1ecdc ph\u1ed5 th\u00f4ng L\u00ea H\u1ed3ng Phong","amenity":"school","from_area":true},"geometry":{"type":"Point","coordinates":[106.67347,20.85974]}},{"type":"Feature","properties":{"osm":"w241574834","name":"Tr\u01b0\u1eddng Ti\u1ec3u h\u1ecdc Tr\u1ea7n V\u0103n \u01a0n","amenity":"school","from_area":true},"geometry":{"type":"Point","coordinates":[106.6746,20.86088]}},{"type":"Feature","properties":{"osm":"w241574835","name":"Tr\u01b0\u1eddng Trung h\u1ecdc c\u01a1 s\u1edf Tr\u1ea7n V\u0103n \u01a0n","amenity":"school","from_area":true},"geometry":{"type":"Point","coordinates":[106.67436,20.86067]}},{"type":"Feature","properties":{"osm":"w241574870","name":"an l\u00e3o","amenity":"school","from_area":true},"geometry":{"type":"Point","coordinates":[106.67507,20.85878]}},{"type":"Feature","properties":{"osm":"w241574988","name":"Tr\u01b0\u1eddng d\u1ea1y ngh\u1ec1 th\u1ee7y s\u1ea3n","amenity":"school","from_area":true},"geometry":{"type":"Point","coordinates":[106.70104,20.87109]}},{"type":"Feature","properties":{"osm":"w241575845","name":"Tr\u01b0\u1eddng trung c\u1ea5p ngh\u1ec1 Giao Th\u00f4ng V\u1eadn T\u1ea3i","amenity":"school","from_area":true},"geometry":{"type":"Point","coordinates":[106.6431,20.81282]}},{"type":"Feature","properties":{"osm":"w241772810","name":"Tr\u01b0\u1eddng Trung h\u1ecdc ph\u1ed5 th\u00f4ng marie Curie","amenity":"school","from_area":true},"geometry":{"type":"Point","coordinates":[106.69758,20.83697]}},{"type":"Feature","properties":{"osm":"w241797016","name":"Cao \u0111\u1eb3ng B\u00e1ch Ngh\u1ec7 H\u1ea3i Ph\u00f2ng","amenity":"college","from_area":true},"geometry":{"type":"Point","coordinates":[106.70266,20.82306]}},{"type":"Feature","properties":{"osm":"w241890830","name":"Tr\u01b0\u1eddng m\u1ea7m non \u0110\u1ed3ng T\u00e2m","amenity":"school","from_area":true},"geometry":{"type":"Point","coordinates":[106.69242,20.84101]}},{"type":"Feature","properties":{"osm":"w241890832","name":"Tr\u01b0\u1eddng Trung h\u1ecdc c\u01a1 s\u1edf V\u0129nh Ni\u1ec7m","amenity":"school","from_area":true},"geometry":{"type":"Point","coordinates":[106.67948,20.82744]}},{"type":"Feature","properties":{"osm":"w241890833","name":"Tr\u01b0\u1eddng Trung C\u1ea5p Nghi\u1ec7p v\u1ee5 V\u00e0 C\u00f4ng Ngh\u1ec7","amenity":"college","from_area":true},"geometry":{"type":"Point","coordinates":[106.67724,20.82895]}},{"type":"Feature","properties":{"osm":"w241891483","name":"Tr\u01b0\u1eddng Ph\u1ed5 th\u00f4ng Nhi\u1ec1u c\u1ea5p h\u1ecdc Nguy\u1ec5n T\u1ea5t Th\u00e0nh","amenity":"school","from_area":true},"geometry":{"type":"Point","coordinates":[106.68758,20.83923]}},{"type":"Feature","properties":{"osm":"w241915211","name":"Tr\u01b0\u1eddng ti\u1ec3u h\u1ecdc B\u1ea1ch \u0110\u1eb1ng","amenity":"school","from_area":true},"geometry":{"type":"Point","coordinates":[106.65238,20.86835]}},{"type":"Feature","properties":{"osm":"w241921146","name":"Trung H\u1ecdc C\u01a1 S\u1edf \u0110\u1eb1ng L\u00e2m","amenity":"school","from_area":true},"geometry":{"type":"Point","coordinates":[106.71095,20.83125]}},{"type":"Feature","properties":{"osm":"w241940937","name":"Tr\u01b0\u1eddng Trung C\u1ea5p Kinh T\u1ebf K\u1ef9 Thu\u1eadt C\u00f4ng Ngh\u1ec7 H\u1ea3i Ph\u00f2ng","amenity":"college","from_area":true},"geometry":{"type":"Point","coordinates":[106.70603,20.86]}},{"type":"Feature","properties":{"osm":"w241945252","name":"Tr\u01b0\u1eddng Trung h\u1ecdc c\u01a1 s\u1edf Quang Trung","amenity":"school","from_area":true},"geometry":{"type":"Point","coordinates":[106.70854,20.85856]}},{"type":"Feature","properties":{"osm":"w241945253","name":"Tr\u01b0\u1eddng Cao \u0111\u1eb3ng Kinh t\u1ebf H\u1ea3i Ph\u00f2ng (c\u01a1 s\u1edf 3)","amenity":"college","from_area":true},"geometry":{"type":"Point","coordinates":[106.70959,20.86251]}},{"type":"Feature","properties":{"osm":"w241995262","name":"Tr\u01b0\u1eddng ti\u1ec3u h\u1ecdc Nguy\u1ec5n Du","amenity":"school","from_area":true},"geometry":{"type":"Point","coordinates":[106.70243,20.87026]}},{"type":"Feature","properties":{"osm":"w242000287","name":"Tr\u01b0\u1eddng ti\u1ec3u h\u1ecdc L\u00fd T\u1ef1 Tr\u1ecdng","amenity":"school","from_area":true},"geometry":{"type":"Point","coordinates":[106.69674,20.85759]}},{"type":"Feature","properties":{"osm":"w242014563","name":"Tr\u01b0\u1eddng Trung h\u1ecdc c\u01a1 s\u1edf Nam H\u1ea3i","amenity":"school","from_area":true},"geometry":{"type":"Point","coordinates":[106.73601,20.83242]}},{"type":"Feature","properties":{"osm":"w242014565","name":"Tr\u01b0\u1eddng m\u1ea7m non Nam H\u1ea3i","amenity":"school","from_area":true},"geometry":{"type":"Point","coordinates":[106.73521,20.82853]}},{"type":"Feature","properties":{"osm":"w242016740","name":"Tr\u01b0\u1eddng Trung h\u1ecdc c\u01a1 s\u1edf \u0110\u00f4ng H\u1ea3i","amenity":"school","from_area":true},"geometry":{"type":"Point","coordinates":[106.71873,20.85121]}},{"type":"Feature","properties":{"osm":"w242016741","name":"Tr\u01b0\u1eddng ti\u1ec3u h\u1ecdc \u0110\u00f4ng H\u1ea3i","amenity":"school","from_area":true},"geometry":{"type":"Point","coordinates":[106.71638,20.85252]}},{"type":"Feature","properties":{"osm":"w242019416","name":"Tr\u01b0\u1eddng Cao \u0111\u1eb3ng Y t\u1ebf H\u1ea3i Ph\u00f2ng","amenity":"college","from_area":true},"geometry":{"type":"Point","coordinates":[106.67214,20.84646]}},{"type":"Feature","properties":{"osm":"w242021960","name":"Tr\u01b0\u1eddng Ti\u1ec3u h\u1ecdc Tr\u01b0ng V\u01b0\u01a1ng","amenity":"school","from_area":true},"geometry":{"type":"Point","coordinates":[106.67196,20.84388]}},{"type":"Feature","properties":{"osm":"w242055607","name":"Tr\u01b0\u1eddng Ti\u1ec3u h\u1ecdc \u0110inh Ti\u00ean Ho\u00e0ng","amenity":"school","from_area":true},"geometry":{"type":"Point","coordinates":[106.68181,20.86031]}},{"type":"Feature","properties":{"osm":"w242070735","name":"Tr\u01b0\u1eddng ti\u1ec3u h\u1ecdc Nguy\u1ec5n Tr\u00e3i","amenity":"school","from_area":true},"geometry":{"type":"Point","coordinates":[106.66166,20.85669]}},{"type":"Feature","properties":{"osm":"w242088834","name":"Tieu h\u1ecdc V\u00f5 Th\u1ecb S\u00e1u","amenity":"school","from_area":true},"geometry":{"type":"Point","coordinates":[106.66837,20.84381]}},{"type":"Feature","properties":{"osm":"w242169921","name":"Tr\u01b0\u1eddng Trung h\u1ecdc ph\u1ed5 th\u00f4ng Ng\u00f4 Quy\u1ec1n","amenity":"school","from_area":true},"geometry":{"type":"Point","coordinates":[106.6795,20.85501]}},{"type":"Feature","properties":{"osm":"w242172070","name":"Tr\u01b0\u1eddng thpt Tr\u1ea7n Nguy\u00ean H\u00e3n","amenity":"school","from_area":true},"geometry":{"type":"Point","coordinates":[106.66613,20.84611]}},{"type":"Feature","properties":{"osm":"w242172532","name":"Tr\u01b0\u1eddng Ti\u1ec3u h\u1ecdc An \u0110\u1ed3ng","amenity":"school","from_area":true},"geometry":{"type":"Point","coordinates":[106.64752,20.85627]}},{"type":"Feature","properties":{"osm":"w242183726","name":"Tr\u01b0\u1eddng Trung h\u1ecdc c\u01a1 s\u1edf Phan B\u1ed9i Ch\u00e2u","amenity":"school","from_area":true},"geometry":{"type":"Point","coordinates":[106.67983,20.85746]}},{"type":"Feature","properties":{"osm":"w242188051","name":"UBND ph\u01b0\u1eddng \u0110\u00f4ng Kh\u00ea","amenity":"townhall","from_area":true},"geometry":{"type":"Point","coordinates":[106.70168,20.85119]}},{"type":"Feature","properties":{"osm":"w242188054","name":"Tr\u01b0\u1eddng Ti\u1ec3u h\u1ecdc Nguy\u1ec5n Tr\u00e3i","amenity":"school","from_area":true},"geometry":{"type":"Point","coordinates":[106.70148,20.85066]}},{"type":"Feature","properties":{"osm":"w242192608","name":"Tr\u01b0\u1eddng Trung h\u1ecdc ph\u1ed5 th\u00f4ng L\u01b0\u01a1ng Th\u1ebf Vinh","amenity":"school","from_area":true},"geometry":{"type":"Point","coordinates":[106.67794,20.86432]}},{"type":"Feature","properties":{"osm":"w242192816","name":"TR\u01af\u1edcNG Trung h\u1ecdc ph\u1ed5 th\u00f4ng H\u1ea2I AN","amenity":"school","from_area":true},"geometry":{"type":"Point","coordinates":[106.71,20.83749]}},{"type":"Feature","properties":{"osm":"w242192817","name":"Tr\u01b0\u1eddng m\u1ea7m non \u0110\u1eb1ng L\u00e2m","amenity":"school","from_area":true},"geometry":{"type":"Point","coordinates":[106.71351,20.83312]}},{"type":"Feature","properties":{"osm":"w242193993","name":"C\u01a0 QUAN H\u00c0NH CH\u00cdNH","amenity":"townhall","from_area":true},"geometry":{"type":"Point","coordinates":[106.74152,20.82229]}},{"type":"Feature","properties":{"osm":"w242304153","name":"Ti\u1ec3u h\u1ecdc \u0110\u1eb1ng H\u1ea3i Khu B","amenity":"school","from_area":true},"geometry":{"type":"Point","coordinates":[106.72503,20.83473]}},{"type":"Feature","properties":{"osm":"w242465871","name":"Tr\u01b0\u1eddng m\u1ea7m non \u0110\u1eb1ng L\u00e2m","amenity":"school","from_area":true},"geometry":{"type":"Point","coordinates":[106.71051,20.83125]}},{"type":"Feature","properties":{"osm":"w384635213","name":"Tr\u01b0\u1eddng Ti\u1ec3u h\u1ecdc Anh D\u0169ng","amenity":"school","from_area":true},"geometry":{"type":"Point","coordinates":[106.69875,20.80202]}},{"type":"Feature","properties":{"osm":"w395298154","amenity":"townhall","building":"yes","from_area":true},"geometry":{"type":"Point","coordinates":[106.73333,20.77241]}},{"type":"Feature","properties":{"osm":"w605975370","name":"Tr\u01b0\u1eddng Ti\u1ec3u h\u1ecdc Nam S\u01a1n","amenity":"school","from_area":true},"geometry":{"type":"Point","coordinates":[106.60856,20.87359]}},{"type":"Feature","properties":{"osm":"w605975371","name":"UBND x\u00e3 Nam S\u01a1n","amenity":"townhall","building":"yes","from_area":true},"geometry":{"type":"Point","coordinates":[106.60874,20.87438]}},{"type":"Feature","properties":{"osm":"w607629416","name":"Tr\u01b0\u1eddng Trung h\u1ecdc ph\u1ed5 th\u00f4ng An D\u01b0\u01a1ng","amenity":"school","from_area":true},"geometry":{"type":"Point","coordinates":[106.61505,20.86467]}},{"type":"Feature","properties":{"osm":"w680305271","name":"Tr\u01b0\u1eddng Ti\u1ec3u H\u1ecdc Minh Khai","amenity":"school","from_area":true},"geometry":{"type":"Point","coordinates":[106.68073,20.85446]}},{"type":"Feature","properties":{"osm":"w742629224","name":"Tr\u01b0\u1eddng Trung h\u1ecdc c\u01a1 s\u1edf VinSchool","amenity":"school","from_area":true},"geometry":{"type":"Point","coordinates":[106.66599,20.86316]}},{"type":"Feature","properties":{"osm":"w742629225","name":"Tr\u01b0\u1eddng Ti\u1ec3u h\u1ecdc VinSchool","amenity":"school","from_area":true},"geometry":{"type":"Point","coordinates":[106.6659,20.86429]}},{"type":"Feature","properties":{"osm":"w749318754","name":"Tr\u01b0\u1eddng Trung h\u1ecdc ph\u1ed5 th\u00f4ng Th\u00e1i Phi\u00ean","amenity":"school","from_area":true},"geometry":{"type":"Point","coordinates":[106.7061,20.86097]}},{"type":"Feature","properties":{"osm":"w801474842","amenity":"community_centre","building":"yes","from_area":true},"geometry":{"type":"Point","coordinates":[106.69659,20.84524]}},{"type":"Feature","properties":{"osm":"w801476083","name":"Cung v\u0103n h\u00f3a thi\u1ebfu nhi H\u1ea3i Ph\u00f2ng","amenity":"community_centre","building":"yes","from_area":true},"geometry":{"type":"Point","coordinates":[106.69222,20.84554]}},{"type":"Feature","properties":{"osm":"w809435723","name":"Tr\u01b0\u1eddng Ti\u1ec3u H\u1ecdc x\u00e3 C\u1ed5 Am","amenity":"school","from_area":true},"geometry":{"type":"Point","coordinates":[106.5475,20.6392]}},{"type":"Feature","properties":{"osm":"w809435724","name":"Tr\u01b0\u1eddng m\u1eabu gi\u00e1o x\u00e3 C\u1ed5 Am","amenity":"school","from_area":true},"geometry":{"type":"Point","coordinates":[106.54809,20.63939]}},{"type":"Feature","properties":{"osm":"w809435725","name":"Tr\u01b0\u1eddng Trung H\u1ecdc C\u01a1 S\u1edf x\u00e3 C\u1ed5 Am","amenity":"school","from_area":true},"geometry":{"type":"Point","coordinates":[106.54568,20.63834]}},{"type":"Feature","properties":{"osm":"w961981285","amenity":"shelter","building":"yes","from_area":true},"geometry":{"type":"Point","coordinates":[106.6963,20.86305]}},{"type":"Feature","properties":{"osm":"w961981308","amenity":"shelter","building":"yes","from_area":true},"geometry":{"type":"Point","coordinates":[106.69706,20.86319]}},{"type":"Feature","properties":{"osm":"w961981309","amenity":"shelter","building":"yes","from_area":true},"geometry":{"type":"Point","coordinates":[106.69613,20.86363]}},{"type":"Feature","properties":{"osm":"w982139383","name":"Tr\u01b0\u1eddng Cao \u0111\u1eb3ng Giao th\u00f4ng v\u1eadn t\u1ea3i Trung \u01b0\u01a1ng II","amenity":"college","from_area":true},"geometry":{"type":"Point","coordinates":[106.62113,20.8177]}},{"type":"Feature","properties":{"osm":"w1002180001","name":"Tr\u01b0\u1eddng Trung h\u1ecdc ph\u1ed5 th\u00f4ng B\u1ea1ch \u0110\u1eb1ng","amenity":"school","from_area":true},"geometry":{"type":"Point","coordinates":[106.80471,20.94353]}},{"type":"Feature","properties":{"osm":"w1019302235","name":"Tr\u01b0\u1eddng Trung h\u1ecdc c\u01a1 s\u1edf L\u00ea H\u1ed3ng Phong","amenity":"school","from_area":true},"geometry":{"type":"Point","coordinates":[106.69768,20.83767]}},{"type":"Feature","properties":{"osm":"w1023330896","name":"Tr\u01b0\u1eddng Cao \u0111\u1eb3ng Du l\u1ecbch H\u1ea3i Ph\u00f2ng","amenity":"college","from_area":true},"geometry":{"type":"Point","coordinates":[106.60537,20.87903]}},{"type":"Feature","properties":{"osm":"w1034660231","name":"Tr\u01b0\u1eddng Trung h\u1ecdc c\u01a1 s\u1edf Nam S\u01a1n","amenity":"school","from_area":true},"geometry":{"type":"Point","coordinates":[106.60944,20.87471]}},{"type":"Feature","properties":{"osm":"w1034660232","name":"Tr\u01b0\u1eddng Trung h\u1ecdc c\u01a1 s\u1edf Nam S\u01a1n","amenity":"school","from_area":true},"geometry":{"type":"Point","coordinates":[106.60817,20.87408]}},{"type":"Feature","properties":{"osm":"w1066900818","name":"Tr\u01b0\u1eddng Cao \u0111\u1eb3ng Kinh t\u1ebf v\u00e0 C\u00f4ng ngh\u1ec7 Th\u1ef1c ph\u1ea9m","amenity":"college","from_area":true},"geometry":{"type":"Point","coordinates":[106.77915,20.7204]}},{"type":"Feature","properties":{"osm":"w1079659328","name":"Tr\u01b0\u1eddng Trung h\u1ecdc c\u01a1 s\u1edf Tr\u1ea7n H\u01b0ng \u0110\u1ea1o","amenity":"school","from_area":true},"geometry":{"type":"Point","coordinates":[106.65759,20.83129]}},{"type":"Feature","properties":{"osm":"w1079659329","name":"Tr\u01b0\u1eddng Ti\u1ec3u h\u1ecdc Nguy\u1ec5n Du","amenity":"school","from_area":true},"geometry":{"type":"Point","coordinates":[106.65814,20.83171]}},{"type":"Feature","properties":{"osm":"w1079659330","name":"Tr\u01b0\u1eddng Cao \u0111\u1eb3ng Duy\u00ean H\u1ea3i","amenity":"college","from_area":true},"geometry":{"type":"Point","coordinates":[106.66555,20.82803]}},{"type":"Feature","properties":{"osm":"w1090888668","name":"Tr\u01b0\u1eddng Ti\u1ec3u h\u1ecdc An D\u01b0\u01a1ng","amenity":"school","from_area":true},"geometry":{"type":"Point","coordinates":[106.61097,20.86483]}},{"type":"Feature","properties":{"osm":"w1090888669","name":"Tr\u01b0\u1eddng Trung h\u1ecdc c\u01a1 s\u1edf An D\u01b0\u01a1ng","amenity":"school","from_area":true},"geometry":{"type":"Point","coordinates":[106.61084,20.86523]}},{"type":"Feature","properties":{"osm":"w1090888677","name":"Nh\u00e0 thi\u1ebfu nhi huy\u1ec7n An D\u01b0\u01a1ng","amenity":"community_centre","from_area":true},"geometry":{"type":"Point","coordinates":[106.61243,20.86461]}},{"type":"Feature","properties":{"osm":"w1090888683","name":"Tr\u01b0\u1eddng Trung h\u1ecdc c\u01a1 s\u1edf An H\u1ed3ng","amenity":"school","from_area":true},"geometry":{"type":"Point","coordinates":[106.60594,20.91005]}},{"type":"Feature","properties":{"osm":"w1090888684","name":"Tr\u01b0\u1eddng Ti\u1ec3u h\u1ecdc An H\u1ed3ng","amenity":"school","from_area":true},"geometry":{"type":"Point","coordinates":[106.60602,20.90935]}},{"type":"Feature","properties":{"osm":"w1103955519","name":"Trung t\u00e2m H\u00e0nh ch\u00ednh - Ch\u00ednh tr\u1ecb Qu\u1eadn H\u1ed3ng B\u00e0ng","amenity":"townhall","building":"yes","from_area":true},"geometry":{"type":"Point","coordinates":[106.65644,20.86468]}},{"type":"Feature","properties":{"osm":"w1104882245","name":"S\u00e2n ch\u00ednh","amenity":"school","from_area":true},"geometry":{"type":"Point","coordinates":[106.71232,20.84296]}},{"type":"Feature","properties":{"osm":"w1104882246","name":"S\u00e2n ph\u1ee5","amenity":"school","from_area":true},"geometry":{"type":"Point","coordinates":[106.71212,20.84334]}},{"type":"Feature","properties":{"osm":"w1104882247","name":"S\u00e2n gi\u1eefa","amenity":"school","from_area":true},"geometry":{"type":"Point","coordinates":[106.7116,20.84307]}},{"type":"Feature","properties":{"osm":"w1106491916","name":"Tr\u01b0\u1eddng Ti\u1ec3u h\u1ecdc Nguy\u1ec5n V\u0103n T\u1ed1","amenity":"school","from_area":true},"geometry":{"type":"Point","coordinates":[106.6763,20.85206]}},{"type":"Feature","properties":{"osm":"w1120513525","name":"Tr\u01b0\u1eddng Trung h\u1ecdc c\u01a1 s\u1edf Tr\u1ea7n Ph\u00fa","amenity":"school","from_area":true},"geometry":{"type":"Point","coordinates":[106.67518,20.85417]}},{"type":"Feature","properties":{"osm":"w1120513526","name":"Tr\u01b0\u1eddng Trung h\u1ecdc c\u01a1 s\u1edf H\u1ed3ng B\u00e0ng","amenity":"school","from_area":true},"geometry":{"type":"Point","coordinates":[106.68209,20.86344]}},{"type":"Feature","properties":{"osm":"w1120513527","name":"UBND Ph\u01b0\u1eddng M\u00e1y T\u01a1","amenity":"townhall","building":"yes","from_area":true},"geometry":{"type":"Point","coordinates":[106.69193,20.86131]}},{"type":"Feature","properties":{"osm":"w1121014298","name":"Trung t\u00e2m Ch\u00ednh tr\u1ecb - H\u00e0nh ch\u00ednh Qu\u1eadn Ng\u00f4 Quy\u1ec1n","amenity":"townhall","building":"yes","from_area":true},"geometry":{"type":"Point","coordinates":[106.70041,20.85234]}},{"type":"Feature","properties":{"osm":"w1121014309","name":"Trung t\u00e2m H\u00e0nh ch\u00ednh - Ch\u00ednh tr\u1ecb Qu\u1eadn \u0110\u1ed3 S\u01a1n","amenity":"townhall","from_area":true},"geometry":{"type":"Point","coordinates":[106.78237,20.716]}},{"type":"Feature","properties":{"osm":"w1121014312","name":"Trung t\u00e2m H\u00e0nh ch\u00ednh - Ch\u00ednh tr\u1ecb Qu\u1eadn D\u01b0\u01a1ng Kinh","amenity":"townhall","building":"yes","from_area":true},"geometry":{"type":"Point","coordinates":[106.70638,20.79393]}},{"type":"Feature","properties":{"osm":"w1121682359","name":"Tr\u01b0\u1eddng MN","amenity":"school","from_area":true},"geometry":{"type":"Point","coordinates":[106.64032,20.87113]}},{"type":"Feature","properties":{"osm":"w1123723052","amenity":"townhall","building":"yes","from_area":true},"geometry":{"type":"Point","coordinates":[106.68062,20.84942]}},{"type":"Feature","properties":{"osm":"w1124706317","name":"Tr\u01b0\u1eddng Ti\u1ec3u h\u1ecdc Nguy\u1ec5n Tri Ph\u01b0\u01a1ng","amenity":"school","from_area":true},"geometry":{"type":"Point","coordinates":[106.68226,20.8642]}},{"type":"Feature","properties":{"osm":"w1124706318","name":"\u1ee6y ban nh\u00e2n d\u00e2n Th\u00e0nh ph\u1ed1 H\u1ea3i Ph\u00f2ng","amenity":"townhall","building":"yes","from_area":true},"geometry":{"type":"Point","coordinates":[106.68348,20.86499]}},{"type":"Feature","properties":{"osm":"w1124706333","name":"Tr\u01b0\u1eddng Trung h\u1ecdc ph\u1ed5 th\u00f4ng Anhxtanh","amenity":"school","from_area":true},"geometry":{"type":"Point","coordinates":[106.6955,20.86648]}},{"type":"Feature","properties":{"osm":"w1130734859","name":"Tr\u01b0\u1eddng Trung h\u1ecdc ph\u1ed5 th\u00f4ng Nguy\u1ec5n B\u1ec9nh Khi\u00eam","amenity":"school","from_area":true},"geometry":{"type":"Point","coordinates":[106.53335,20.6436]}},{"type":"Feature","properties":{"osm":"w1171486609","name":"Trung t\u00e2m H\u00e0nh ch\u00ednh - Ch\u00ednh tr\u1ecb Qu\u1eadn Ki\u1ebfn An","amenity":"townhall","building":"yes","from_area":true},"geometry":{"type":"Point","coordinates":[106.62494,20.8076]}},{"type":"Feature","properties":{"osm":"w1173077141","name":"Tr\u01b0\u1eddng Trung h\u1ecdc c\u01a1 s\u1edf Th\u1ecb tr\u1ea5n C\u00e1t H\u1ea3i","amenity":"school","from_area":true},"geometry":{"type":"Point","coordinates":[106.8852,20.79605]}},{"type":"Feature","properties":{"osm":"w1173077142","name":"Tr\u01b0\u1eddng Ti\u1ec3u h\u1ecdc \u0110o\u00e0n \u0110\u1ee9c Th\u00e1i","amenity":"school","from_area":true},"geometry":{"type":"Point","coordinates":[106.88851,20.79566]}},{"type":"Feature","properties":{"osm":"w1173077144","name":"Tr\u01b0\u1eddng Ti\u1ec3u h\u1ecdc \u0110o\u00e0n \u0110\u1ee9c Th\u00e1i (c\u01a1 s\u1edf 2)","amenity":"school","from_area":true},"geometry":{"type":"Point","coordinates":[106.88697,20.79553]}},{"type":"Feature","properties":{"osm":"w1173077159","name":"Tr\u01b0\u1eddng Trung h\u1ecdc ph\u1ed5 th\u00f4ng C\u00e1t H\u1ea3i","amenity":"school","from_area":true},"geometry":{"type":"Point","coordinates":[106.87645,20.79966]}},{"type":"Feature","properties":{"osm":"w1174066783","name":"Tr\u01b0\u1eddng Ti\u1ec3u h\u1ecdc N\u00fai \u0110\u00e8o","amenity":"school","from_area":true},"geometry":{"type":"Point","coordinates":[106.67277,20.9164]}},{"type":"Feature","properties":{"osm":"w1174066790","name":"Tr\u01b0\u1eddng M\u1ea7m non Sao Mai","amenity":"school","from_area":true},"geometry":{"type":"Point","coordinates":[106.67318,20.91315]}},{"type":"Feature","properties":{"osm":"w1174896164","name":"Tr\u01b0\u1eddng Ti\u1ec3u h\u1ecdc Nam H\u1ea3i","amenity":"school","from_area":true},"geometry":{"type":"Point","coordinates":[106.73527,20.82965]}},{"type":"Feature","properties":{"osm":"w1175465581","name":"Tr\u01b0\u1eddng Trung h\u1ecdc ph\u1ed5 th\u00f4ng Phan \u0110\u0103ng L\u01b0u","amenity":"school","from_area":true},"geometry":{"type":"Point","coordinates":[106.62288,20.80966]}},{"type":"Feature","properties":{"osm":"w1175465583","name":"Tr\u01b0\u1eddng Trung h\u1ecdc c\u01a1 s\u1edf L\u01b0\u01a1ng Kh\u00e1nh Thi\u1ec7n","amenity":"school","from_area":true},"geometry":{"type":"Point","coordinates":[106.62349,20.80977]}},{"type":"Feature","properties":{"osm":"w1175465584","name":"Tr\u01b0\u1eddng Trung h\u1ecdc ph\u1ed5 th\u00f4ng Ki\u1ebfn An","amenity":"school","from_area":true},"geometry":{"type":"Point","coordinates":[106.62339,20.81048]}},{"type":"Feature","properties":{"osm":"w1178291984","name":"Tr\u01b0\u1eddng Trung h\u1ecdc c\u01a1 s\u1edf-Trung h\u1ecdc ph\u1ed5 th\u00f4ng FPT H\u1ea3i Ph\u00f2ng","amenity":"school","operator":"FPT","from_area":true},"geometry":{"type":"Point","coordinates":[106.71596,20.82475]}},{"type":"Feature","properties":{"osm":"w1189075082","name":"Tr\u01b0\u1eddng Cao \u0111\u1eb3ng Kinh t\u1ebf H\u1ea3i Ph\u00f2ng (c\u01a1 s\u1edf 2)","amenity":"college","from_area":true},"geometry":{"type":"Point","coordinates":[106.62622,20.81739]}},{"type":"Feature","properties":{"osm":"w1189075092","name":"Tr\u01b0\u1eddng Cao \u0111\u1eb3ng K\u1ef9 thu\u1eadt H\u1ea3i Ph\u00f2ng (c\u01a1 s\u1edf 2)","amenity":"college","from_area":true},"geometry":{"type":"Point","coordinates":[106.64471,20.81611]}},{"type":"Feature","properties":{"osm":"w1189075093","name":"Tr\u01b0\u1eddng Cao \u0111\u1eb3ng K\u1ef9 thu\u1eadt H\u1ea3i Ph\u00f2ng (c\u01a1 s\u1edf 3)","amenity":"college","from_area":true},"geometry":{"type":"Point","coordinates":[106.62054,20.81255]}},{"type":"Feature","properties":{"osm":"w1192690400","name":"Tr\u01b0\u1eddng Trung h\u1ecdc c\u01a1 s\u1edf Ph\u00f9 Long","amenity":"school","from_area":true},"geometry":{"type":"Point","coordinates":[106.92683,20.80319]}},{"type":"Feature","properties":{"osm":"w1204797974","name":"Tr\u01b0\u1eddng Cao \u0111\u1eb3ng K\u1ef9 thu\u1eadt H\u1ea3i Ph\u00f2ng","amenity":"college","from_area":true},"geometry":{"type":"Point","coordinates":[106.61141,20.77856]}},{"type":"Feature","properties":{"osm":"w1219293673","name":"Tr\u01b0\u1eddng Cao \u0111\u1eb3ng Ngh\u1ec1 s\u1ed1 3","amenity":"college","from_area":true},"geometry":{"type":"Point","coordinates":[106.63786,20.8238]}},{"type":"Feature","properties":{"osm":"w1270284512","name":"Tr\u01b0\u1eddng Qu\u1ed1c t\u1ebf Singapore (SIS Haiphong)","amenity":"school","from_area":true},"geometry":{"type":"Point","coordinates":[106.68999,20.82275]}},{"type":"Feature","properties":{"osm":"w1270284527","name":"Shattuck St. Mary's International School Vietnam","amenity":"school","operator":"Shattuck-St. Mary's School USA","from_area":true},"geometry":{"type":"Point","coordinates":[106.69281,20.80836]}},{"type":"Feature","properties":{"osm":"w1270284528","name":"Tr\u01b0\u1eddng Qu\u1ed1c t\u1ebf QSI H\u1ea3i Ph\u00f2ng","amenity":"school","from_area":true},"geometry":{"type":"Point","coordinates":[106.69754,20.8115]}},{"type":"Feature","properties":{"osm":"w1270284529","name":"Tr\u01b0\u1eddng li\u00ean c\u1ea5p The Dewey Schools H\u1ea3i Ph\u00f2ng","amenity":"school","operator":"C\u00f4ng ty C\u1ed5 ph\u1ea7n Gi\u00e1o d\u1ee5c Edufit","from_area":true},"geometry":{"type":"Point","coordinates":[106.69931,20.81759]}},{"type":"Feature","properties":{"osm":"w1347604362","name":"Tr\u01b0\u1eddng Trung h\u1ecdc ph\u1ed5 th\u00f4ng L\u01b0\u01a1ng Th\u1ebf Vinh","amenity":"school","from_area":true},"geometry":{"type":"Point","coordinates":[106.67811,20.86403]}},{"type":"Feature","properties":{"osm":"w1437148669","amenity":"school","from_area":true},"geometry":{"type":"Point","coordinates":[106.61234,20.77678]}},{"type":"Feature","properties":{"osm":"w1437148688","amenity":"school","from_area":true},"geometry":{"type":"Point","coordinates":[106.67903,20.79596]}},{"type":"Feature","properties":{"osm":"r14484151","name":"Trung t\u00e2m Gi\u00e1o d\u1ee5c th\u01b0\u1eddng xuy\u00ean H\u1ea3i Ph\u00f2ng","amenity":"school","from_area":true},"geometry":{"type":"Point","coordinates":[106.67904,20.8545]}},{"type":"Feature","properties":{"osm":"r19780771","name":"Cung V\u0103n h\u00f3a Lao \u0111\u1ed9ng H\u1eefu ngh\u1ecb Vi\u1ec7t Ti\u1ec7p","amenity":"community_centre","building":"yes","from_area":true},"geometry":{"type":"Point","coordinates":[106.69195,20.84826]}}]}