{"type":"FeatureCollection","features":[{"type":"Feature","properties":{"osm":"w241065371","name":"Tr\u1ea1m bi\u1ebfn \u00e1p 220 KV \u0110\u00ecnh V\u0169","power":"substation","voltage":"220000;110000","substation":"transmission","from_area":true},"geometry":{"type":"Point","coordinates":[106.77614,20.82935]}},{"type":"Feature","properties":{"osm":"w241107118","power":"substation","operator":"Tram \u0111i\u1ec7n C\u00e1t Bi","building":"yes","from_area":true},"geometry":{"type":"Point","coordinates":[106.72478,20.83241]}},{"type":"Feature","properties":{"osm":"w241198546","name":"Tr\u1ea1m Bi\u1ebfn \u00c1p 110kV","power":"substation","voltage":"110000","from_area":true},"geometry":{"type":"Point","coordinates":[106.67767,20.83601]}},{"type":"Feature","properties":{"osm":"w241457644","name":"tr\u1ea1m bi\u1ebfn \u00e1p 110kv An L\u1ea1c","power":"substation","voltage":"110000","substation":"transmission","from_area":true},"geometry":{"type":"Point","coordinates":[106.64811,20.86951]}},{"type":"Feature","properties":{"osm":"w549889773","name":"Nh\u00e0 m\u00e1y nhi\u1ec7t \u0111i\u1ec7n H\u1ea3i Ph\u00f2ng","power":"substation","substation":"transmission","from_area":true},"geometry":{"type":"Point","coordinates":[106.75538,20.9432]}},{"type":"Feature","properties":{"osm":"w549914200","name":"Tr\u1ea1m bi\u1ebfn \u00e1p 220kV \u0110\u1ed3ng H\u00f2a","power":"substation","voltage":"220000;110000","substation":"transmission","from_area":true},"geometry":{"type":"Point","coordinates":[106.65653,20.83571]}},{"type":"Feature","properties":{"osm":"w604410950","power":"substation","voltage":"110000","substation":"transmission","from_area":true},"geometry":{"type":"Point","coordinates":[106.70627,20.91478]}},{"type":"Feature","properties":{"osm":"w654588620","power":"substation","from_area":true},"geometry":{"type":"Point","coordinates":[106.57041,20.86776]}},{"type":"Feature","properties":{"osm":"w654588647","power":"substation","voltage":"110000","from_area":true},"geometry":{"type":"Point","coordinates":[106.63123,20.90745]}},{"type":"Feature","properties":{"osm":"w654588648","power":"substation","voltage":"110000","from_area":true},"geometry":{"type":"Point","coordinates":[106.76445,20.8381]}},{"type":"Feature","properties":{"osm":"w1044571992","power":"substation","voltage":"110000","substation":"transmission","from_area":true},"geometry":{"type":"Point","coordinates":[106.56409,20.73445]}},{"type":"Feature","properties":{"osm":"w1045125717","power":"substation","voltage":"110000","from_area":true},"geometry":{"type":"Point","coordinates":[106.56532,20.85117]}},{"type":"Feature","properties":{"osm":"w1045125725","power":"substation","voltage":"110000","from_area":true},"geometry":{"type":"Point","coordinates":[106.56179,20.88192]}},{"type":"Feature","properties":{"osm":"w1045125727","power":"substation","from_area":true},"geometry":{"type":"Point","coordinates":[106.63798,20.93239]}},{"type":"Feature","properties":{"osm":"w1045125729","power":"substation","voltage":"110000","from_area":true},"geometry":{"type":"Point","coordinates":[106.61297,20.90329]}},{"type":"Feature","properties":{"osm":"w1045125739","name":"Tr\u1ea1m Bi\u1ebfn \u00e1p 220/110/22KV V\u1eadt C\u00e1ch","power":"substation","voltage":"220000;110000","substation":"transmission","from_area":true},"geometry":{"type":"Point","coordinates":[106.60565,20.91461]}},{"type":"Feature","properties":{"osm":"w1093821945","power":"substation","voltage":"110000","operator":"EVN","from_area":true},"geometry":{"type":"Point","coordinates":[106.80777,20.81374]}},{"type":"Feature","properties":{"osm":"w1256474450","name":"Tr\u1ea1m bi\u1ebfn \u00e1p Th\u00e1i Phi\u00ean","power":"substation","from_area":true},"geometry":{"type":"Point","coordinates":[106.70191,20.86013]}},{"type":"Feature","properties":{"osm":"w1265612894","power":"substation","voltage":"110000","from_area":true},"geometry":{"type":"Point","coordinates":[106.77014,20.72206]}},{"type":"Feature","properties":{"osm":"w1265612898","power":"substation","voltage":"110000","from_area":true},"geometry":{"type":"Point","coordinates":[106.76985,20.73203]}},{"type":"Feature","properties":{"osm":"w1265612902","power":"substation","voltage":"110000","from_area":true},"geometry":{"type":"Point","coordinates":[106.63935,20.79264]}},{"type":"Feature","properties":{"osm":"w1265612910","power":"substation","voltage":"110000","from_area":true},"geometry":{"type":"Point","coordinates":[106.65242,20.82113]}},{"type":"Feature","properties":{"osm":"w1265612913","power":"substation","voltage":"110000","substation":"industrial","from_area":true},"geometry":{"type":"Point","coordinates":[106.6123,20.89646]}},{"type":"Feature","properties":{"osm":"w1265612918","power":"substation","voltage":"110000","substation":"industrial","from_area":true},"geometry":{"type":"Point","coordinates":[106.61442,20.89316]}},{"type":"Feature","properties":{"osm":"w1265612937","power":"substation","voltage":"220000;110000","substation":"transmission","from_area":true},"geometry":{"type":"Point","coordinates":[106.66433,20.94525]}},{"type":"Feature","properties":{"osm":"w1265612978","power":"substation","voltage":"110000","substation":"transmission","from_area":true},"geometry":{"type":"Point","coordinates":[106.87585,20.80656]}},{"type":"Feature","properties":{"osm":"w1265612982","power":"substation","voltage":"110000","substation":"transmission","from_area":true},"geometry":{"type":"Point","coordinates":[106.87959,20.80039]}},{"type":"Feature","properties":{"osm":"w1348084470","power":"substation","from_area":true},"geometry":{"type":"Point","coordinates":[106.73527,20.94333]}},{"type":"Feature","properties":{"osm":"w1458074417","power":"substation","from_area":true},"geometry":{"type":"Point","coordinates":[106.54586,20.81719]}},{"type":"Feature","properties":{"osm":"w1458074418","power":"substation","from_area":true},"geometry":{"type":"Point","coordinates":[106.72375,20.83215]}},{"type":"Feature","properties":{"osm":"w1458087699","power":"substation","from_area":true},"geometry":{"type":"Point","coordinates":[106.69474,20.78229]}},{"type":"Feature","properties":{"osm":"w1458331310","power":"plant","from_area":true},"geometry":{"type":"Point","coordinates":[106.55605,20.86362]}},{"type":"Feature","properties":{"osm":"w1458337034","power":"plant","from_area":true},"geometry":{"type":"Point","coordinates":[106.60113,20.81414]}},{"type":"Feature","properties":{"osm":"w1458337035","power":"plant","from_area":true},"geometry":{"type":"Point","coordinates":[106.60146,20.81513]}},{"type":"Feature","properties":{"osm":"w1458337036","power":"plant","from_area":true},"geometry":{"type":"Point","coordinates":[106.56554,20.85204]}},{"type":"Feature","properties":{"osm":"w1461475950","power":"plant","from_area":true},"geometry":{"type":"Point","coordinates":[106.57251,20.86064]}},{"type":"Feature","properties":{"osm":"r16942144","name":"Nh\u00e0 m\u00e1y Nhi\u1ec7t \u0111i\u1ec7n H\u1ea3i Ph\u00f2ng","name:en":"Hai Phong Thermal Power Station","power":"plant","operator":"C\u00f4ng ty CP Nhi\u1ec7t \u0111i\u1ec7n H\u1ea3i Ph\u00f2ng","from_area":true},"geometry":{"type":"Point","coordinates":[106.75802,20.94045]}}]}