{"type":"FeatureCollection","features":[{"type":"Feature","properties":{"osm":"n1474046817","name":"Visakha Homeo Clinic","amenity":"hospital"},"geometry":{"type":"Point","coordinates":[83.3094,17.72246]}},{"type":"Feature","properties":{"osm":"n1474440233","name":"Nikitha Hospital","amenity":"hospital","healthcare":"hospital"},"geometry":{"type":"Point","coordinates":[83.31456,17.74268]}},{"type":"Feature","properties":{"osm":"n2332948921","name":"Padmaja Hospital - Seethammadhara","amenity":"hospital","emergency":"yes"},"geometry":{"type":"Point","coordinates":[83.31461,17.74363]}},{"type":"Feature","properties":{"osm":"n3265317980","name":"Jyothi Nursing Home","amenity":"hospital","healthcare":"hospital"},"geometry":{"type":"Point","coordinates":[83.32296,17.73908]}},{"type":"Feature","properties":{"osm":"n4050190093","amenity":"clinic"},"geometry":{"type":"Point","coordinates":[83.33359,17.72514]}},{"type":"Feature","properties":{"osm":"n4267548789","name":"Durga Nursing Home","amenity":"hospital"},"geometry":{"type":"Point","coordinates":[83.27133,17.73623]}},{"type":"Feature","properties":{"osm":"n4300545253","name":"Vasu Deva Rao Clinic","amenity":"clinic"},"geometry":{"type":"Point","coordinates":[83.334,17.72493]}},{"type":"Feature","properties":{"osm":"n4541095944","name":"Rama Hospitals","amenity":"hospital"},"geometry":{"type":"Point","coordinates":[83.30712,17.73753]}},{"type":"Feature","properties":{"osm":"n4568276771","name":"kalavathi hospital","amenity":"hospital","healthcare":"hospital"},"geometry":{"type":"Point","coordinates":[83.27067,17.78244]}},{"type":"Feature","properties":{"osm":"n4568465189","name":"LV Prasad Eye Hospital","amenity":"hospital"},"geometry":{"type":"Point","coordinates":[83.33091,17.75686]}},{"type":"Feature","properties":{"osm":"n4635870145","name":"KIMS (formerly Queens NRI Hospital)","amenity":"hospital","healthcare":"hospital","emergency":"yes","operator":"Chalsani Group"},"geometry":{"type":"Point","coordinates":[83.30805,17.74044]}},{"type":"Feature","properties":{"osm":"n4799206480","name":"Sri Venkateshwara Nursing Hospital","amenity":"hospital","healthcare":"hospital"},"geometry":{"type":"Point","coordinates":[83.30741,17.71478]}},{"type":"Feature","properties":{"osm":"n4801326526","name":"Amulya Hospitals","amenity":"hospital","healthcare":"hospital"},"geometry":{"type":"Point","coordinates":[83.3087,17.71547]}},{"type":"Feature","properties":{"osm":"n4896583363","name":"Kala Hospital","amenity":"hospital"},"geometry":{"type":"Point","coordinates":[83.30568,17.72885]}},{"type":"Feature","properties":{"osm":"n5080788437","amenity":"hospital"},"geometry":{"type":"Point","coordinates":[83.23813,17.68982]}},{"type":"Feature","properties":{"osm":"n5080788438","amenity":"hospital"},"geometry":{"type":"Point","coordinates":[83.23811,17.68949]}},{"type":"Feature","properties":{"osm":"n5080788439","amenity":"hospital"},"geometry":{"type":"Point","coordinates":[83.23771,17.68954]}},{"type":"Feature","properties":{"osm":"n5080788440","amenity":"hospital"},"geometry":{"type":"Point","coordinates":[83.23698,17.6895]}},{"type":"Feature","properties":{"osm":"n5080788441","amenity":"hospital"},"geometry":{"type":"Point","coordinates":[83.23634,17.68902]}},{"type":"Feature","properties":{"osm":"n5080788450","amenity":"hospital"},"geometry":{"type":"Point","coordinates":[83.23641,17.68963]}},{"type":"Feature","properties":{"osm":"n5798458939","name":"Dr. VJs Cosmetic Surgery& Hair Transplantation Centre","amenity":"hospital","healthcare":"hospital"},"geometry":{"type":"Point","coordinates":[83.29848,17.7236]}},{"type":"Feature","properties":{"osm":"n6478169129","name":"Smiles Dental","amenity":"clinic"},"geometry":{"type":"Point","coordinates":[83.30269,17.72617]}},{"type":"Feature","properties":{"osm":"n6628808944","name":"St. Joseph's Hospital","amenity":"hospital","healthcare":"hospital"},"geometry":{"type":"Point","coordinates":[83.31206,17.71134]}},{"type":"Feature","properties":{"osm":"n6628820476","name":"shantiniketan mental health centre","amenity":"hospital","healthcare":"hospital"},"geometry":{"type":"Point","coordinates":[83.31184,17.71089]}},{"type":"Feature","properties":{"osm":"n6628861067","name":"Mycure hospital","amenity":"hospital","healthcare":"hospital"},"geometry":{"type":"Point","coordinates":[83.3147,17.71202]}},{"type":"Feature","properties":{"osm":"n6628946789","name":"Surya skin care","amenity":"hospital","healthcare":"hospital"},"geometry":{"type":"Point","coordinates":[83.31433,17.71412]}},{"type":"Feature","properties":{"osm":"n6629033364","name":"Krishna Hospital","amenity":"hospital","healthcare":"hospital"},"geometry":{"type":"Point","coordinates":[83.31096,17.71008]}},{"type":"Feature","properties":{"osm":"n6629035082","name":"Aaradhya fertility centre","amenity":"hospital","healthcare":"hospital"},"geometry":{"type":"Point","coordinates":[83.31287,17.71492]}},{"type":"Feature","properties":{"osm":"n6629036947","name":"Sagar Durga Hospital","amenity":"hospital","healthcare":"hospital"},"geometry":{"type":"Point","coordinates":[83.31097,17.70867]}},{"type":"Feature","properties":{"osm":"n6629071967","name":"Shri Venkataramana Hospital","amenity":"hospital","healthcare":"hospital"},"geometry":{"type":"Point","coordinates":[83.31114,17.70904]}},{"type":"Feature","properties":{"osm":"n6629428979","name":"ABC hospital","amenity":"hospital"},"geometry":{"type":"Point","coordinates":[83.30902,17.70707]}},{"type":"Feature","properties":{"osm":"n6629457613","name":"Apex hospital","amenity":"hospital","healthcare":"hospital"},"geometry":{"type":"Point","coordinates":[83.30897,17.70756]}},{"type":"Feature","properties":{"osm":"n6629460182","name":"Usa hospital","amenity":"hospital"},"geometry":{"type":"Point","coordinates":[83.30879,17.70786]}},{"type":"Feature","properties":{"osm":"n6635493113","name":"Simhadri Hospital","amenity":"hospital","healthcare":"hospital","emergency":"yes"},"geometry":{"type":"Point","coordinates":[83.31049,17.70823]}},{"type":"Feature","properties":{"osm":"n6635506599","name":"Apollow pharmacy","amenity":"hospital","emergency":"yes"},"geometry":{"type":"Point","coordinates":[83.30991,17.7082]}},{"type":"Feature","properties":{"osm":"n6635515144","name":"Nature cure hospital","amenity":"hospital","emergency":"yes"},"geometry":{"type":"Point","coordinates":[83.31114,17.70764]}},{"type":"Feature","properties":{"osm":"n6635545548","name":"Life  medical centre","amenity":"hospital","healthcare":"hospital","emergency":"yes"},"geometry":{"type":"Point","coordinates":[83.3082,17.70761]}},{"type":"Feature","properties":{"osm":"n6635549621","name":"Doctors care medical centre","amenity":"hospital","healthcare":"hospital","emergency":"yes"},"geometry":{"type":"Point","coordinates":[83.30938,17.70791]}},{"type":"Feature","properties":{"osm":"n6635561459","name":"Sriddha hospital","amenity":"hospital","emergency":"yes"},"geometry":{"type":"Point","coordinates":[83.30941,17.70812]}},{"type":"Feature","properties":{"osm":"n6711948950","name":"Pinnacle","amenity":"hospital","healthcare":"hospital"},"geometry":{"type":"Point","coordinates":[83.30824,17.7637]}},{"type":"Feature","properties":{"osm":"n6711993032","name":"Q1 Hospitals","amenity":"hospital","healthcare":"hospital"},"geometry":{"type":"Point","coordinates":[83.30787,17.76242]}},{"type":"Feature","properties":{"osm":"n6712009588","name":"GIMS","amenity":"hospital"},"geometry":{"type":"Point","coordinates":[83.31165,17.76208]}},{"type":"Feature","properties":{"osm":"n6755526826","name":"Apex Hospital","amenity":"hospital"},"geometry":{"type":"Point","coordinates":[83.30902,17.70677]}},{"type":"Feature","properties":{"osm":"n6758443699","name":"Dj Clinic","amenity":"hospital"},"geometry":{"type":"Point","coordinates":[83.33546,17.74403]}},{"type":"Feature","properties":{"osm":"n6758665270","name":"Vision Care Centre (Super Speciality Eye Hospital)","amenity":"hospital"},"geometry":{"type":"Point","coordinates":[83.29549,17.72771]}},{"type":"Feature","properties":{"osm":"n6758677177","name":"Apoorva Hospital","amenity":"hospital"},"geometry":{"type":"Point","coordinates":[83.30757,17.73006]}},{"type":"Feature","properties":{"osm":"n6758686628","name":"Anapoorna Hospital","amenity":"hospital"},"geometry":{"type":"Point","coordinates":[83.30479,17.72734]}},{"type":"Feature","properties":{"osm":"n6758705097","name":"Maxivision Super Speciality Eye Hospitals","amenity":"hospital"},"geometry":{"type":"Point","coordinates":[83.30458,17.72692]}},{"type":"Feature","properties":{"osm":"n6758710664","name":"Care Dental Hospital","amenity":"hospital"},"geometry":{"type":"Point","coordinates":[83.30725,17.73634]}},{"type":"Feature","properties":{"osm":"n6758717165","name":"M.G.R. Hospital","amenity":"hospital"},"geometry":{"type":"Point","coordinates":[83.33098,17.73254]}},{"type":"Feature","properties":{"osm":"n6758735188","name":"Rhea Hospital","amenity":"hospital","healthcare":"hospital"},"geometry":{"type":"Point","coordinates":[83.30418,17.70924]}},{"type":"Feature","properties":{"osm":"n6758743207","name":"Adarsha Orthopaedic Center","amenity":"hospital","healthcare":"hospital"},"geometry":{"type":"Point","coordinates":[83.31179,17.71094]}},{"type":"Feature","properties":{"osm":"n6758772439","name":"Prabha Clinic and Nursing Home","amenity":"hospital"},"geometry":{"type":"Point","coordinates":[83.3041,17.71629]}},{"type":"Feature","properties":{"osm":"n6758784627","name":"Mythri Nursing Home","amenity":"hospital"},"geometry":{"type":"Point","coordinates":[83.30891,17.70713]}},{"type":"Feature","properties":{"osm":"n6758813629","name":"Gowtami Hospital","amenity":"hospital"},"geometry":{"type":"Point","coordinates":[83.2064,17.68255]}},{"type":"Feature","properties":{"osm":"n6761009918","name":"Satyam Hospital","amenity":"hospital","healthcare":"hospital"},"geometry":{"type":"Point","coordinates":[83.2187,17.74999]}},{"type":"Feature","properties":{"osm":"n6761017583","name":"Venkatarama Hospital","amenity":"hospital"},"geometry":{"type":"Point","coordinates":[83.30314,17.72783]}},{"type":"Feature","properties":{"osm":"n6761020424","name":"SR Hospital","amenity":"hospital"},"geometry":{"type":"Point","coordinates":[83.21734,17.75297]}},{"type":"Feature","properties":{"osm":"n6761040532","name":"Good Health New Central Hospital","amenity":"hospital"},"geometry":{"type":"Point","coordinates":[83.30554,17.73796]}},{"type":"Feature","properties":{"osm":"n6761060209","name":"Dr Rama Rao Hospital","amenity":"hospital"},"geometry":{"type":"Point","coordinates":[83.27902,17.73322]}},{"type":"Feature","properties":{"osm":"n6761079196","name":"Vijetha Hospital","amenity":"hospital","healthcare":"hospital"},"geometry":{"type":"Point","coordinates":[83.30303,17.71062]}},{"type":"Feature","properties":{"osm":"n6768028772","name":"Sun Multi Speciality Hospital","amenity":"hospital"},"geometry":{"type":"Point","coordinates":[83.27759,17.73508]}},{"type":"Feature","properties":{"osm":"n6768332127","name":"Abc Hospital","amenity":"hospital"},"geometry":{"type":"Point","coordinates":[83.30927,17.70617]}},{"type":"Feature","properties":{"osm":"n6768383856","name":"Suma Maternity Home","amenity":"hospital"},"geometry":{"type":"Point","coordinates":[83.26428,17.74636]}},{"type":"Feature","properties":{"osm":"n6768386211","name":"Lion Dist 324 C, Cancer Treatment and Research Center","amenity":"hospital"},"geometry":{"type":"Point","coordinates":[83.30837,17.7444]}},{"type":"Feature","properties":{"osm":"n6768387728","name":"Amg Hospital","amenity":"hospital"},"geometry":{"type":"Point","coordinates":[83.31463,17.73821]}},{"type":"Feature","properties":{"osm":"n6768451188","name":"Indus Hospitals","amenity":"hospital","healthcare":"hospital"},"geometry":{"type":"Point","coordinates":[83.30262,17.71086]}},{"type":"Feature","properties":{"osm":"n6768577352","name":"Visakha Ent Hospital","amenity":"hospital"},"geometry":{"type":"Point","coordinates":[83.31075,17.72641]}},{"type":"Feature","properties":{"osm":"n6768715568","name":"Susruta Hospital","amenity":"hospital"},"geometry":{"type":"Point","coordinates":[83.20811,17.68532]}},{"type":"Feature","properties":{"osm":"n6768741999","name":"R K Hospital","amenity":"hospital"},"geometry":{"type":"Point","coordinates":[83.19708,17.68245]}},{"type":"Feature","properties":{"osm":"n6768783710","name":"Padmasri Hospital","amenity":"hospital"},"geometry":{"type":"Point","coordinates":[83.30368,17.73824]}},{"type":"Feature","properties":{"osm":"n6770856512","name":"Raghavendra Hospital","amenity":"hospital"},"geometry":{"type":"Point","coordinates":[83.30411,17.73996]}},{"type":"Feature","properties":{"osm":"n6770857209","name":"Sujatha Hospital","amenity":"hospital"},"geometry":{"type":"Point","coordinates":[83.19859,17.68405]}},{"type":"Feature","properties":{"osm":"n6770861724","name":"Centre For Sight","amenity":"hospital"},"geometry":{"type":"Point","coordinates":[83.3044,17.7365]}},{"type":"Feature","properties":{"osm":"n6773497407","name":"Krishna Maternity And Nursing Home","amenity":"hospital"},"geometry":{"type":"Point","coordinates":[83.29382,17.72881]}},{"type":"Feature","properties":{"osm":"n6773519885","name":"Amrutha Nursing Home Private Limited","amenity":"hospital","healthcare":"hospital"},"geometry":{"type":"Point","coordinates":[83.29609,17.69981]}},{"type":"Feature","properties":{"osm":"n6773613228","name":"Padmaja Hospital - Gajuwaka","amenity":"hospital"},"geometry":{"type":"Point","coordinates":[83.20362,17.68677]}},{"type":"Feature","properties":{"osm":"n6773652312","name":"Care Hospital - Maharanipet","amenity":"hospital","healthcare":"hospital"},"geometry":{"type":"Point","coordinates":[83.30545,17.70975]}},{"type":"Feature","properties":{"osm":"n6778457455","name":"Samudra Hospitals","amenity":"hospital","healthcare":"hospital"},"geometry":{"type":"Point","coordinates":[83.30375,17.7104]}},{"type":"Feature","properties":{"osm":"n6778878343","name":"Sunita Nursing Home","amenity":"hospital"},"geometry":{"type":"Point","coordinates":[83.31155,17.73628]}},{"type":"Feature","properties":{"osm":"n6778891203","name":"Waltair Multicare Hospital","amenity":"hospital"},"geometry":{"type":"Point","coordinates":[83.33363,17.73201]}},{"type":"Feature","properties":{"osm":"n6778921290","name":"Siddharth Hospital","amenity":"hospital","healthcare":"hospital"},"geometry":{"type":"Point","coordinates":[83.3039,17.71185]}},{"type":"Feature","properties":{"osm":"n6782119569","name":"Visakha Children Hospital","amenity":"hospital","healthcare":"hospital"},"geometry":{"type":"Point","coordinates":[83.31253,17.71084]}},{"type":"Feature","properties":{"osm":"n6787301791","name":"Sraddha Hospital","amenity":"hospital"},"geometry":{"type":"Point","coordinates":[83.30867,17.70836]}},{"type":"Feature","properties":{"osm":"n6787401750","name":"Tirumala Vijaya Hospital","amenity":"hospital"},"geometry":{"type":"Point","coordinates":[83.33529,17.74401]}},{"type":"Feature","properties":{"osm":"n6789523012","name":"Aarif Nursing Home","amenity":"hospital"},"geometry":{"type":"Point","coordinates":[83.30982,17.72243]}},{"type":"Feature","properties":{"osm":"n6789535761","name":"Vijaya Medical Centre","amenity":"hospital"},"geometry":{"type":"Point","coordinates":[83.31075,17.7099]}},{"type":"Feature","properties":{"osm":"n6789549353","name":"OMNI RK Super Specialty Hospital","amenity":"hospital"},"geometry":{"type":"Point","coordinates":[83.31162,17.71863]}},{"type":"Feature","properties":{"osm":"n6789680553","name":"Vasan Eye Care Hospital","amenity":"hospital"},"geometry":{"type":"Point","coordinates":[83.30873,17.71683]}},{"type":"Feature","properties":{"osm":"n6789720253","name":"Lazarus Hospital","amenity":"hospital","healthcare":"hospital"},"geometry":{"type":"Point","coordinates":[83.3083,17.71715]}},{"type":"Feature","properties":{"osm":"n6789830343","name":"Sai Satya Hospital","amenity":"hospital"},"geometry":{"type":"Point","coordinates":[83.31472,17.76851]}},{"type":"Feature","properties":{"osm":"n6791809450","name":"Bharathi Hospital","amenity":"hospital"},"geometry":{"type":"Point","coordinates":[83.30854,17.71085]}},{"type":"Feature","properties":{"osm":"n6791968309","name":"Lawrance and Mayo Hospital","amenity":"hospital","healthcare":"hospital"},"geometry":{"type":"Point","coordinates":[83.30268,17.71244]}},{"type":"Feature","properties":{"osm":"n6794593273","name":"Prema Hospital","amenity":"hospital","healthcare":"hospital"},"geometry":{"type":"Point","coordinates":[83.37409,17.87967]}},{"type":"Feature","properties":{"osm":"n6798143867","name":"City Care Hospital","amenity":"hospital"},"geometry":{"type":"Point","coordinates":[83.30905,17.70661]}},{"type":"Feature","properties":{"osm":"n6801191501","name":"Kamala Nursing Home","amenity":"hospital","healthcare":"hospital"},"geometry":{"type":"Point","coordinates":[83.25097,17.74043]}},{"type":"Feature","properties":{"osm":"n6804727620","name":"Kalavathi Surgical Hospital and Laparoscopic Centre","amenity":"hospital"},"geometry":{"type":"Point","coordinates":[83.29905,17.72653]}},{"type":"Feature","properties":{"osm":"n6804768866","name":"Subham Prema Hospital","amenity":"hospital","healthcare":"hospital"},"geometry":{"type":"Point","coordinates":[83.31236,17.72812]}},{"type":"Feature","properties":{"osm":"n6804932700","name":"Care Hospitals","amenity":"hospital"},"geometry":{"type":"Point","coordinates":[83.31273,17.72037]}},{"type":"Feature","properties":{"osm":"n6843473422","name":"MyCure Hospital","amenity":"hospital","healthcare":"hospital"},"geometry":{"type":"Point","coordinates":[83.30237,17.71092]}},{"type":"Feature","properties":{"osm":"n6868865811","amenity":"hospital","healthcare":"hospital"},"geometry":{"type":"Point","coordinates":[83.20649,17.82311]}},{"type":"Feature","properties":{"osm":"n7114008055","name":"GVMC hospital,FRU Arilova","amenity":"hospital"},"geometry":{"type":"Point","coordinates":[83.31723,17.76866]}},{"type":"Feature","properties":{"osm":"n7229614385","name":"Cghs wellness centre","amenity":"clinic"},"geometry":{"type":"Point","coordinates":[83.33234,17.7285]}},{"type":"Feature","properties":{"osm":"n7786891157","name":"Ashwini Health Centre","amenity":"clinic","healthcare":"clinic"},"geometry":{"type":"Point","coordinates":[83.18452,17.89591]}},{"type":"Feature","properties":{"osm":"n7786891170","name":"Physiotherapy Clinic","amenity":"clinic","healthcare":"clinic"},"geometry":{"type":"Point","coordinates":[83.18752,17.89931]}},{"type":"Feature","properties":{"osm":"n7786891185","name":"Sri Venkata Sai Multi Specialty Hospital","amenity":"hospital"},"geometry":{"type":"Point","coordinates":[83.18633,17.89519]}},{"type":"Feature","properties":{"osm":"n7786891201","name":"Niharika Hospital","amenity":"hospital"},"geometry":{"type":"Point","coordinates":[83.18564,17.89993]}},{"type":"Feature","properties":{"osm":"n7786891223","name":"Dr. B Ramarao Hospital","amenity":"hospital"},"geometry":{"type":"Point","coordinates":[83.18625,17.89763]}},{"type":"Feature","properties":{"osm":"n7787057180","name":"Bethany Christian Hospital","amenity":"hospital"},"geometry":{"type":"Point","coordinates":[83.34757,17.80279]}},{"type":"Feature","properties":{"osm":"n7787057181","name":"Dr. Adams Hospital","amenity":"hospital"},"geometry":{"type":"Point","coordinates":[83.35082,17.79984]}},{"type":"Feature","properties":{"osm":"n7787057182","name":"Medinar Polyclinics","amenity":"clinic"},"geometry":{"type":"Point","coordinates":[83.29338,17.72672]}},{"type":"Feature","properties":{"osm":"n7787057183","name":"Jishnu Clinic","amenity":"clinic"},"geometry":{"type":"Point","coordinates":[83.40584,17.83864]}},{"type":"Feature","properties":{"osm":"n7787057184","name":"Master Homeo Vaidyalayam","amenity":"hospital"},"geometry":{"type":"Point","coordinates":[83.29843,17.73418]}},{"type":"Feature","properties":{"osm":"n7787057185","name":"Dr. Hedgewar School Hospital","amenity":"hospital"},"geometry":{"type":"Point","coordinates":[83.32518,17.88302]}},{"type":"Feature","properties":{"osm":"n7787057186","name":"Gayatri Health Care","amenity":"clinic"},"geometry":{"type":"Point","coordinates":[83.33621,17.74529]}},{"type":"Feature","properties":{"osm":"n7787057187","name":"Usha Clinic","amenity":"clinic"},"geometry":{"type":"Point","coordinates":[83.35619,17.81129]}},{"type":"Feature","properties":{"osm":"n7787057188","name":"Ramakrishna ENT Hospital","amenity":"hospital"},"geometry":{"type":"Point","coordinates":[83.35577,17.81182]}},{"type":"Feature","properties":{"osm":"n7787057190","name":"Piles Clinic","amenity":"clinic"},"geometry":{"type":"Point","coordinates":[83.36009,17.81996]}},{"type":"Feature","properties":{"osm":"n7787057191","name":"Day & Night Hospital","amenity":"hospital"},"geometry":{"type":"Point","coordinates":[83.31074,17.72896]}},{"type":"Feature","properties":{"osm":"n7787057196","name":"Sanjivi Hospital","amenity":"hospital"},"geometry":{"type":"Point","coordinates":[83.32868,17.74393]}},{"type":"Feature","properties":{"osm":"n7787057197","name":"Bhagavathi Clinic","amenity":"clinic","healthcare":"clinic"},"geometry":{"type":"Point","coordinates":[83.30423,17.7434]}},{"type":"Feature","properties":{"osm":"n7787057198","name":"Sri Venkateswara Clinic","amenity":"clinic"},"geometry":{"type":"Point","coordinates":[83.41232,17.83382]}},{"type":"Feature","properties":{"osm":"n7787057199","name":"Government Hospital","amenity":"hospital"},"geometry":{"type":"Point","coordinates":[83.29686,17.73549]}},{"type":"Feature","properties":{"osm":"n7787057200","name":"Kundan Family Clinic","amenity":"clinic"},"geometry":{"type":"Point","coordinates":[83.35794,17.78356]}},{"type":"Feature","properties":{"osm":"n7787057201","name":"Sai Spoorthy Hospital","amenity":"hospital"},"geometry":{"type":"Point","coordinates":[83.30438,17.72747]}},{"type":"Feature","properties":{"osm":"n7787057202","name":"Amma Hospital","amenity":"hospital"},"geometry":{"type":"Point","coordinates":[83.33075,17.74686]}},{"type":"Feature","properties":{"osm":"n7787057203","name":"Sandhya Eye Hospitals","amenity":"hospital"},"geometry":{"type":"Point","coordinates":[83.31693,17.73225]}},{"type":"Feature","properties":{"osm":"n7787057206","name":"Cure Speciality Clinics","amenity":"clinic"},"geometry":{"type":"Point","coordinates":[83.35355,17.8025]}},{"type":"Feature","properties":{"osm":"n7787057207","name":"Sri Krishna Hospital And Mrudula Kidney Centre","amenity":"hospital","healthcare":"hospital"},"geometry":{"type":"Point","coordinates":[83.33811,17.73987]}},{"type":"Feature","properties":{"osm":"n7787057208","name":"Ramkumar Hospital","amenity":"hospital"},"geometry":{"type":"Point","coordinates":[83.29893,17.73474]}},{"type":"Feature","properties":{"osm":"n7787057209","name":"Reddy Hospital","amenity":"hospital"},"geometry":{"type":"Point","coordinates":[83.30994,17.72955]}},{"type":"Feature","properties":{"osm":"n7787057210","name":"Kalavathy Maternity Hospital","amenity":"hospital"},"geometry":{"type":"Point","coordinates":[83.29127,17.73014]}},{"type":"Feature","properties":{"osm":"n7787057211","name":"S.V Hospital","amenity":"hospital"},"geometry":{"type":"Point","coordinates":[83.29821,17.73153]}},{"type":"Feature","properties":{"osm":"n7787057212","name":"Naidu Hospital","amenity":"hospital"},"geometry":{"type":"Point","coordinates":[83.44803,17.89484]}},{"type":"Feature","properties":{"osm":"n7787057213","name":"Sri Sai Pallavi First Aid Centre and Clinic","amenity":"clinic"},"geometry":{"type":"Point","coordinates":[83.44613,17.89525]}},{"type":"Feature","properties":{"osm":"n7787057214","name":"Lakshmi Gayathri Hospital","amenity":"hospital"},"geometry":{"type":"Point","coordinates":[83.2989,17.73609]}},{"type":"Feature","properties":{"osm":"n7787057215","name":"Dr. Ravi Child Clinic","amenity":"clinic","healthcare":"clinic"},"geometry":{"type":"Point","coordinates":[83.31367,17.73801]}},{"type":"Feature","properties":{"osm":"n7787057217","name":"Saroja Hospital","amenity":"hospital"},"geometry":{"type":"Point","coordinates":[83.30069,17.73348]}},{"type":"Feature","properties":{"osm":"n7787057218","name":"Surya Hospital","amenity":"hospital"},"geometry":{"type":"Point","coordinates":[83.33973,17.80599]}},{"type":"Feature","properties":{"osm":"n7787057219","name":"Aman Clinic","amenity":"clinic"},"geometry":{"type":"Point","coordinates":[83.36217,17.82137]}},{"type":"Feature","properties":{"osm":"n7787057220","name":"A1 Hospital","amenity":"hospital"},"geometry":{"type":"Point","coordinates":[83.29943,17.73942]}},{"type":"Feature","properties":{"osm":"n7787057221","name":"Mukhyamantri Arogya Kendram","amenity":"clinic"},"geometry":{"type":"Point","coordinates":[83.32067,17.74377]}},{"type":"Feature","properties":{"osm":"n7787057222","name":"Mukyamantri Arogya Kendram","amenity":"hospital"},"geometry":{"type":"Point","coordinates":[83.44513,17.89523]}},{"type":"Feature","properties":{"osm":"n7787057223","name":"CARE Hospitals","amenity":"hospital"},"geometry":{"type":"Point","coordinates":[83.2941,17.72757]}},{"type":"Feature","properties":{"osm":"n7787057225","name":"Medi Cos Den Hospital","amenity":"hospital"},"geometry":{"type":"Point","coordinates":[83.35911,17.76364]}},{"type":"Feature","properties":{"osm":"n7787057226","name":"Sri Surya Hospital","amenity":"hospital","healthcare":"hospital"},"geometry":{"type":"Point","coordinates":[83.34034,17.74278]}},{"type":"Feature","properties":{"osm":"n7787057227","name":"Aruna ENT Clinic","amenity":"clinic"},"geometry":{"type":"Point","coordinates":[83.30023,17.73716]}},{"type":"Feature","properties":{"osm":"n7787057228","name":"Sri Krishna Hospital","amenity":"hospital"},"geometry":{"type":"Point","coordinates":[83.30036,17.73466]}},{"type":"Feature","properties":{"osm":"n7787057230","name":"Sri Sai Sanjeevani Clinic","amenity":"clinic"},"geometry":{"type":"Point","coordinates":[83.35779,17.77924]}},{"type":"Feature","properties":{"osm":"n7787057231","name":"Sri Sai Piles Clinic","amenity":"clinic"},"geometry":{"type":"Point","coordinates":[83.36653,17.86954]}},{"type":"Feature","properties":{"osm":"n7787057232","name":"Ujhwal Hospitals","amenity":"hospital"},"geometry":{"type":"Point","coordinates":[83.35559,17.81312]}},{"type":"Feature","properties":{"osm":"n7787057234","name":"Dr. Kamalamma Hospital","amenity":"hospital"},"geometry":{"type":"Point","coordinates":[83.29368,17.72895]}},{"type":"Feature","properties":{"osm":"n7787057235","name":"National Orthopaedic Centre","amenity":"hospital"},"geometry":{"type":"Point","coordinates":[83.31167,17.7364]}},{"type":"Feature","properties":{"osm":"n7787057236","name":"Raphah Hospital","amenity":"clinic"},"geometry":{"type":"Point","coordinates":[83.31229,17.73553]}},{"type":"Feature","properties":{"osm":"n7787057239","name":"Sri Sai Clinic","amenity":"clinic"},"geometry":{"type":"Point","coordinates":[83.40344,17.83978]}},{"type":"Feature","properties":{"osm":"n7787057240","name":"Vivekanandha Hospital","amenity":"hospital"},"geometry":{"type":"Point","coordinates":[83.29825,17.73182]}},{"type":"Feature","properties":{"osm":"n7787057241","name":"Government ENT Hospital","amenity":"hospital"},"geometry":{"type":"Point","coordinates":[83.3142,17.74586]}},{"type":"Feature","properties":{"osm":"n7787057242","name":"Padmavathi Hospital","amenity":"hospital"},"geometry":{"type":"Point","coordinates":[83.30759,17.74147]}},{"type":"Feature","properties":{"osm":"n7787057245","name":"GITAM Hospital","amenity":"hospital"},"geometry":{"type":"Point","coordinates":[83.37466,17.78468]}},{"type":"Feature","properties":{"osm":"n7787057246","name":"Shanthi Maternity and Infertility Clinic","amenity":"clinic"},"geometry":{"type":"Point","coordinates":[83.33164,17.74591]}},{"type":"Feature","properties":{"osm":"n7787057247","name":"Sri Chandra Ortho Care","amenity":"clinic","healthcare":"clinic"},"geometry":{"type":"Point","coordinates":[83.29502,17.73951]}},{"type":"Feature","properties":{"osm":"n7787057248","name":"Smar City Clinic","amenity":"clinic"},"geometry":{"type":"Point","coordinates":[83.30115,17.73259]}},{"type":"Feature","properties":{"osm":"n7787057249","name":"Krishnaveni Hospital","amenity":"hospital"},"geometry":{"type":"Point","coordinates":[83.29475,17.73016]}},{"type":"Feature","properties":{"osm":"n7787057250","name":"Visakha Multispeciality Clinics","amenity":"clinic"},"geometry":{"type":"Point","coordinates":[83.36493,17.81477]}},{"type":"Feature","properties":{"osm":"n7787057253","name":"Lb Prasad Medical","amenity":"clinic"},"geometry":{"type":"Point","coordinates":[83.29412,17.72983]}},{"type":"Feature","properties":{"osm":"n7787057255","name":"Guru Ayurcare","amenity":"clinic"},"geometry":{"type":"Point","coordinates":[83.35466,17.80989]}},{"type":"Feature","properties":{"osm":"n7787057256","name":"Morpheus Padmasri International IVF Centre","amenity":"hospital"},"geometry":{"type":"Point","coordinates":[83.30347,17.73802]}},{"type":"Feature","properties":{"osm":"n7787057257","name":"Amrutha Clinic & Lab","amenity":"clinic"},"geometry":{"type":"Point","coordinates":[83.36446,17.81182]}},{"type":"Feature","properties":{"osm":"n7787057259","name":"GK's Rainbow Dental Superspeciality Hospital","amenity":"hospital"},"geometry":{"type":"Point","coordinates":[83.35353,17.80245]}},{"type":"Feature","properties":{"osm":"n7787057260","name":"Krishna Children Hospital","amenity":"hospital"},"geometry":{"type":"Point","coordinates":[83.29363,17.72891]}},{"type":"Feature","properties":{"osm":"n7787057261","name":"Master Homoeo Home","amenity":"hospital"},"geometry":{"type":"Point","coordinates":[83.30774,17.72743]}},{"type":"Feature","properties":{"osm":"n7787057262","name":"Sri Sai Ram Hospital","amenity":"hospital"},"geometry":{"type":"Point","coordinates":[83.29189,17.73224]}},{"type":"Feature","properties":{"osm":"n7787057264","name":"Dr. P.P.Srinivas Murthy Clinic","amenity":"clinic","healthcare":"clinic"},"geometry":{"type":"Point","coordinates":[83.29889,17.74158]}},{"type":"Feature","properties":{"osm":"n7787057267","name":"Visakha Clinic","amenity":"clinic"},"geometry":{"type":"Point","coordinates":[83.35748,17.81535]}},{"type":"Feature","properties":{"osm":"n7787057268","name":"Soham ENT Hospital","amenity":"hospital","healthcare":"hospital"},"geometry":{"type":"Point","coordinates":[83.29766,17.74424]}},{"type":"Feature","properties":{"osm":"n7787057270","name":"Keerthana Nursing Home","amenity":"hospital"},"geometry":{"type":"Point","coordinates":[83.34671,17.80404]}},{"type":"Feature","properties":{"osm":"n7787057272","name":"Sri Gayatri Nursing Home & Kasturi Maternity Hospital","amenity":"hospital"},"geometry":{"type":"Point","coordinates":[83.33315,17.72446]}},{"type":"Feature","properties":{"osm":"n7787647583","name":"Kanakadurga Hospital","amenity":"hospital","healthcare":"hospital"},"geometry":{"type":"Point","coordinates":[83.31294,17.71011]}},{"type":"Feature","properties":{"osm":"n7787647584","name":"Sunrise Hospitals","amenity":"hospital"},"geometry":{"type":"Point","coordinates":[83.2663,17.7409]}},{"type":"Feature","properties":{"osm":"n7787647585","name":"Sunrise Childern Hospital","amenity":"hospital"},"geometry":{"type":"Point","coordinates":[83.20539,17.6879]}},{"type":"Feature","properties":{"osm":"n7787647586","name":"Sri Krishna Orthopaedic Hospital","amenity":"hospital"},"geometry":{"type":"Point","coordinates":[83.19385,17.68431]}},{"type":"Feature","properties":{"osm":"n7787647587","name":"Sandhya Sree Nursing Home","amenity":"clinic"},"geometry":{"type":"Point","coordinates":[83.20147,17.68303]}},{"type":"Feature","properties":{"osm":"n7787647588","name":"A N Beach Hospital - Multi Speciality Hospital","amenity":"hospital","healthcare":"hospital"},"geometry":{"type":"Point","coordinates":[83.31976,17.71292]}},{"type":"Feature","properties":{"osm":"n7787647590","name":"Lakshmi Nursing Home","amenity":"clinic"},"geometry":{"type":"Point","coordinates":[83.21289,17.68684]}},{"type":"Feature","properties":{"osm":"n7787647591","name":"Dr. Mangamma Hospital","amenity":"hospital","healthcare":"hospital"},"geometry":{"type":"Point","coordinates":[83.30454,17.71009]}},{"type":"Feature","properties":{"osm":"n7787647592","name":"Sri Lakhmi ENT Hospital","amenity":"hospital"},"geometry":{"type":"Point","coordinates":[83.1975,17.68298]}},{"type":"Feature","properties":{"osm":"n7787647593","name":"BHEL Hospital","amenity":"hospital"},"geometry":{"type":"Point","coordinates":[83.19953,17.70213]}},{"type":"Feature","properties":{"osm":"n7787647594","name":"Visakha Child Care Centre","amenity":"hospital"},"geometry":{"type":"Point","coordinates":[83.20163,17.68465]}},{"type":"Feature","properties":{"osm":"n7787647599","name":"Piles Hospital","amenity":"hospital"},"geometry":{"type":"Point","coordinates":[83.21338,17.68718]}},{"type":"Feature","properties":{"osm":"n7787647600","name":"Visakha Hospital","amenity":"hospital","healthcare":"hospital"},"geometry":{"type":"Point","coordinates":[83.30436,17.71014]}},{"type":"Feature","properties":{"osm":"n7787647602","name":"Sreenivasa Hospital","amenity":"hospital"},"geometry":{"type":"Point","coordinates":[83.2061,17.82318]}},{"type":"Feature","properties":{"osm":"n7787647603","name":"Simhagiri Hospital","amenity":"hospital"},"geometry":{"type":"Point","coordinates":[83.21277,17.68635]}},{"type":"Feature","properties":{"osm":"n7787647604","name":"City Hospital Ortho & Specialities","amenity":"hospital"},"geometry":{"type":"Point","coordinates":[83.20532,17.68525]}},{"type":"Feature","properties":{"osm":"n7787647605","name":"Medicover Hospital","amenity":"hospital","healthcare":"hospital"},"geometry":{"type":"Point","coordinates":[83.31397,17.71232]}},{"type":"Feature","properties":{"osm":"n7787647606","name":"Rotary Free Homeo Clinic","amenity":"clinic"},"geometry":{"type":"Point","coordinates":[83.2012,17.67239]}},{"type":"Feature","properties":{"osm":"n7787647609","name":"Life Spring Hospital","amenity":"hospital"},"geometry":{"type":"Point","coordinates":[83.2436,17.68834]}},{"type":"Feature","properties":{"osm":"n7787647610","name":"Sri Krishna Pavan Homeo Clinic","amenity":"clinic"},"geometry":{"type":"Point","coordinates":[83.21105,17.79648]}},{"type":"Feature","properties":{"osm":"n7787647612","name":"Sri Lakshmi Children Hospital","amenity":"hospital"},"geometry":{"type":"Point","coordinates":[83.20786,17.68542]}},{"type":"Feature","properties":{"osm":"n7787647613","name":"Vijaya Krishna Clinic","amenity":"clinic","healthcare":"clinic"},"geometry":{"type":"Point","coordinates":[83.31149,17.71095]}},{"type":"Feature","properties":{"osm":"n7787647614","name":"Ankitha Hospital","amenity":"hospital"},"geometry":{"type":"Point","coordinates":[83.19897,17.68279]}},{"type":"Feature","properties":{"osm":"n7787647618","name":"Hymavathi Hospital","amenity":"hospital"},"geometry":{"type":"Point","coordinates":[83.21924,17.74803]}},{"type":"Feature","properties":{"osm":"n7787647619","name":"Pujitha Hospital","amenity":"hospital"},"geometry":{"type":"Point","coordinates":[83.21007,17.68448]}},{"type":"Feature","properties":{"osm":"n7787647620","name":"Sarojini Children's Hospital","amenity":"hospital"},"geometry":{"type":"Point","coordinates":[83.22654,17.74457]}},{"type":"Feature","properties":{"osm":"n7787647621","name":"SMS Hospital","amenity":"hospital"},"geometry":{"type":"Point","coordinates":[83.22619,17.7452]}},{"type":"Feature","properties":{"osm":"n7787647622","name":"Padmaja Clinic","amenity":"clinic"},"geometry":{"type":"Point","coordinates":[83.21583,17.68266]}},{"type":"Feature","properties":{"osm":"n7787647623","name":"Navaratnam - Kesava Rao Charitable Health Centre","amenity":"hospital"},"geometry":{"type":"Point","coordinates":[83.205,17.68722]}},{"type":"Feature","properties":{"osm":"n7787647624","name":"Visakha Gynaec & Obst Hospital","amenity":"hospital"},"geometry":{"type":"Point","coordinates":[83.20428,17.8148]}},{"type":"Feature","properties":{"osm":"n7787647626","name":"Suryanarayana Hospital","amenity":"hospital"},"geometry":{"type":"Point","coordinates":[83.21863,17.75085]}},{"type":"Feature","properties":{"osm":"n7787647627","name":"Simhadri Women & Child Hospital","amenity":"hospital"},"geometry":{"type":"Point","coordinates":[83.22562,17.76563]}},{"type":"Feature","properties":{"osm":"n7787647628","name":"Usha Clinic","amenity":"clinic"},"geometry":{"type":"Point","coordinates":[83.12298,17.78982]}},{"type":"Feature","properties":{"osm":"n7787647629","name":"Vizag Ortho & Spine Centre","amenity":"hospital","healthcare":"hospital"},"geometry":{"type":"Point","coordinates":[83.31244,17.7104]}},{"type":"Feature","properties":{"osm":"n7787647630","name":"Sri Amrutha Hospital","amenity":"hospital","healthcare":"hospital"},"geometry":{"type":"Point","coordinates":[83.30286,17.71033]}},{"type":"Feature","properties":{"osm":"n7787647631","name":"Mukhyamantri Arogya Kendram","amenity":"clinic"},"geometry":{"type":"Point","coordinates":[83.23369,17.68363]}},{"type":"Feature","properties":{"osm":"n7787647632","name":"Mamata Hospital","amenity":"hospital"},"geometry":{"type":"Point","coordinates":[83.20798,17.68691]}},{"type":"Feature","properties":{"osm":"n7787647633","name":"Sri Surya Dental Hospital","amenity":"hospital"},"geometry":{"type":"Point","coordinates":[83.31035,17.70978]}},{"type":"Feature","properties":{"osm":"n7787647634","name":"Sri Surya Hospital","amenity":"hospital","healthcare":"hospital"},"geometry":{"type":"Point","coordinates":[83.30986,17.70815]}},{"type":"Feature","properties":{"osm":"n7787647636","name":"Bhajrang Skin Clinic","amenity":"clinic"},"geometry":{"type":"Point","coordinates":[83.20692,17.68612]}},{"type":"Feature","properties":{"osm":"n7787647637","name":"Madhu Skin Clinic","amenity":"clinic"},"geometry":{"type":"Point","coordinates":[83.20604,17.68605]}},{"type":"Feature","properties":{"osm":"n7787647638","name":"Lata Hospital","amenity":"hospital"},"geometry":{"type":"Point","coordinates":[83.20536,17.68771]}},{"type":"Feature","properties":{"osm":"n7787647639","name":"Janani Hospital","amenity":"hospital"},"geometry":{"type":"Point","coordinates":[83.20738,17.68655]}},{"type":"Feature","properties":{"osm":"n7787647640","name":"Geetha Hospital","amenity":"hospital"},"geometry":{"type":"Point","coordinates":[83.2145,17.68605]}},{"type":"Feature","properties":{"osm":"n7787647641","name":"Shree Krishna Health Centre","amenity":"hospital"},"geometry":{"type":"Point","coordinates":[83.31058,17.7104]}},{"type":"Feature","properties":{"osm":"n7787647642","name":"Aditya Obstetrics & Gynecology Hospital","amenity":"hospital"},"geometry":{"type":"Point","coordinates":[83.26964,17.74599]}},{"type":"Feature","properties":{"osm":"n7787647643","name":"ENT Clinic","amenity":"clinic"},"geometry":{"type":"Point","coordinates":[83.31037,17.70982]}},{"type":"Feature","properties":{"osm":"n7787647644","name":"Suresh Children's Clinic","amenity":"clinic"},"geometry":{"type":"Point","coordinates":[83.20986,17.79986]}},{"type":"Feature","properties":{"osm":"n7787647647","name":"Sri Surya Hospital","amenity":"hospital"},"geometry":{"type":"Point","coordinates":[83.20928,17.6849]}},{"type":"Feature","properties":{"osm":"n7787647648","name":"Harshitha Hospital","amenity":"hospital"},"geometry":{"type":"Point","coordinates":[83.21019,17.68634]}},{"type":"Feature","properties":{"osm":"n7787647649","name":"Mother and Child Hospital","amenity":"hospital"},"geometry":{"type":"Point","coordinates":[83.12163,17.79016]}},{"type":"Feature","properties":{"osm":"n7787647650","name":"Pendurthi Govt Hospital","amenity":"hospital","healthcare":"hospital","emergency":"yes"},"geometry":{"type":"Point","coordinates":[83.20708,17.80942]}},{"type":"Feature","properties":{"osm":"n7787647651","name":"Sri Sai Balaji Clinic","amenity":"clinic","healthcare":"clinic"},"geometry":{"type":"Point","coordinates":[83.23685,17.74185]}},{"type":"Feature","properties":{"osm":"n7787647652","name":"Sri Sai Aditya Hospital","amenity":"hospital"},"geometry":{"type":"Point","coordinates":[83.26967,17.74628]}},{"type":"Feature","properties":{"osm":"n7787647653","name":"Srikanth's Speech & Hearing Clinic","amenity":"clinic","healthcare":"clinic"},"geometry":{"type":"Point","coordinates":[83.30227,17.71062]}},{"type":"Feature","properties":{"osm":"n7787647654","name":"Gothis Doctor Chambers","amenity":"hospital","healthcare":"hospital"},"geometry":{"type":"Point","coordinates":[83.31212,17.71038]}},{"type":"Feature","properties":{"osm":"n7787647655","name":"Harini Hospital","amenity":"hospital"},"geometry":{"type":"Point","coordinates":[83.20551,17.67958]}},{"type":"Feature","properties":{"osm":"n7787647656","name":"Janaki Polyclinic","amenity":"clinic"},"geometry":{"type":"Point","coordinates":[83.20494,17.69305]}},{"type":"Feature","properties":{"osm":"n7787647657","name":"Heritage Kerala Ayurveda Hospital","amenity":"hospital"},"geometry":{"type":"Point","coordinates":[83.21208,17.76715]}},{"type":"Feature","properties":{"osm":"n7787647658","name":"Ashok Clinic","amenity":"clinic"},"geometry":{"type":"Point","coordinates":[83.20591,17.822]}},{"type":"Feature","properties":{"osm":"n7787647659","name":"GSR Chest Clinic","amenity":"clinic"},"geometry":{"type":"Point","coordinates":[83.19618,17.68484]}},{"type":"Feature","properties":{"osm":"n7787647661","name":"Ramya Hospital","amenity":"hospital","healthcare":"hospital"},"geometry":{"type":"Point","coordinates":[83.3043,17.71054]}},{"type":"Feature","properties":{"osm":"n7787647663","name":"Sanjevani Mega Clinic","amenity":"clinic"},"geometry":{"type":"Point","coordinates":[83.31038,17.70985]}},{"type":"Feature","properties":{"osm":"n7787647664","name":"Sri Sapthagiri Hospitals","amenity":"hospital"},"geometry":{"type":"Point","coordinates":[83.21306,17.80585]}},{"type":"Feature","properties":{"osm":"n7787647666","name":"Government Hospital","amenity":"hospital"},"geometry":{"type":"Point","coordinates":[83.21614,17.75247]}},{"type":"Feature","properties":{"osm":"n7787647667","name":"Raghavendra Eye Hospital","amenity":"hospital"},"geometry":{"type":"Point","coordinates":[83.21996,17.74769]}},{"type":"Feature","properties":{"osm":"n7787647668","name":"ENT Clinic","amenity":"clinic"},"geometry":{"type":"Point","coordinates":[83.21826,17.75108]}},{"type":"Feature","properties":{"osm":"n7787647671","name":"Muddu Krishna Children Hospital","amenity":"hospital"},"geometry":{"type":"Point","coordinates":[83.2047,17.68527]}},{"type":"Feature","properties":{"osm":"n7787647673","name":"Sarojini Devi Skin Hospital","amenity":"hospital"},"geometry":{"type":"Point","coordinates":[83.30903,17.71665]}},{"type":"Feature","properties":{"osm":"n7787647675","name":"Ramsaranya Child Care Hospital","amenity":"hospital","healthcare":"hospital"},"geometry":{"type":"Point","coordinates":[83.31433,17.71025]}},{"type":"Feature","properties":{"osm":"n7787647676","name":"Baba Hospital","amenity":"hospital"},"geometry":{"type":"Point","coordinates":[83.30887,17.70818]}},{"type":"Feature","properties":{"osm":"n7787647677","name":"Triveni Hospitals","amenity":"hospital"},"geometry":{"type":"Point","coordinates":[83.20643,17.81775]}},{"type":"Feature","properties":{"osm":"n7787647680","name":"Aditya Multi Care Hospital","amenity":"hospital","healthcare":"hospital"},"geometry":{"type":"Point","coordinates":[83.30468,17.71005]}},{"type":"Feature","properties":{"osm":"n7916820571","name":"M.B. Hospitals","amenity":"hospital","healthcare":"hospital"},"geometry":{"type":"Point","coordinates":[83.31061,17.76345]}},{"type":"Feature","properties":{"osm":"n7917282168","name":"ApolloHospitals","amenity":"hospital","healthcare":"hospital","operator":"Apollo Hospitals"},"geometry":{"type":"Point","coordinates":[83.30914,17.71714]}},{"type":"Feature","properties":{"osm":"n7930495900","name":"HCG Cancer Centre","amenity":"hospital","healthcare":"hospital"},"geometry":{"type":"Point","coordinates":[83.30572,17.76388]}},{"type":"Feature","properties":{"osm":"n7931043211","name":"Star Pinnacle Heart Centre","amenity":"hospital","healthcare":"hospital"},"geometry":{"type":"Point","coordinates":[83.30784,17.76327]}},{"type":"Feature","properties":{"osm":"n7934165413","name":"Homi Bhabha Cancer Hospital & Research Centre","amenity":"hospital","healthcare":"hospital"},"geometry":{"type":"Point","coordinates":[83.11442,17.68988]}},{"type":"Feature","properties":{"osm":"n7951547049","name":"Ramsaranya Hospitals","amenity":"hospital","healthcare":"hospital"},"geometry":{"type":"Point","coordinates":[83.31067,17.70975]}},{"type":"Feature","properties":{"osm":"n7951595809","name":"Visakha Hospitals And Diagnostics","amenity":"hospital","healthcare":"hospital"},"geometry":{"type":"Point","coordinates":[83.31301,17.72029]}},{"type":"Feature","properties":{"osm":"n7969038055","name":"SevenHills Hospital","amenity":"hospital","healthcare":"hospital"},"geometry":{"type":"Point","coordinates":[83.30942,17.71736]}},{"type":"Feature","properties":{"osm":"n7999688946","name":"St Anns Jubilee Memorial Hospital","amenity":"hospital","healthcare":"hospital"},"geometry":{"type":"Point","coordinates":[83.23772,17.68435]}},{"type":"Feature","properties":{"osm":"n8767763195","name":"Suraksha Hospital","amenity":"hospital"},"geometry":{"type":"Point","coordinates":[83.25557,17.73962]}},{"type":"Feature","properties":{"osm":"n8767818502","name":"Varma Hospitals","amenity":"hospital","healthcare":"hospital"},"geometry":{"type":"Point","coordinates":[83.3114,17.76403]}},{"type":"Feature","properties":{"osm":"n8767908843","name":"Sai Spoorthy Hospital","amenity":"hospital"},"geometry":{"type":"Point","coordinates":[83.30935,17.72954]}},{"type":"Feature","properties":{"osm":"n8767992101","name":"Government Regional Eye Hospital","amenity":"hospital","healthcare":"hospital"},"geometry":{"type":"Point","coordinates":[83.31139,17.73047]}},{"type":"Feature","properties":{"osm":"n8768007090","name":"LG Hospitals","amenity":"hospital","healthcare":"hospital"},"geometry":{"type":"Point","coordinates":[83.30459,17.71017]}},{"type":"Feature","properties":{"osm":"n8768034019","name":"Omega Hospitals","amenity":"hospital","healthcare":"hospital"},"geometry":{"type":"Point","coordinates":[83.31243,17.76379]}},{"type":"Feature","properties":{"osm":"n8768039075","name":"Medicover Hospitals","amenity":"hospital","healthcare":"hospital"},"geometry":{"type":"Point","coordinates":[83.31213,17.76382]}},{"type":"Feature","properties":{"osm":"n8768045905","name":"Ramsaranya Hospitals","amenity":"hospital","healthcare":"hospital"},"geometry":{"type":"Point","coordinates":[83.31091,17.71001]}},{"type":"Feature","properties":{"osm":"n8768062261","name":"GJ Hospitals And Trauma Centre","amenity":"hospital"},"geometry":{"type":"Point","coordinates":[83.33244,17.73367]}},{"type":"Feature","properties":{"osm":"n8768067733","name":"Sankar Foundation Eye Hospital","amenity":"hospital"},"geometry":{"type":"Point","coordinates":[83.21595,17.68129]}},{"type":"Feature","properties":{"osm":"n9772561605","name":"Chest Hospital and Medical Store","amenity":"hospital","healthcare":"hospital"},"geometry":{"type":"Point","coordinates":[83.21915,17.74938]}},{"type":"Feature","properties":{"osm":"n10880955399","name":"Indu's dental specialities","amenity":"clinic","healthcare":"clinic"},"geometry":{"type":"Point","coordinates":[83.30769,17.73617]}},{"type":"Feature","properties":{"osm":"n10892780888","name":"Eye Hospitals","amenity":"hospital","healthcare":"hospital"},"geometry":{"type":"Point","coordinates":[83.20825,17.80986]}},{"type":"Feature","properties":{"osm":"n11609626426","name":"Dr.Mohan's Diabetes Specialities Centre","amenity":"hospital","healthcare":"hospital"},"geometry":{"type":"Point","coordinates":[83.31471,17.72511]}},{"type":"Feature","properties":{"osm":"n11690446188","name":"AMG Hospital","amenity":"hospital","healthcare":"hospital"},"geometry":{"type":"Point","coordinates":[83.31184,17.74147]}},{"type":"Feature","properties":{"osm":"n11711398033","name":"Children Multi Speciality Hospital","amenity":"hospital","healthcare":"hospital","operator":"Sri Parameswari"},"geometry":{"type":"Point","coordinates":[83.18818,17.89975]}},{"type":"Feature","properties":{"osm":"n11740567974","name":"Medicover Hospitals","amenity":"hospital","healthcare":"hospital"},"geometry":{"type":"Point","coordinates":[83.33188,17.74782]}},{"type":"Feature","properties":{"osm":"n11831483587","name":"Manikanta Clinic","amenity":"clinic","healthcare":"clinic"},"geometry":{"type":"Point","coordinates":[83.1877,17.89944]}},{"type":"Feature","properties":{"osm":"n11851269089","name":"Suneetha Hospital Dr V Anand Rao","amenity":"hospital","healthcare":"hospital"},"geometry":{"type":"Point","coordinates":[83.25359,17.74013]}},{"type":"Feature","properties":{"osm":"n12213464286","name":"Sai Clinic","amenity":"hospital","healthcare":"hospital","emergency":"yes"},"geometry":{"type":"Point","coordinates":[83.20939,17.80463]}},{"type":"Feature","properties":{"osm":"n12213464390","name":"Saadhana Hospitals","amenity":"hospital","healthcare":"hospital"},"geometry":{"type":"Point","coordinates":[83.21056,17.8009]}},{"type":"Feature","properties":{"osm":"n12213911037","name":"Surabhi Clinics","amenity":"hospital","healthcare":"hospital"},"geometry":{"type":"Point","coordinates":[83.20927,17.80321]}},{"type":"Feature","properties":{"osm":"n12213911077","name":"Sarat Chandras Speciality Clinic","amenity":"hospital","healthcare":"hospital"},"geometry":{"type":"Point","coordinates":[83.20945,17.80243]}},{"type":"Feature","properties":{"osm":"n12252527618","name":"Sunflower childrens clinic","amenity":"hospital"},"geometry":{"type":"Point","coordinates":[83.18599,17.89723]}},{"type":"Feature","properties":{"osm":"n12470766214","name":"Dr BV Adinarayana Childrens Specialist","amenity":"hospital"},"geometry":{"type":"Point","coordinates":[83.27198,17.73501]}},{"type":"Feature","properties":{"osm":"n12531593373","name":"Ayushman arogya mandir","amenity":"hospital"},"geometry":{"type":"Point","coordinates":[83.32947,17.7296]}},{"type":"Feature","properties":{"osm":"n12638517786","name":"Piles Clinic","amenity":"clinic","healthcare":"clinic"},"geometry":{"type":"Point","coordinates":[83.18741,17.89865]}},{"type":"Feature","properties":{"osm":"n12959403113","name":"Dr. Gunturu Indira","amenity":"clinic","healthcare":"clinic"},"geometry":{"type":"Point","coordinates":[83.20813,17.80959]}},{"type":"Feature","properties":{"osm":"n12959403130","name":"Maathrusree","amenity":"clinic","healthcare":"clinic"},"geometry":{"type":"Point","coordinates":[83.20874,17.80791]}},{"type":"Feature","properties":{"osm":"n12959438394","name":"Mothers Care Clinic","amenity":"clinic","healthcare":"clinic"},"geometry":{"type":"Point","coordinates":[83.2111,17.79827]}},{"type":"Feature","properties":{"osm":"n12959438400","name":"Shyam Sundar Medical Care","amenity":"clinic","healthcare":"clinic"},"geometry":{"type":"Point","coordinates":[83.21124,17.79772]}},{"type":"Feature","properties":{"osm":"n12992712252","name":"Sri Orthopedic & Physiotheraphy Clinic","amenity":"clinic","healthcare":"clinic"},"geometry":{"type":"Point","coordinates":[83.33393,17.73617]}},{"type":"Feature","properties":{"osm":"n12992712257","name":"KIMS Hospitals","amenity":"hospital","healthcare":"hospital"},"geometry":{"type":"Point","coordinates":[83.33538,17.7374]}},{"type":"Feature","properties":{"osm":"n12992712258","name":"KIMS Fertility","amenity":"clinic","healthcare":"clinic"},"geometry":{"type":"Point","coordinates":[83.33542,17.73746]}},{"type":"Feature","properties":{"osm":"n12992712259","name":"Smart Health Clinic","amenity":"clinic","healthcare":"clinic"},"geometry":{"type":"Point","coordinates":[83.33557,17.73755]}},{"type":"Feature","properties":{"osm":"n12992712262","name":"Veera Clinic","amenity":"clinic","healthcare":"clinic"},"geometry":{"type":"Point","coordinates":[83.3363,17.73778]}},{"type":"Feature","properties":{"osm":"n12992712263","name":"Dr. Ram's Heart & Multispeciality Clinic","amenity":"clinic","healthcare":"clinic"},"geometry":{"type":"Point","coordinates":[83.33642,17.7383]}},{"type":"Feature","properties":{"osm":"n12992712281","name":"SR Medical Center","amenity":"clinic","healthcare":"clinic"},"geometry":{"type":"Point","coordinates":[83.33165,17.74576]}},{"type":"Feature","properties":{"osm":"n13065369413","name":"Avinash Neuro Clinic","amenity":"clinic","healthcare":"clinic"},"geometry":{"type":"Point","coordinates":[83.35138,17.80403]}},{"type":"Feature","properties":{"osm":"n13065369459","name":"Beyond Autism","amenity":"clinic","healthcare":"clinic"},"geometry":{"type":"Point","coordinates":[83.34784,17.80406]}},{"type":"Feature","properties":{"osm":"n13086308323","name":"Shoulder & Knee Clinic","amenity":"clinic","healthcare":"clinic"},"geometry":{"type":"Point","coordinates":[83.33067,17.73118]}},{"type":"Feature","properties":{"osm":"n13096498937","name":"Apollo Clinic","amenity":"clinic","healthcare":"clinic"},"geometry":{"type":"Point","coordinates":[83.30635,17.72985]}},{"type":"Feature","properties":{"osm":"n13108171657","name":"Indus Hospitals","amenity":"hospital","healthcare":"hospital"},"geometry":{"type":"Point","coordinates":[83.30754,17.76253]}},{"type":"Feature","properties":{"osm":"n13108171659","name":"Narayana Medicity","amenity":"hospital","healthcare":"hospital"},"geometry":{"type":"Point","coordinates":[83.31196,17.76212]}},{"type":"Feature","properties":{"osm":"n13179825649","name":"Sanjivani Hospital","amenity":"hospital","healthcare":"hospital"},"geometry":{"type":"Point","coordinates":[83.24644,17.74036]}},{"type":"Feature","properties":{"osm":"n13204632652","name":"Gandhi","amenity":"hospital","healthcare":"hospital"},"geometry":{"type":"Point","coordinates":[83.39633,17.79894]}},{"type":"Feature","properties":{"osm":"n13204637343","name":"forest","amenity":"hospital","healthcare":"hospital"},"geometry":{"type":"Point","coordinates":[83.3893,17.79524]}},{"type":"Feature","properties":{"osm":"n13204638818","name":"forest","amenity":"hospital","healthcare":"hospital"},"geometry":{"type":"Point","coordinates":[83.38906,17.79537]}},{"type":"Feature","properties":{"osm":"n13204639830","name":"forest","amenity":"hospital","healthcare":"hospital"},"geometry":{"type":"Point","coordinates":[83.38824,17.79891]}},{"type":"Feature","properties":{"osm":"n13369321117","name":"Primary Health Center Kothavalasa","amenity":"hospital","healthcare":"hospital"},"geometry":{"type":"Point","coordinates":[83.18973,17.90058]}},{"type":"Feature","properties":{"osm":"n13418621552","name":"Vijaya Medical Center","amenity":"clinic"},"geometry":{"type":"Point","coordinates":[83.33972,17.74015]}},{"type":"Feature","properties":{"osm":"n13703071976","amenity":"hospital","healthcare":"hospital","operator":"Dr. Agarwal's Eye Hospital"},"geometry":{"type":"Point","coordinates":[83.30728,17.71619]}},{"type":"Feature","properties":{"osm":"n13703652259","name":"Rise Hospital","amenity":"hospital","healthcare":"hospital"},"geometry":{"type":"Point","coordinates":[83.20224,17.68469]}},{"type":"Feature","properties":{"osm":"n13800470090","name":"Urban Primary Health Center Dondaparthy","amenity":"hospital","healthcare":"hospital"},"geometry":{"type":"Point","coordinates":[83.30076,17.72914]}},{"type":"Feature","properties":{"osm":"n14063161196","name":"Vijetha Family Clinic","amenity":"clinic","healthcare":"clinic"},"geometry":{"type":"Point","coordinates":[83.32648,17.74632]}},{"type":"Feature","properties":{"osm":"w171402341","name":"Vijaya Hospital","amenity":"hospital","from_area":true},"geometry":{"type":"Point","coordinates":[83.33515,17.74407]}},{"type":"Feature","properties":{"osm":"w224474117","name":"King George Hospital","amenity":"hospital","healthcare":"hospital","emergency":"yes","from_area":true},"geometry":{"type":"Point","coordinates":[83.30565,17.70826]}},{"type":"Feature","properties":{"osm":"w386675746","name":"M.V.P. Hospital","amenity":"hospital","healthcare":"hospital","from_area":true},"geometry":{"type":"Point","coordinates":[83.33518,17.74215]}},{"type":"Feature","properties":{"osm":"w389137565","name":"Sevenhills Hospital Ltd.","amenity":"hospital","building":"yes","from_area":true},"geometry":{"type":"Point","coordinates":[83.30957,17.71726]}},{"type":"Feature","properties":{"osm":"w389325723","name":"Apollo Heart Hospital","amenity":"hospital","from_area":true},"geometry":{"type":"Point","coordinates":[83.30919,17.7171]}},{"type":"Feature","properties":{"osm":"w402585050","name":"Government Hospital","amenity":"hospital","from_area":true},"geometry":{"type":"Point","coordinates":[83.33103,17.72338]}},{"type":"Feature","properties":{"osm":"w402612183","name":"visakha Eye hospital Old","amenity":"hospital","healthcare":"hospital","from_area":true},"geometry":{"type":"Point","coordinates":[83.33242,17.73208]}},{"type":"Feature","properties":{"osm":"w487644143","name":"GAYATRI MEDICAL COLLEGE","amenity":"hospital","emergency":"yes","operator":"GAYATRI COLLEG","from_area":true},"geometry":{"type":"Point","coordinates":[83.36107,17.83095]}},{"type":"Feature","properties":{"osm":"w520578421","name":"AU North Campus Dispensary","amenity":"hospital","building":"commercial","from_area":true},"geometry":{"type":"Point","coordinates":[83.3208,17.72731]}},{"type":"Feature","properties":{"osm":"w521013578","name":"Visakhapatnam Steel General Hospital","amenity":"hospital","healthcare":"hospital","emergency":"yes","operator":"Visakhapatnam Steel Plant","from_area":true},"geometry":{"type":"Point","coordinates":[83.14414,17.66311]}},{"type":"Feature","properties":{"osm":"w545177115","name":"St.Ann's Jubilee Memorial Hospital","amenity":"hospital","building":"yes","from_area":true},"geometry":{"type":"Point","coordinates":[83.23767,17.68432]}},{"type":"Feature","properties":{"osm":"w635547721","name":"Pradhama","amenity":"hospital","healthcare":"hospital","building":"yes","from_area":true},"geometry":{"type":"Point","coordinates":[83.33229,17.74777]}},{"type":"Feature","properties":{"osm":"w1213264469","name":"Apollo Hospital","amenity":"hospital","healthcare":"hospital","from_area":true},"geometry":{"type":"Point","coordinates":[83.31772,17.7612]}},{"type":"Feature","properties":{"osm":"w1260765202","name":"Amrutha Hospital","amenity":"hospital","healthcare":"hospital","emergency":"yes","from_area":true},"geometry":{"type":"Point","coordinates":[83.34797,17.75369]}},{"type":"Feature","properties":{"osm":"w1318810226","name":"UPHC Purushothapuram","amenity":"hospital","healthcare":"hospital","from_area":true},"geometry":{"type":"Point","coordinates":[83.2123,17.79179]}},{"type":"Feature","properties":{"osm":"w1319192479","name":"Behara Hospital","amenity":"hospital","healthcare":"hospital","from_area":true},"geometry":{"type":"Point","coordinates":[83.21683,17.75522]}},{"type":"Feature","properties":{"osm":"w1322638160","name":"Sankar Foundation Eye Hospital","amenity":"hospital","healthcare":"hospital","from_area":true},"geometry":{"type":"Point","coordinates":[83.22052,17.76621]}},{"type":"Feature","properties":{"osm":"w1338621571","name":"Visakha Institute of Medical Sciences","amenity":"hospital","healthcare":"hospital","from_area":true},"geometry":{"type":"Point","coordinates":[83.32742,17.76005]}},{"type":"Feature","properties":{"osm":"w1346919256","name":"Care Hospital","amenity":"hospital","healthcare":"hospital","from_area":true},"geometry":{"type":"Point","coordinates":[83.31548,17.76187]}},{"type":"Feature","properties":{"osm":"w1356624261","name":"Homi Baba Cancer Hospital & Research Centre","amenity":"hospital","healthcare":"hospital","from_area":true},"geometry":{"type":"Point","coordinates":[83.29311,17.73974]}},{"type":"Feature","properties":{"osm":"w1392925955","name":"Rani Chandramathi Hospital","amenity":"hospital","healthcare":"hospital","from_area":true},"geometry":{"type":"Point","coordinates":[83.33676,17.72891]}},{"type":"Feature","properties":{"osm":"w1421751170","name":"Urban Primary Health Center","amenity":"hospital","healthcare":"hospital","from_area":true},"geometry":{"type":"Point","coordinates":[83.34178,17.80484]}},{"type":"Feature","properties":{"osm":"w1543997021","name":"KIMS ICON Hospitals","amenity":"hospital","healthcare":"hospital","from_area":true},"geometry":{"type":"Point","coordinates":[83.19616,17.71398]}},{"type":"Feature","properties":{"osm":"w1544074449","name":"Queen Victoria Hospital","amenity":"hospital","healthcare":"hospital","from_area":true},"geometry":{"type":"Point","coordinates":[83.29825,17.69843]}},{"type":"Feature","properties":{"osm":"w1552271294","name":"Railway Hospital","amenity":"hospital","healthcare":"hospital","from_area":true},"geometry":{"type":"Point","coordinates":[83.30151,17.72441]}},{"type":"Feature","properties":{"osm":"r7020318","amenity":"hospital","healthcare":"hospital","from_area":true},"geometry":{"type":"Point","coordinates":[83.3337,17.72908]}},{"type":"Feature","properties":{"osm":"r7020319","amenity":"hospital","from_area":true},"geometry":{"type":"Point","coordinates":[83.33213,17.72781]}},{"type":"Feature","properties":{"osm":"r7020320","amenity":"hospital","from_area":true},"geometry":{"type":"Point","coordinates":[83.33312,17.72717]}}]}