{"type":"FeatureCollection","features":[{"type":"Feature","properties":{"osm":"w1241834158","power":"minor_line"},"geometry":{"type":"LineString","coordinates":[[83.18677,17.90867],[83.18709,17.9086],[83.18732,17.90855],[83.18725,17.90825],[83.18723,17.90819],[83.18688,17.90826],[83.18667,17.90831],[83.1865,17.90834],[83.1864,17.90836]]}},{"type":"Feature","properties":{"osm":"w1241834159","power":"minor_line"},"geometry":{"type":"LineString","coordinates":[[83.18723,17.90819],[83.18718,17.90801],[83.18714,17.90781]]}},{"type":"Feature","properties":{"osm":"w1241835998","power":"minor_line"},"geometry":{"type":"LineString","coordinates":[[83.18723,17.90819],[83.1875,17.90813],[83.18767,17.90809],[83.18792,17.90804]]}},{"type":"Feature","properties":{"osm":"w1241835999","power":"minor_line"},"geometry":{"type":"LineString","coordinates":[[83.18732,17.90855],[83.18738,17.90854],[83.18756,17.9085],[83.18778,17.90845],[83.18795,17.90842]]}},{"type":"Feature","properties":{"osm":"w1241836000","power":"minor_line"},"geometry":{"type":"LineString","coordinates":[[83.18732,17.90855],[83.18738,17.90878],[83.18743,17.90894],[83.18745,17.90903],[83.18725,17.90907],[83.18701,17.90912]]}},{"type":"Feature","properties":{"osm":"w1270688858","power":"minor_line"},"geometry":{"type":"LineString","coordinates":[[83.33253,17.7538],[83.33244,17.75315],[83.33235,17.75257],[83.33224,17.75181],[83.33217,17.75125],[83.33209,17.75058],[83.33201,17.74996],[83.33195,17.74928],[83.33192,17.74845],[83.33162,17.7478],[83.33126,17.74733],[83.33083,17.74712],[83.33044,17.74697],[83.33004,17.74692],[83.32947,17.74683],[83.32898,17.74668],[83.32882,17.74638],[83.32872,17.74585],[83.32864,17.74523],[83.32859,17.74472],[83.3284,17.74409],[83.32824,17.74356],[83.32816,17.74296],[83.32804,17.74243],[83.32795,17.74175],[83.32787,17.74136],[83.32768,17.74086]]}}]}