{"type":"FeatureCollection","features":[{"type":"Feature","properties":{"osm":"n1472290462","name":"Siva Sivani Public School","amenity":"school"},"geometry":{"type":"Point","coordinates":[83.33151,17.72095]}},{"type":"Feature","properties":{"osm":"n1474451395","name":"VIPS College","amenity":"college"},"geometry":{"type":"Point","coordinates":[83.32759,17.74638]}},{"type":"Feature","properties":{"osm":"n1824367438","name":"Jami Function Hall","amenity":"townhall"},"geometry":{"type":"Point","coordinates":[83.33654,17.74376]}},{"type":"Feature","properties":{"osm":"n4353502490","name":"Systems Design","amenity":"school"},"geometry":{"type":"Point","coordinates":[83.32702,17.72306]}},{"type":"Feature","properties":{"osm":"n5087013673","amenity":"school"},"geometry":{"type":"Point","coordinates":[83.22069,17.68723]}},{"type":"Feature","properties":{"osm":"n5621300190","name":"Chaitanya Public School","amenity":"school"},"geometry":{"type":"Point","coordinates":[83.13265,17.65741]}},{"type":"Feature","properties":{"osm":"n5621349030","name":"Delhi Public School Visakhapatnam","amenity":"school"},"geometry":{"type":"Point","coordinates":[83.13606,17.65375]}},{"type":"Feature","properties":{"osm":"n6435403855","name":"sri gawri degree and PG College","amenity":"college"},"geometry":{"type":"Point","coordinates":[83.27161,17.73548]}},{"type":"Feature","properties":{"osm":"n6629019201","name":"NBM law college","amenity":"school"},"geometry":{"type":"Point","coordinates":[83.31369,17.71359]}},{"type":"Feature","properties":{"osm":"n6629380280","name":"Bethany school","amenity":"school"},"geometry":{"type":"Point","coordinates":[83.31379,17.71056]}},{"type":"Feature","properties":{"osm":"n6629410100","name":"GVMC community hall","amenity":"townhall"},"geometry":{"type":"Point","coordinates":[83.31389,17.71009]}},{"type":"Feature","properties":{"osm":"n6629436341","name":"Rajastani sanskrutik mandal","amenity":"townhall"},"geometry":{"type":"Point","coordinates":[83.31272,17.70992]}},{"type":"Feature","properties":{"osm":"n6822830986","name":"Narayana Em school","amenity":"school"},"geometry":{"type":"Point","coordinates":[83.30046,17.73607]}},{"type":"Feature","properties":{"osm":"n6880920785","name":"SKML junior college gotivada sabbavaram","amenity":"college"},"geometry":{"type":"Point","coordinates":[83.10943,17.79728]}},{"type":"Feature","properties":{"osm":"n8194717117","name":"Sri Narayana Defence Academy Junior & Degree College","amenity":"college"},"geometry":{"type":"Point","coordinates":[83.29753,17.89348]}},{"type":"Feature","properties":{"osm":"n8643806769","name":"Vijnana Vihara Residential School","amenity":"school"},"geometry":{"type":"Point","coordinates":[83.32385,17.88325]}},{"type":"Feature","properties":{"osm":"n11568880937","name":"MPP school","amenity":"school"},"geometry":{"type":"Point","coordinates":[83.21638,17.77792]}},{"type":"Feature","properties":{"osm":"n11585567239","name":"Ravindra Bharathi School","amenity":"school"},"geometry":{"type":"Point","coordinates":[83.20966,17.79843]}},{"type":"Feature","properties":{"osm":"n11586128072","name":"Sri Chaitanya Techno School","amenity":"school"},"geometry":{"type":"Point","coordinates":[83.3288,17.74288]}},{"type":"Feature","properties":{"osm":"n11608970082","name":"Centurion English Medium School","amenity":"school"},"geometry":{"type":"Point","coordinates":[83.1956,17.90725]}},{"type":"Feature","properties":{"osm":"n11609359601","name":"Vidya vikas","amenity":"school"},"geometry":{"type":"Point","coordinates":[83.18764,17.8868]}},{"type":"Feature","properties":{"osm":"n11688050181","name":"Sri Viswa School","amenity":"school"},"geometry":{"type":"Point","coordinates":[83.30587,17.7399]}},{"type":"Feature","properties":{"osm":"n11741089415","name":"Dr BR Ambedkar Gurukulam","amenity":"school"},"geometry":{"type":"Point","coordinates":[83.28124,17.76957]}},{"type":"Feature","properties":{"osm":"n11851269476","name":"Sri Chaitanya Techno School","amenity":"school"},"geometry":{"type":"Point","coordinates":[83.23754,17.74136]}},{"type":"Feature","properties":{"osm":"n11922771896","name":"Function hall(dronamraju)","amenity":"community_centre"},"geometry":{"type":"Point","coordinates":[83.20011,17.68888]}},{"type":"Feature","properties":{"osm":"n11982618764","name":"Vijayam School","amenity":"school"},"geometry":{"type":"Point","coordinates":[83.35245,17.82398]}},{"type":"Feature","properties":{"osm":"n11986035087","amenity":"school"},"geometry":{"type":"Point","coordinates":[83.12265,17.68939]}},{"type":"Feature","properties":{"osm":"n12000343226","amenity":"school"},"geometry":{"type":"Point","coordinates":[83.12398,17.69004]}},{"type":"Feature","properties":{"osm":"n12000351967","amenity":"school"},"geometry":{"type":"Point","coordinates":[83.12457,17.68998]}},{"type":"Feature","properties":{"osm":"n12104314145","name":"Sri Krishna Grammar School","amenity":"school","operator":"Sree Krishna Grmmar School"},"geometry":{"type":"Point","coordinates":[83.32965,17.76398]}},{"type":"Feature","properties":{"osm":"n12104314147","name":"Sree Arunodaya School","amenity":"school","operator":"Sree Arunodaya School"},"geometry":{"type":"Point","coordinates":[83.33094,17.76325]}},{"type":"Feature","properties":{"osm":"n12171321612","name":"Sree krishna Grammar School","amenity":"school"},"geometry":{"type":"Point","coordinates":[83.32947,17.76376]}},{"type":"Feature","properties":{"osm":"n12171321613","name":"Sree Krishna Grammar School","amenity":"school"},"geometry":{"type":"Point","coordinates":[83.32932,17.76563]}},{"type":"Feature","properties":{"osm":"n12171321614","name":"Sree Krishna Grammar School","amenity":"school"},"geometry":{"type":"Point","coordinates":[83.32924,17.76543]}},{"type":"Feature","properties":{"osm":"n12171321625","name":"Aditya Degree College","amenity":"college"},"geometry":{"type":"Point","coordinates":[83.3172,17.73188]}},{"type":"Feature","properties":{"osm":"n12217501643","amenity":"school"},"geometry":{"type":"Point","coordinates":[83.20332,17.82775]}},{"type":"Feature","properties":{"osm":"n12254690661","amenity":"school"},"geometry":{"type":"Point","coordinates":[83.31589,17.76575]}},{"type":"Feature","properties":{"osm":"n12254690668","amenity":"school"},"geometry":{"type":"Point","coordinates":[83.3169,17.76665]}},{"type":"Feature","properties":{"osm":"n12254702255","amenity":"community_centre"},"geometry":{"type":"Point","coordinates":[83.33427,17.72283]}},{"type":"Feature","properties":{"osm":"n12281623288","amenity":"shelter","operator":"Sri Satya Sai Organisations"},"geometry":{"type":"Point","coordinates":[83.25975,17.74314]}},{"type":"Feature","properties":{"osm":"n12460699379","name":"Yalamarty Pharmacy College","amenity":"college"},"geometry":{"type":"Point","coordinates":[83.33425,17.89983]}},{"type":"Feature","properties":{"osm":"n12470766366","name":"Rightway School","amenity":"school"},"geometry":{"type":"Point","coordinates":[83.27003,17.735]}},{"type":"Feature","properties":{"osm":"n12470766407","name":"Sri Vagdevi School","amenity":"school"},"geometry":{"type":"Point","coordinates":[83.2703,17.73546]}},{"type":"Feature","properties":{"osm":"n12614929412","name":"GVMC Primary School","amenity":"school"},"geometry":{"type":"Point","coordinates":[83.27857,17.73132]}},{"type":"Feature","properties":{"osm":"n12638517774","amenity":"school"},"geometry":{"type":"Point","coordinates":[83.19172,17.88922]}},{"type":"Feature","properties":{"osm":"n12711070098","name":"Delhi Public School","amenity":"school"},"geometry":{"type":"Point","coordinates":[83.23961,17.74253]}},{"type":"Feature","properties":{"osm":"n12713010158","name":"Police Club","amenity":"community_centre"},"geometry":{"type":"Point","coordinates":[83.30117,17.71005]}},{"type":"Feature","properties":{"osm":"n12799833876","amenity":"community_centre"},"geometry":{"type":"Point","coordinates":[83.16769,17.86066]}},{"type":"Feature","properties":{"osm":"n12836704941","name":"Govt High School Sabbavaram","amenity":"school"},"geometry":{"type":"Point","coordinates":[83.12933,17.79264]}},{"type":"Feature","properties":{"osm":"n12836704944","name":"BR Ambedkar Gurukulam","amenity":"school"},"geometry":{"type":"Point","coordinates":[83.12841,17.79243]}},{"type":"Feature","properties":{"osm":"n12837010564","amenity":"community_centre"},"geometry":{"type":"Point","coordinates":[83.23548,17.69002]}},{"type":"Feature","properties":{"osm":"n12986990370","name":"The School of Autism","amenity":"school"},"geometry":{"type":"Point","coordinates":[83.33104,17.74372]}},{"type":"Feature","properties":{"osm":"n13065378810","name":"Lotus English Medium School","amenity":"school"},"geometry":{"type":"Point","coordinates":[83.34251,17.8051]}},{"type":"Feature","properties":{"osm":"n13109119819","amenity":"shelter"},"geometry":{"type":"Point","coordinates":[83.29986,17.73646]}},{"type":"Feature","properties":{"osm":"n13162997836","name":"Kakatiya Cultural Association","amenity":"community_centre"},"geometry":{"type":"Point","coordinates":[83.31551,17.73479]}},{"type":"Feature","properties":{"osm":"n13179825669","name":"Government School","amenity":"school"},"geometry":{"type":"Point","coordinates":[83.24264,17.74006]}},{"type":"Feature","properties":{"osm":"n13253888220","name":"School of Law","amenity":"college"},"geometry":{"type":"Point","coordinates":[83.37798,17.78308]}},{"type":"Feature","properties":{"osm":"n13261867696","amenity":"shelter"},"geometry":{"type":"Point","coordinates":[83.34411,17.74791]}},{"type":"Feature","properties":{"osm":"n13314245140","name":"Bal Vikasa Foundation Bridge School","amenity":"school"},"geometry":{"type":"Point","coordinates":[83.30158,17.69951]}},{"type":"Feature","properties":{"osm":"n13316385331","name":"Sri Basara Junior College","amenity":"college"},"geometry":{"type":"Point","coordinates":[83.30068,17.73473]}},{"type":"Feature","properties":{"osm":"n13316889177","amenity":"shelter"},"geometry":{"type":"Point","coordinates":[83.2998,17.72704]}},{"type":"Feature","properties":{"osm":"n13316892852","amenity":"shelter"},"geometry":{"type":"Point","coordinates":[83.29946,17.73136]}},{"type":"Feature","properties":{"osm":"n13319047240","name":"Sri Gayatri Vidya Nilayam","amenity":"school"},"geometry":{"type":"Point","coordinates":[83.25133,17.74994]}},{"type":"Feature","properties":{"osm":"n13319047246","name":"PEN School","amenity":"school"},"geometry":{"type":"Point","coordinates":[83.25254,17.74978]}},{"type":"Feature","properties":{"osm":"n13429829515","name":"PEN School","amenity":"school"},"geometry":{"type":"Point","coordinates":[83.30115,17.715]}},{"type":"Feature","properties":{"osm":"n13429892344","name":"Vijaya Luke College Of Nursing","amenity":"college"},"geometry":{"type":"Point","coordinates":[83.30022,17.71519]}},{"type":"Feature","properties":{"osm":"n13429892345","name":"P.E.N. School","amenity":"school"},"geometry":{"type":"Point","coordinates":[83.30083,17.71571]}},{"type":"Feature","properties":{"osm":"n13569164301","name":"NBM Law college","amenity":"college"},"geometry":{"type":"Point","coordinates":[83.31189,17.73902]}},{"type":"Feature","properties":{"osm":"n13705793001","name":"Savera Function Hall","amenity":"community_centre"},"geometry":{"type":"Point","coordinates":[83.32894,17.7368]}},{"type":"Feature","properties":{"osm":"n13800472528","name":"GVMC Primary School","amenity":"school"},"geometry":{"type":"Point","coordinates":[83.30204,17.72824]}},{"type":"Feature","properties":{"osm":"n13953432356","name":"Sri Basara Junior College","amenity":"college"},"geometry":{"type":"Point","coordinates":[83.32815,17.74235]}},{"type":"Feature","properties":{"osm":"n13953432366","name":"Akshara English Medium School","amenity":"school"},"geometry":{"type":"Point","coordinates":[83.32457,17.74158]}},{"type":"Feature","properties":{"osm":"n14003118794","amenity":"school"},"geometry":{"type":"Point","coordinates":[83.30958,17.79834]}},{"type":"Feature","properties":{"osm":"n14045508949","name":"Sri Sai Sarvaani EM School","amenity":"school"},"geometry":{"type":"Point","coordinates":[83.19766,17.72]}},{"type":"Feature","properties":{"osm":"n14045508950","amenity":"shelter"},"geometry":{"type":"Point","coordinates":[83.19744,17.72016]}},{"type":"Feature","properties":{"osm":"n14067598373","amenity":"shelter"},"geometry":{"type":"Point","coordinates":[83.29162,17.7211]}},{"type":"Feature","properties":{"osm":"n14096033547","name":"Govt. High School","amenity":"school"},"geometry":{"type":"Point","coordinates":[83.256,17.8433]}},{"type":"Feature","properties":{"osm":"w133761437","name":"Krishna College","amenity":"college","from_area":true},"geometry":{"type":"Point","coordinates":[83.32166,17.7405]}},{"type":"Feature","properties":{"osm":"w133762082","name":"Dr. L.Bullayya College","amenity":"college","from_area":true},"geometry":{"type":"Point","coordinates":[83.31376,17.73145]}},{"type":"Feature","properties":{"osm":"w133762879","name":"Timpany School","amenity":"school","from_area":true},"geometry":{"type":"Point","coordinates":[83.31076,17.72552]}},{"type":"Feature","properties":{"osm":"w133762977","name":"Sri Chaitanya College","amenity":"college","from_area":true},"geometry":{"type":"Point","coordinates":[83.30972,17.72554]}},{"type":"Feature","properties":{"osm":"w133765119","name":"Cyclone Warning Centre","building":"office","from_area":true},"geometry":{"type":"Point","coordinates":[83.32976,17.72164]}},{"type":"Feature","properties":{"osm":"w133958004","name":"Government Municipal School","amenity":"school","from_area":true},"geometry":{"type":"Point","coordinates":[83.30961,17.72184]}},{"type":"Feature","properties":{"osm":"w133958030","name":"Raghu Jr. College","amenity":"college","from_area":true},"geometry":{"type":"Point","coordinates":[83.31043,17.72186]}},{"type":"Feature","properties":{"osm":"w133958489","name":"Muralidhar Academy","amenity":"college","from_area":true},"geometry":{"type":"Point","coordinates":[83.30888,17.72924]}},{"type":"Feature","properties":{"osm":"w133959014","name":"PRISM Degree and PG College","amenity":"college","from_area":true},"geometry":{"type":"Point","coordinates":[83.30842,17.73043]}},{"type":"Feature","properties":{"osm":"w134029873","name":"Sri Sarada Vidya Nilayam","amenity":"school","from_area":true},"geometry":{"type":"Point","coordinates":[83.3138,17.73562]}},{"type":"Feature","properties":{"osm":"w134032444","name":"Sri Prakash Vidyaniketan","amenity":"school","from_area":true},"geometry":{"type":"Point","coordinates":[83.31241,17.74008]}},{"type":"Feature","properties":{"osm":"w134035338","name":"SFS High School","amenity":"school","from_area":true},"geometry":{"type":"Point","coordinates":[83.31283,17.74174]}},{"type":"Feature","properties":{"osm":"w134048153","name":"TTD Kalyana Mandapam","amenity":"community_centre","from_area":true},"geometry":{"type":"Point","coordinates":[83.33414,17.74081]}},{"type":"Feature","properties":{"osm":"w134049048","name":"Seventh Day Adventist School","amenity":"school","from_area":true},"geometry":{"type":"Point","coordinates":[83.33221,17.74051]}},{"type":"Feature","properties":{"osm":"w134059952","name":"AS Raja Womens College","amenity":"college","from_area":true},"geometry":{"type":"Point","coordinates":[83.33769,17.74123]}},{"type":"Feature","properties":{"osm":"w134061360","name":"Bhashyam Public School","amenity":"school","from_area":true},"geometry":{"type":"Point","coordinates":[83.3395,17.74125]}},{"type":"Feature","properties":{"osm":"w134062793","name":"Samata College","amenity":"college","building":"yes","from_area":true},"geometry":{"type":"Point","coordinates":[83.33889,17.74252]}},{"type":"Feature","properties":{"osm":"w134062797","name":"MVP Public School","amenity":"school","from_area":true},"geometry":{"type":"Point","coordinates":[83.33951,17.74239]}},{"type":"Feature","properties":{"osm":"w255427369","name":"DAV Public School","amenity":"school","from_area":true},"geometry":{"type":"Point","coordinates":[83.16162,17.65943]}},{"type":"Feature","properties":{"osm":"w263958440","name":"Visakha Valley School","amenity":"school","from_area":true},"geometry":{"type":"Point","coordinates":[83.34216,17.76205]}},{"type":"Feature","properties":{"osm":"w286390990","name":"Balabhanu School","amenity":"school","from_area":true},"geometry":{"type":"Point","coordinates":[83.26479,17.75092]}},{"type":"Feature","properties":{"osm":"w286393601","name":"Apporva School","amenity":"school","from_area":true},"geometry":{"type":"Point","coordinates":[83.26147,17.74958]}},{"type":"Feature","properties":{"osm":"w301425366","name":"Adarsha CBSE School","amenity":"school","from_area":true},"geometry":{"type":"Point","coordinates":[83.20047,17.67793]}},{"type":"Feature","properties":{"osm":"w386676255","name":"Little Angels School","amenity":"school","operator":"Person","building":"school","from_area":true},"geometry":{"type":"Point","coordinates":[83.33322,17.7435]}},{"type":"Feature","properties":{"osm":"w388753883","name":"satya sai baba","amenity":"school","from_area":true},"geometry":{"type":"Point","coordinates":[83.3349,17.73826]}},{"type":"Feature","properties":{"osm":"w389829655","name":"function hall","amenity":"townhall","building":"yes","from_area":true},"geometry":{"type":"Point","coordinates":[83.34062,17.72871]}},{"type":"Feature","properties":{"osm":"w398643522","name":"KDPM high school","amenity":"school","from_area":true},"geometry":{"type":"Point","coordinates":[83.33858,17.7293]}},{"type":"Feature","properties":{"osm":"w402359966","name":"Kotak Salesian School","amenity":"school","from_area":true},"geometry":{"type":"Point","coordinates":[83.33271,17.7222]}},{"type":"Feature","properties":{"osm":"w402616195","name":"Bethany School","amenity":"school","from_area":true},"geometry":{"type":"Point","coordinates":[83.31459,17.7212]}},{"type":"Feature","properties":{"osm":"w402626809","name":"Narayana IIT Campus","amenity":"college","from_area":true},"geometry":{"type":"Point","coordinates":[83.31237,17.72483]}},{"type":"Feature","properties":{"osm":"w402632872","amenity":"school","from_area":true},"geometry":{"type":"Point","coordinates":[83.33128,17.72375]}},{"type":"Feature","properties":{"osm":"w402662675","name":"Kotak Salesian School","amenity":"school","from_area":true},"geometry":{"type":"Point","coordinates":[83.33317,17.72305]}},{"type":"Feature","properties":{"osm":"w402890425","name":"Government Degree Women's Collge","amenity":"college","from_area":true},"geometry":{"type":"Point","coordinates":[83.30405,17.7203]}},{"type":"Feature","properties":{"osm":"w402899192","name":"Greater Visakhapatnam Municipal Corporation","amenity":"townhall","building":"yes","from_area":true},"geometry":{"type":"Point","coordinates":[83.30841,17.72271]}},{"type":"Feature","properties":{"osm":"w409056214","name":"Municipal High School","amenity":"school","from_area":true},"geometry":{"type":"Point","coordinates":[83.30145,17.73706]}},{"type":"Feature","properties":{"osm":"w421028221","name":"Sri Chaitanya Chanakya Bhavan","amenity":"college","building":"commercial","from_area":true},"geometry":{"type":"Point","coordinates":[83.31063,17.72723]}},{"type":"Feature","properties":{"osm":"w430677225","amenity":"school","from_area":true},"geometry":{"type":"Point","coordinates":[83.30213,17.71307]}},{"type":"Feature","properties":{"osm":"w430677228","name":"Seventh Day","amenity":"school","from_area":true},"geometry":{"type":"Point","coordinates":[83.30234,17.7129]}},{"type":"Feature","properties":{"osm":"w430692460","name":"st. anthony primary and high school","amenity":"school","from_area":true},"geometry":{"type":"Point","coordinates":[83.30676,17.7143]}},{"type":"Feature","properties":{"osm":"w430718263","amenity":"school","from_area":true},"geometry":{"type":"Point","coordinates":[83.33369,17.72428]}},{"type":"Feature","properties":{"osm":"w430772715","amenity":"school","from_area":true},"geometry":{"type":"Point","coordinates":[83.30644,17.71902]}},{"type":"Feature","properties":{"osm":"w430772717","name":"Pydah Degree college","amenity":"college","from_area":true},"geometry":{"type":"Point","coordinates":[83.30703,17.71868]}},{"type":"Feature","properties":{"osm":"w431186095","name":"Ascent Junior college","amenity":"college","from_area":true},"geometry":{"type":"Point","coordinates":[83.31263,17.72418]}},{"type":"Feature","properties":{"osm":"w431341689","amenity":"school","from_area":true},"geometry":{"type":"Point","coordinates":[83.31295,17.71964]}},{"type":"Feature","properties":{"osm":"w431341692","name":"Narayana IIT Campus","amenity":"college","from_area":true},"geometry":{"type":"Point","coordinates":[83.30931,17.72415]}},{"type":"Feature","properties":{"osm":"w431341695","name":"Sri Prakash","amenity":"school","from_area":true},"geometry":{"type":"Point","coordinates":[83.31384,17.72424]}},{"type":"Feature","properties":{"osm":"w431341696","name":"Vemana Mandiram","amenity":"community_centre","building":"yes","from_area":true},"geometry":{"type":"Point","coordinates":[83.31036,17.72412]}},{"type":"Feature","properties":{"osm":"w486162072","name":"St. Joseph's Sec., School","amenity":"school","from_area":true},"geometry":{"type":"Point","coordinates":[83.24152,17.68681]}},{"type":"Feature","properties":{"osm":"w487131994","name":"Anganavadi school","amenity":"school","building":"yes","from_area":true},"geometry":{"type":"Point","coordinates":[83.36343,17.83961]}},{"type":"Feature","properties":{"osm":"w487178938","name":"Sri Chaitanya junior BOYS resident college","amenity":"school","from_area":true},"geometry":{"type":"Point","coordinates":[83.35768,17.83892]}},{"type":"Feature","properties":{"osm":"w495863583","name":"Waltair Club","amenity":"community_centre","from_area":true},"geometry":{"type":"Point","coordinates":[83.31651,17.72085]}},{"type":"Feature","properties":{"osm":"w512024396","name":"Stella Maris School","amenity":"school","from_area":true},"geometry":{"type":"Point","coordinates":[83.24226,17.74592]}},{"type":"Feature","properties":{"osm":"w512024442","name":"Narayana Junior College","amenity":"school","from_area":true},"geometry":{"type":"Point","coordinates":[83.23423,17.74385]}},{"type":"Feature","properties":{"osm":"w521439620","name":"Saraswati School","amenity":"school","building":"yes","from_area":true},"geometry":{"type":"Point","coordinates":[83.23731,17.68492]}},{"type":"Feature","properties":{"osm":"w521439638","amenity":"school","from_area":true},"geometry":{"type":"Point","coordinates":[83.23643,17.6874]}},{"type":"Feature","properties":{"osm":"w521439640","amenity":"school","from_area":true},"geometry":{"type":"Point","coordinates":[83.23713,17.68523]}},{"type":"Feature","properties":{"osm":"w521439641","amenity":"school","from_area":true},"geometry":{"type":"Point","coordinates":[83.2372,17.68459]}},{"type":"Feature","properties":{"osm":"w544132711","amenity":"college","from_area":true},"geometry":{"type":"Point","coordinates":[83.21595,17.67063]}},{"type":"Feature","properties":{"osm":"w544133697","amenity":"college","from_area":true},"geometry":{"type":"Point","coordinates":[83.22292,17.68716]}},{"type":"Feature","properties":{"osm":"w544537078","name":"ZP High School","amenity":"school","from_area":true},"geometry":{"type":"Point","coordinates":[83.21234,17.68899]}},{"type":"Feature","properties":{"osm":"w544988312","amenity":"community_centre","building":"yes","from_area":true},"geometry":{"type":"Point","coordinates":[83.24137,17.6846]}},{"type":"Feature","properties":{"osm":"w588567839","name":"Delhi Public School","amenity":"school","operator":"The Delhi Public School Society","from_area":true},"geometry":{"type":"Point","coordinates":[83.13587,17.65354]}},{"type":"Feature","properties":{"osm":"w589142735","name":"vombay colony","amenity":"community_centre","building":"yes","from_area":true},"geometry":{"type":"Point","coordinates":[83.21871,17.67207]}},{"type":"Feature","properties":{"osm":"w589148409","name":"Vamana ITI","amenity":"college","from_area":true},"geometry":{"type":"Point","coordinates":[83.21087,17.66785]}},{"type":"Feature","properties":{"osm":"w608945092","name":"Yadava Samajika Bhavanam","amenity":"community_centre","building":"yes","from_area":true},"geometry":{"type":"Point","coordinates":[83.33369,17.72365]}},{"type":"Feature","properties":{"osm":"w733463631","name":"Pendurthi Govt. Junior College","amenity":"school","operator":"Andhra Pradesh Board of Intermediate Education","from_area":true},"geometry":{"type":"Point","coordinates":[83.20829,17.81092]}},{"type":"Feature","properties":{"osm":"w776651179","name":"Narayana school","amenity":"school","from_area":true},"geometry":{"type":"Point","coordinates":[83.31294,17.72353]}},{"type":"Feature","properties":{"osm":"w801664294","name":"KKR Gowtham School","amenity":"school","from_area":true},"geometry":{"type":"Point","coordinates":[83.36211,17.88973]}},{"type":"Feature","properties":{"osm":"w839771213","name":"Javahar Navodaya Vidyalaya","amenity":"school","from_area":true},"geometry":{"type":"Point","coordinates":[83.33714,17.8196]}},{"type":"Feature","properties":{"osm":"w839774006","name":"Gayatri College Of Engineering for Women","amenity":"college","from_area":true},"geometry":{"type":"Point","coordinates":[83.34963,17.82119]}},{"type":"Feature","properties":{"osm":"w839774780","name":"APTWSR Gurukulam Prathibha Junior College","amenity":"school","from_area":true},"geometry":{"type":"Point","coordinates":[83.35481,17.83373]}},{"type":"Feature","properties":{"osm":"w875038842","name":"Ameya World School","amenity":"school","from_area":true},"geometry":{"type":"Point","coordinates":[83.42801,17.9092]}},{"type":"Feature","properties":{"osm":"w902588734","name":"Viswateja","amenity":"school","building":"yes","from_area":true},"geometry":{"type":"Point","coordinates":[83.28953,17.73322]}},{"type":"Feature","properties":{"osm":"w971286109","name":"KNM Girls High School","amenity":"school","from_area":true},"geometry":{"type":"Point","coordinates":[83.29581,17.72863]}},{"type":"Feature","properties":{"osm":"w974669399","name":"Dr.B.R.Ambedhkar Kalakshetram","amenity":"community_centre","from_area":true},"geometry":{"type":"Point","coordinates":[83.15483,17.65526]}},{"type":"Feature","properties":{"osm":"w974669403","name":"Dr. B.R.Ambedkar Kalakshetram Event hall","amenity":"community_centre","building":"yes","from_area":true},"geometry":{"type":"Point","coordinates":[83.15486,17.65535]}},{"type":"Feature","properties":{"osm":"w974991784","name":"Visakha Vimala Vidyalayam School","amenity":"school","from_area":true},"geometry":{"type":"Point","coordinates":[83.15427,17.65838]}},{"type":"Feature","properties":{"osm":"w975033585","name":"De Paul School","amenity":"school","from_area":true},"geometry":{"type":"Point","coordinates":[83.13689,17.6563]}},{"type":"Feature","properties":{"osm":"w976874612","name":"Jyothi Bala Vihar","amenity":"school","from_area":true},"geometry":{"type":"Point","coordinates":[83.15516,17.65404]}},{"type":"Feature","properties":{"osm":"w1009097287","name":"Dr.KKR Gowtham Concept School play ground","amenity":"school","from_area":true},"geometry":{"type":"Point","coordinates":[83.15939,17.6852]}},{"type":"Feature","properties":{"osm":"w1060195349","name":"Pydah Engineering College","amenity":"college","from_area":true},"geometry":{"type":"Point","coordinates":[83.36751,17.87529]}},{"type":"Feature","properties":{"osm":"w1087472059","amenity":"shelter","building":"yes","from_area":true},"geometry":{"type":"Point","coordinates":[83.41577,17.85562]}},{"type":"Feature","properties":{"osm":"w1087472060","amenity":"shelter","building":"yes","from_area":true},"geometry":{"type":"Point","coordinates":[83.41587,17.85566]}},{"type":"Feature","properties":{"osm":"w1088328804","amenity":"shelter","building":"yes","from_area":true},"geometry":{"type":"Point","coordinates":[83.22356,17.72888]}},{"type":"Feature","properties":{"osm":"w1106495916","amenity":"school","from_area":true},"geometry":{"type":"Point","coordinates":[83.2846,17.71964]}},{"type":"Feature","properties":{"osm":"w1106495918","name":"St. Joseph's College for Women","amenity":"college","from_area":true},"geometry":{"type":"Point","coordinates":[83.28763,17.71879]}},{"type":"Feature","properties":{"osm":"w1161965186","name":"Gayatri Vidya Parishad","amenity":"college","from_area":true},"geometry":{"type":"Point","coordinates":[83.33538,17.74055]}},{"type":"Feature","properties":{"osm":"w1233292935","amenity":"shelter","building":"yes","from_area":true},"geometry":{"type":"Point","coordinates":[83.18659,17.89104]}},{"type":"Feature","properties":{"osm":"w1234588684","amenity":"shelter","operator":"APSRTC","building":"yes","from_area":true},"geometry":{"type":"Point","coordinates":[83.24391,17.74096]}},{"type":"Feature","properties":{"osm":"w1234588685","amenity":"shelter","building":"yes","from_area":true},"geometry":{"type":"Point","coordinates":[83.24957,17.74043]}},{"type":"Feature","properties":{"osm":"w1234588686","amenity":"shelter","building":"yes","from_area":true},"geometry":{"type":"Point","coordinates":[83.24952,17.74031]}},{"type":"Feature","properties":{"osm":"w1234588687","amenity":"shelter","building":"yes","from_area":true},"geometry":{"type":"Point","coordinates":[83.25645,17.73896]}},{"type":"Feature","properties":{"osm":"w1234588688","amenity":"shelter","building":"yes","from_area":true},"geometry":{"type":"Point","coordinates":[83.257,17.73895]}},{"type":"Feature","properties":{"osm":"w1234588689","amenity":"shelter","building":"yes","from_area":true},"geometry":{"type":"Point","coordinates":[83.26383,17.73682]}},{"type":"Feature","properties":{"osm":"w1234588690","amenity":"shelter","building":"yes","from_area":true},"geometry":{"type":"Point","coordinates":[83.26542,17.73629]}},{"type":"Feature","properties":{"osm":"w1234591017","name":"Kasturiba Gandhi School","amenity":"school","from_area":true},"geometry":{"type":"Point","coordinates":[83.1861,17.919]}},{"type":"Feature","properties":{"osm":"w1236631886","name":"Nadimpalli Satyanarayana Raju Institute of Technology","amenity":"college","from_area":true},"geometry":{"type":"Point","coordinates":[83.29594,17.87038]}},{"type":"Feature","properties":{"osm":"w1237325526","name":"Kothavalasa Government High School","amenity":"school","from_area":true},"geometry":{"type":"Point","coordinates":[83.19181,17.9031]}},{"type":"Feature","properties":{"osm":"w1241630592","name":"Government Junior College Kothavalasa","amenity":"college","operator":"Board of Intermediate Education, Andhra Pradesh","from_area":true},"geometry":{"type":"Point","coordinates":[83.20009,17.90955]}},{"type":"Feature","properties":{"osm":"w1242948463","name":"Government Primary School","amenity":"school","from_area":true},"geometry":{"type":"Point","coordinates":[83.18573,17.90932]}},{"type":"Feature","properties":{"osm":"w1247077899","name":"St. John's Regional Seminary","amenity":"college","from_area":true},"geometry":{"type":"Point","coordinates":[83.15241,17.89897]}},{"type":"Feature","properties":{"osm":"w1247537846","amenity":"shelter","building":"yes","from_area":true},"geometry":{"type":"Point","coordinates":[83.20477,17.82266]}},{"type":"Feature","properties":{"osm":"w1247537847","amenity":"shelter","building":"yes","from_area":true},"geometry":{"type":"Point","coordinates":[83.20485,17.82293]}},{"type":"Feature","properties":{"osm":"w1247537959","amenity":"shelter","building":"yes","from_area":true},"geometry":{"type":"Point","coordinates":[83.21647,17.77511]}},{"type":"Feature","properties":{"osm":"w1247537968","name":"MPP School","amenity":"school","from_area":true},"geometry":{"type":"Point","coordinates":[83.21649,17.7779]}},{"type":"Feature","properties":{"osm":"w1247537969","amenity":"shelter","building":"yes","from_area":true},"geometry":{"type":"Point","coordinates":[83.21636,17.77709]}},{"type":"Feature","properties":{"osm":"w1247537978","amenity":"shelter","building":"yes","from_area":true},"geometry":{"type":"Point","coordinates":[83.21933,17.77506]}},{"type":"Feature","properties":{"osm":"w1247537981","amenity":"shelter","building":"yes","from_area":true},"geometry":{"type":"Point","coordinates":[83.21931,17.77489]}},{"type":"Feature","properties":{"osm":"w1249184681","name":"Sri Krishna Vidya Mandir","amenity":"school","from_area":true},"geometry":{"type":"Point","coordinates":[83.30687,17.72834]}},{"type":"Feature","properties":{"osm":"w1249191318","amenity":"shelter","building":"yes","from_area":true},"geometry":{"type":"Point","coordinates":[83.31149,17.72772]}},{"type":"Feature","properties":{"osm":"w1254795726","name":"AP Model School and Junior College","amenity":"school","from_area":true},"geometry":{"type":"Point","coordinates":[83.20676,17.92026]}},{"type":"Feature","properties":{"osm":"w1262057188","amenity":"shelter","building":"yes","from_area":true},"geometry":{"type":"Point","coordinates":[83.24267,17.74095]}},{"type":"Feature","properties":{"osm":"w1262057192","amenity":"shelter","building":"yes","from_area":true},"geometry":{"type":"Point","coordinates":[83.27098,17.73501]}},{"type":"Feature","properties":{"osm":"w1262057193","amenity":"shelter","building":"yes","from_area":true},"geometry":{"type":"Point","coordinates":[83.27239,17.7345]}},{"type":"Feature","properties":{"osm":"w1262057194","amenity":"shelter","building":"yes","from_area":true},"geometry":{"type":"Point","coordinates":[83.27756,17.7326]}},{"type":"Feature","properties":{"osm":"w1262057201","amenity":"shelter","building":"yes","from_area":true},"geometry":{"type":"Point","coordinates":[83.28758,17.71986]}},{"type":"Feature","properties":{"osm":"w1262057202","amenity":"shelter","building":"yes","from_area":true},"geometry":{"type":"Point","coordinates":[83.28699,17.72109]}},{"type":"Feature","properties":{"osm":"w1262057203","amenity":"shelter","building":"yes","from_area":true},"geometry":{"type":"Point","coordinates":[83.28902,17.71794]}},{"type":"Feature","properties":{"osm":"w1262057204","amenity":"shelter","building":"yes","from_area":true},"geometry":{"type":"Point","coordinates":[83.28916,17.71801]}},{"type":"Feature","properties":{"osm":"w1262252856","amenity":"shelter","building":"yes","from_area":true},"geometry":{"type":"Point","coordinates":[83.2088,17.80635]}},{"type":"Feature","properties":{"osm":"w1262252857","amenity":"shelter","building":"yes","from_area":true},"geometry":{"type":"Point","coordinates":[83.20863,17.80639]}},{"type":"Feature","properties":{"osm":"w1262252858","amenity":"shelter","building":"yes","from_area":true},"geometry":{"type":"Point","coordinates":[83.20759,17.81094]}},{"type":"Feature","properties":{"osm":"w1262252859","amenity":"shelter","building":"yes","from_area":true},"geometry":{"type":"Point","coordinates":[83.20711,17.81218]}},{"type":"Feature","properties":{"osm":"w1262252860","amenity":"shelter","building":"yes","from_area":true},"geometry":{"type":"Point","coordinates":[83.21053,17.79983]}},{"type":"Feature","properties":{"osm":"w1262252861","amenity":"shelter","building":"yes","from_area":true},"geometry":{"type":"Point","coordinates":[83.21071,17.79864]}},{"type":"Feature","properties":{"osm":"w1262252862","amenity":"shelter","building":"yes","from_area":true},"geometry":{"type":"Point","coordinates":[83.21304,17.79035]}},{"type":"Feature","properties":{"osm":"w1262252863","amenity":"shelter","building":"yes","from_area":true},"geometry":{"type":"Point","coordinates":[83.21273,17.79097]}},{"type":"Feature","properties":{"osm":"w1262252865","amenity":"shelter","building":"yes","from_area":true},"geometry":{"type":"Point","coordinates":[83.21715,17.76926]}},{"type":"Feature","properties":{"osm":"w1262252866","amenity":"shelter","building":"yes","from_area":true},"geometry":{"type":"Point","coordinates":[83.21702,17.76832]}},{"type":"Feature","properties":{"osm":"w1262252867","amenity":"shelter","building":"yes","from_area":true},"geometry":{"type":"Point","coordinates":[83.2177,17.75276]}},{"type":"Feature","properties":{"osm":"w1262252869","amenity":"shelter","building":"yes","from_area":true},"geometry":{"type":"Point","coordinates":[83.21789,17.7511]}},{"type":"Feature","properties":{"osm":"w1262252870","amenity":"shelter","building":"yes","from_area":true},"geometry":{"type":"Point","coordinates":[83.21884,17.74929]}},{"type":"Feature","properties":{"osm":"w1262252871","amenity":"shelter","building":"yes","from_area":true},"geometry":{"type":"Point","coordinates":[83.22799,17.74413]}},{"type":"Feature","properties":{"osm":"w1262252872","amenity":"shelter","building":"yes","from_area":true},"geometry":{"type":"Point","coordinates":[83.22884,17.74385]}},{"type":"Feature","properties":{"osm":"w1262252873","amenity":"shelter","building":"yes","from_area":true},"geometry":{"type":"Point","coordinates":[83.23291,17.74353]}},{"type":"Feature","properties":{"osm":"w1262252874","amenity":"shelter","building":"yes","from_area":true},"geometry":{"type":"Point","coordinates":[83.23777,17.742]}},{"type":"Feature","properties":{"osm":"w1262252875","amenity":"shelter","building":"yes","from_area":true},"geometry":{"type":"Point","coordinates":[83.23807,17.74183]}},{"type":"Feature","properties":{"osm":"w1262252876","amenity":"shelter","building":"yes","from_area":true},"geometry":{"type":"Point","coordinates":[83.22672,17.77434]}},{"type":"Feature","properties":{"osm":"w1262252877","amenity":"shelter","building":"yes","from_area":true},"geometry":{"type":"Point","coordinates":[83.22832,17.77406]}},{"type":"Feature","properties":{"osm":"w1262252878","amenity":"shelter","building":"yes","from_area":true},"geometry":{"type":"Point","coordinates":[83.23298,17.77228]}},{"type":"Feature","properties":{"osm":"w1262252879","amenity":"shelter","building":"yes","from_area":true},"geometry":{"type":"Point","coordinates":[83.23469,17.77186]}},{"type":"Feature","properties":{"osm":"w1263821791","amenity":"shelter","building":"yes","from_area":true},"geometry":{"type":"Point","coordinates":[83.31589,17.73077]}},{"type":"Feature","properties":{"osm":"w1264634809","amenity":"shelter","building":"yes","from_area":true},"geometry":{"type":"Point","coordinates":[83.31806,17.7112]}},{"type":"Feature","properties":{"osm":"w1264634810","amenity":"shelter","building":"yes","from_area":true},"geometry":{"type":"Point","coordinates":[83.31817,17.71122]}},{"type":"Feature","properties":{"osm":"w1264634811","amenity":"shelter","building":"yes","from_area":true},"geometry":{"type":"Point","coordinates":[83.31827,17.71127]}},{"type":"Feature","properties":{"osm":"w1264634812","amenity":"shelter","building":"yes","from_area":true},"geometry":{"type":"Point","coordinates":[83.31836,17.71133]}},{"type":"Feature","properties":{"osm":"w1264634813","amenity":"shelter","building":"yes","from_area":true},"geometry":{"type":"Point","coordinates":[83.31843,17.71141]}},{"type":"Feature","properties":{"osm":"w1265069470","amenity":"shelter","building":"yes","from_area":true},"geometry":{"type":"Point","coordinates":[83.29073,17.72285]}},{"type":"Feature","properties":{"osm":"w1265186467","amenity":"shelter","building":"yes","from_area":true},"geometry":{"type":"Point","coordinates":[83.33157,17.71829]}},{"type":"Feature","properties":{"osm":"w1265186468","amenity":"shelter","building":"yes","from_area":true},"geometry":{"type":"Point","coordinates":[83.33147,17.71824]}},{"type":"Feature","properties":{"osm":"w1266360182","amenity":"shelter","building":"yes","from_area":true},"geometry":{"type":"Point","coordinates":[83.30609,17.76198]}},{"type":"Feature","properties":{"osm":"w1266360192","amenity":"shelter","building":"yes","from_area":true},"geometry":{"type":"Point","coordinates":[83.32195,17.75915]}},{"type":"Feature","properties":{"osm":"w1266360193","amenity":"shelter","building":"yes","from_area":true},"geometry":{"type":"Point","coordinates":[83.32003,17.7597]}},{"type":"Feature","properties":{"osm":"w1270407445","name":"Alluri Sitaramaraju Vignana Kendram","amenity":"community_centre","building":"yes","from_area":true},"geometry":{"type":"Point","coordinates":[83.30425,17.71773]}},{"type":"Feature","properties":{"osm":"w1270688765","amenity":"shelter","building":"yes","from_area":true},"geometry":{"type":"Point","coordinates":[83.30792,17.72407]}},{"type":"Feature","properties":{"osm":"w1272460945","amenity":"shelter","building":"yes","from_area":true},"geometry":{"type":"Point","coordinates":[83.33885,17.72611]}},{"type":"Feature","properties":{"osm":"w1274787077","name":"SubhaVedha EM school","amenity":"school","from_area":true},"geometry":{"type":"Point","coordinates":[83.22337,17.76182]}},{"type":"Feature","properties":{"osm":"w1276716474","amenity":"shelter","building":"yes","from_area":true},"geometry":{"type":"Point","coordinates":[83.27252,17.77631]}},{"type":"Feature","properties":{"osm":"w1276716477","amenity":"shelter","building":"yes","from_area":true},"geometry":{"type":"Point","coordinates":[83.28138,17.77044]}},{"type":"Feature","properties":{"osm":"w1276716478","amenity":"shelter","building":"yes","from_area":true},"geometry":{"type":"Point","coordinates":[83.28709,17.76679]}},{"type":"Feature","properties":{"osm":"w1276716523","name":"Sri Chaitanya Junior College","amenity":"college","from_area":true},"geometry":{"type":"Point","coordinates":[83.23359,17.74267]}},{"type":"Feature","properties":{"osm":"w1297653215","name":"zilla parishad high school","amenity":"school","from_area":true},"geometry":{"type":"Point","coordinates":[83.35609,17.81826]}},{"type":"Feature","properties":{"osm":"w1306486820","name":"SVLN ZP High School","amenity":"school","from_area":true},"geometry":{"type":"Point","coordinates":[83.21777,17.75007]}},{"type":"Feature","properties":{"osm":"w1306593579","name":"Government Ground","amenity":"school","operator":"Public","from_area":true},"geometry":{"type":"Point","coordinates":[83.12389,17.69182]}},{"type":"Feature","properties":{"osm":"w1318055282","name":"Gayatri Vidhya Parishad College of engineering","amenity":"college","from_area":true},"geometry":{"type":"Point","coordinates":[83.3431,17.82047]}},{"type":"Feature","properties":{"osm":"w1318810223","amenity":"school","from_area":true},"geometry":{"type":"Point","coordinates":[83.21249,17.7913]}},{"type":"Feature","properties":{"osm":"w1318810228","name":"High Fields School","amenity":"school","operator":"Balaji","from_area":true},"geometry":{"type":"Point","coordinates":[83.21321,17.78748]}},{"type":"Feature","properties":{"osm":"w1319192431","name":"Sri Chaitanya School","amenity":"school","from_area":true},"geometry":{"type":"Point","coordinates":[83.20683,17.81773]}},{"type":"Feature","properties":{"osm":"w1319192448","name":"Sri Prakash","amenity":"school","from_area":true},"geometry":{"type":"Point","coordinates":[83.20864,17.81895]}},{"type":"Feature","properties":{"osm":"w1319192482","name":"Alwardas Polytechnic","amenity":"college","from_area":true},"geometry":{"type":"Point","coordinates":[83.21798,17.75756]}},{"type":"Feature","properties":{"osm":"w1319192483","name":"Alwardas School","amenity":"school","from_area":true},"geometry":{"type":"Point","coordinates":[83.21825,17.75705]}},{"type":"Feature","properties":{"osm":"w1320025436","name":"Mahathi","amenity":"school","from_area":true},"geometry":{"type":"Point","coordinates":[83.21269,17.78999]}},{"type":"Feature","properties":{"osm":"w1322638104","name":"BR Ambedkar Gurukulam","amenity":"school","from_area":true},"geometry":{"type":"Point","coordinates":[83.19886,17.76003]}},{"type":"Feature","properties":{"osm":"w1322638127","name":"ZPHS School","amenity":"school","from_area":true},"geometry":{"type":"Point","coordinates":[83.20108,17.76124]}},{"type":"Feature","properties":{"osm":"w1322638129","name":"Bhashyam School","amenity":"school","from_area":true},"geometry":{"type":"Point","coordinates":[83.21214,17.76646]}},{"type":"Feature","properties":{"osm":"w1324936050","amenity":"school","from_area":true},"geometry":{"type":"Point","coordinates":[83.23075,17.64373]}},{"type":"Feature","properties":{"osm":"w1329042441","name":"V.B.V High School","amenity":"school","from_area":true},"geometry":{"type":"Point","coordinates":[83.30854,17.73729]}},{"type":"Feature","properties":{"osm":"w1329042442","name":"NMC High School","amenity":"school","from_area":true},"geometry":{"type":"Point","coordinates":[83.31022,17.73681]}},{"type":"Feature","properties":{"osm":"w1338621541","name":"Thothagaruvu ZPHS Government school","amenity":"school","from_area":true},"geometry":{"type":"Point","coordinates":[83.3215,17.76187]}},{"type":"Feature","properties":{"osm":"w1340247085","name":"Queen Marys Government Girls High School","amenity":"school","from_area":true},"geometry":{"type":"Point","coordinates":[83.2915,17.69381]}},{"type":"Feature","properties":{"osm":"w1344521609","name":"Government Polytechnic","amenity":"college","from_area":true},"geometry":{"type":"Point","coordinates":[83.26896,17.73982]}},{"type":"Feature","properties":{"osm":"w1344815260","name":"Timpany School","amenity":"school","from_area":true},"geometry":{"type":"Point","coordinates":[83.3124,17.72612]}},{"type":"Feature","properties":{"osm":"w1345119404","amenity":"school","from_area":true},"geometry":{"type":"Point","coordinates":[83.40435,17.81494]}},{"type":"Feature","properties":{"osm":"w1345119405","amenity":"school","from_area":true},"geometry":{"type":"Point","coordinates":[83.39751,17.81868]}},{"type":"Feature","properties":{"osm":"w1345126573","name":"BITS Vizag","amenity":"college","from_area":true},"geometry":{"type":"Point","coordinates":[83.33272,17.81211]}},{"type":"Feature","properties":{"osm":"w1345129899","name":"Sri Chaitanya College","amenity":"school","from_area":true},"geometry":{"type":"Point","coordinates":[83.33412,17.8292]}},{"type":"Feature","properties":{"osm":"w1345129909","name":"Chaitanya College","amenity":"college","from_area":true},"geometry":{"type":"Point","coordinates":[83.3281,17.83529]}},{"type":"Feature","properties":{"osm":"w1345147748","name":"Govt ITI","amenity":"college","from_area":true},"geometry":{"type":"Point","coordinates":[83.26834,17.73703]}},{"type":"Feature","properties":{"osm":"w1345147749","name":"Government Institute Of Chemical Engineering","amenity":"college","from_area":true},"geometry":{"type":"Point","coordinates":[83.26748,17.7383]}},{"type":"Feature","properties":{"osm":"w1345389674","amenity":"college","from_area":true},"geometry":{"type":"Point","coordinates":[83.25789,17.72599]}},{"type":"Feature","properties":{"osm":"w1345392776","name":"Daffodils School","amenity":"school","building":"school","from_area":true},"geometry":{"type":"Point","coordinates":[83.24597,17.75068]}},{"type":"Feature","properties":{"osm":"w1345399592","name":"Saint Ann's School Grounds","amenity":"school","from_area":true},"geometry":{"type":"Point","coordinates":[83.23267,17.74481]}},{"type":"Feature","properties":{"osm":"w1346674701","amenity":"school","from_area":true},"geometry":{"type":"Point","coordinates":[83.35642,17.83446]}},{"type":"Feature","properties":{"osm":"w1346680731","amenity":"school","from_area":true},"geometry":{"type":"Point","coordinates":[83.35899,17.79258]}},{"type":"Feature","properties":{"osm":"w1346836031","name":"Vijayam School","amenity":"school","from_area":true},"geometry":{"type":"Point","coordinates":[83.34931,17.82529]}},{"type":"Feature","properties":{"osm":"w1346836032","name":"APSWR Centre of Excellence","amenity":"school","from_area":true},"geometry":{"type":"Point","coordinates":[83.35004,17.81961]}},{"type":"Feature","properties":{"osm":"w1346836337","amenity":"college","from_area":true},"geometry":{"type":"Point","coordinates":[83.34835,17.79788]}},{"type":"Feature","properties":{"osm":"w1346852857","name":"Gitam Medical College","amenity":"college","from_area":true},"geometry":{"type":"Point","coordinates":[83.37609,17.78501]}},{"type":"Feature","properties":{"osm":"w1346852860","amenity":"school","from_area":true},"geometry":{"type":"Point","coordinates":[83.379,17.78733]}},{"type":"Feature","properties":{"osm":"w1347061016","name":"Yalamarty Colleges","amenity":"college","from_area":true},"geometry":{"type":"Point","coordinates":[83.33406,17.89957]}},{"type":"Feature","properties":{"osm":"w1347061026","name":"QJ Centre College  For PG Studies","amenity":"college","from_area":true},"geometry":{"type":"Point","coordinates":[83.33884,17.88119]}},{"type":"Feature","properties":{"osm":"w1347061033","name":"Viswanadha institute of pharmaceutical sciences , Visakhapatnam","amenity":"college","from_area":true},"geometry":{"type":"Point","coordinates":[83.30939,17.87232]}},{"type":"Feature","properties":{"osm":"w1347485935","name":"Vagdevi Degree and PG College","amenity":"college","from_area":true},"geometry":{"type":"Point","coordinates":[83.18683,17.90662]}},{"type":"Feature","properties":{"osm":"w1355303455","amenity":"college","from_area":true},"geometry":{"type":"Point","coordinates":[83.17365,17.75129]}},{"type":"Feature","properties":{"osm":"w1355303463","amenity":"college","from_area":true},"geometry":{"type":"Point","coordinates":[83.18175,17.75282]}},{"type":"Feature","properties":{"osm":"w1355591102","name":"Vignan","amenity":"college","from_area":true},"geometry":{"type":"Point","coordinates":[83.16578,17.71124]}},{"type":"Feature","properties":{"osm":"w1356624315","name":"Kendriya Vidyalaya Waltair","amenity":"school","from_area":true},"geometry":{"type":"Point","coordinates":[83.29334,17.73624]}},{"type":"Feature","properties":{"osm":"w1356740075","amenity":"college","from_area":true},"geometry":{"type":"Point","coordinates":[83.29603,17.8909]}},{"type":"Feature","properties":{"osm":"w1362869461","name":"Oak","amenity":"school","from_area":true},"geometry":{"type":"Point","coordinates":[83.19827,17.67565]}},{"type":"Feature","properties":{"osm":"w1362869462","name":"ETASI Timpany Steel City School","amenity":"school","from_area":true},"geometry":{"type":"Point","coordinates":[83.19728,17.67572]}},{"type":"Feature","properties":{"osm":"w1362873513","amenity":"school","from_area":true},"geometry":{"type":"Point","coordinates":[83.20226,17.66618]}},{"type":"Feature","properties":{"osm":"w1364201584","amenity":"college","from_area":true},"geometry":{"type":"Point","coordinates":[83.21977,17.83009]}},{"type":"Feature","properties":{"osm":"w1383032685","amenity":"school","from_area":true},"geometry":{"type":"Point","coordinates":[83.18224,17.893]}},{"type":"Feature","properties":{"osm":"w1383032688","name":"Government High School","amenity":"school","from_area":true},"geometry":{"type":"Point","coordinates":[83.16799,17.8614]}},{"type":"Feature","properties":{"osm":"w1386974138","name":"Mrs. A. V. N. College","amenity":"college","from_area":true},"geometry":{"type":"Point","coordinates":[83.3012,17.70438]}},{"type":"Feature","properties":{"osm":"w1389777706","name":"St Aloysius' Anglo-Indian High School","amenity":"school","from_area":true},"geometry":{"type":"Point","coordinates":[83.29336,17.69231]}},{"type":"Feature","properties":{"osm":"w1389777709","name":"Fort Catholic Girls School","amenity":"school","from_area":true},"geometry":{"type":"Point","coordinates":[83.29267,17.69279]}},{"type":"Feature","properties":{"osm":"w1390655434","name":"sun institution","amenity":"college","from_area":true},"geometry":{"type":"Point","coordinates":[83.36368,17.769]}},{"type":"Feature","properties":{"osm":"w1410355415","name":"Govt High School","amenity":"school","operator":"Andhra Pradesh Board of Secondary Education","from_area":true},"geometry":{"type":"Point","coordinates":[83.20806,17.81183]}},{"type":"Feature","properties":{"osm":"w1410364470","name":"St. Brigid's Convent","amenity":"school","from_area":true},"geometry":{"type":"Point","coordinates":[83.29419,17.69437]}},{"type":"Feature","properties":{"osm":"w1411933074","name":"Balaji School","amenity":"school","from_area":true},"geometry":{"type":"Point","coordinates":[83.21967,17.75577]}},{"type":"Feature","properties":{"osm":"w1413181606","name":"IIAM","amenity":"college","from_area":true},"geometry":{"type":"Point","coordinates":[83.33696,17.74143]}},{"type":"Feature","properties":{"osm":"w1413181621","name":"Ralla Bella","amenity":"school","from_area":true},"geometry":{"type":"Point","coordinates":[83.33103,17.74362]}},{"type":"Feature","properties":{"osm":"w1413545204","name":"Silver Oaks International School - Kommadi Campus","amenity":"school","from_area":true},"geometry":{"type":"Point","coordinates":[83.33436,17.8278]}},{"type":"Feature","properties":{"osm":"w1414032417","name":"Samajika Bhavanam","amenity":"community_centre","building":"yes","from_area":true},"geometry":{"type":"Point","coordinates":[83.29417,17.70096]}},{"type":"Feature","properties":{"osm":"w1416031112","amenity":"school","from_area":true},"geometry":{"type":"Point","coordinates":[83.25912,17.73755]}},{"type":"Feature","properties":{"osm":"w1421742306","name":"Government Girls Welfare School","amenity":"school","from_area":true},"geometry":{"type":"Point","coordinates":[83.44814,17.88351]}},{"type":"Feature","properties":{"osm":"w1421751162","name":"Sri Chaitanya Educational Institutions","amenity":"school","from_area":true},"geometry":{"type":"Point","coordinates":[83.35031,17.80359]}},{"type":"Feature","properties":{"osm":"w1421751169","amenity":"community_centre","building":"yes","from_area":true},"geometry":{"type":"Point","coordinates":[83.34138,17.8049]}},{"type":"Feature","properties":{"osm":"w1421751172","name":"Bethany School","amenity":"school","from_area":true},"geometry":{"type":"Point","coordinates":[83.34562,17.80478]}},{"type":"Feature","properties":{"osm":"w1423828456","name":"vishwa bharathi school","amenity":"school","from_area":true},"geometry":{"type":"Point","coordinates":[83.35069,17.82254]}},{"type":"Feature","properties":{"osm":"w1424809948","name":"B.V.K. College","amenity":"college","from_area":true},"geometry":{"type":"Point","coordinates":[83.30605,17.72937]}},{"type":"Feature","properties":{"osm":"w1424978975","name":"Sri Krishna Vidya Mandir Primary School","amenity":"school","from_area":true},"geometry":{"type":"Point","coordinates":[83.30366,17.73083]}},{"type":"Feature","properties":{"osm":"w1451725178","name":"Andhra Pradesh Human Resource Development Institute Regional Centre","amenity":"college","from_area":true},"geometry":{"type":"Point","coordinates":[83.29788,17.69689]}},{"type":"Feature","properties":{"osm":"w1451725190","name":"Central Institute of Fisheries Nautical & Engineering Training","amenity":"college","from_area":true},"geometry":{"type":"Point","coordinates":[83.30288,17.70091]}},{"type":"Feature","properties":{"osm":"w1452314723","name":"Raviki's Little Champs School","amenity":"school","from_area":true},"geometry":{"type":"Point","coordinates":[83.24824,17.75016]}},{"type":"Feature","properties":{"osm":"w1452314725","name":"Mandapam VUDA Colony Community Hall","amenity":"community_centre","building":"yes","from_area":true},"geometry":{"type":"Point","coordinates":[83.24995,17.75042]}},{"type":"Feature","properties":{"osm":"w1452314732","name":"Delhi Public School","amenity":"school","building":"yes","from_area":true},"geometry":{"type":"Point","coordinates":[83.25763,17.74885]}},{"type":"Feature","properties":{"osm":"w1460423830","name":"D.A.V. School","amenity":"school","from_area":true},"geometry":{"type":"Point","coordinates":[83.2306,17.74684]}},{"type":"Feature","properties":{"osm":"w1463785601","name":"AU High School","amenity":"school","from_area":true},"geometry":{"type":"Point","coordinates":[83.32781,17.71969]}},{"type":"Feature","properties":{"osm":"w1473354171","name":"Gnanodaya RCM School","amenity":"school","from_area":true},"geometry":{"type":"Point","coordinates":[83.15737,17.9008]}},{"type":"Feature","properties":{"osm":"w1474506923","amenity":"school","from_area":true},"geometry":{"type":"Point","coordinates":[83.40451,17.84219]}},{"type":"Feature","properties":{"osm":"w1474506926","name":"MPP School K Dibbadipalem","amenity":"school","from_area":true},"geometry":{"type":"Point","coordinates":[83.40513,17.83894]}},{"type":"Feature","properties":{"osm":"w1474506927","name":"Sri Prakash School","amenity":"school","from_area":true},"geometry":{"type":"Point","coordinates":[83.3895,17.85549]}},{"type":"Feature","properties":{"osm":"w1477349484","name":"Nyaya Vidya Parishad Law College \u0c0e\u0c28\u0c4d. \u0c35\u0c40. \u0c2a\u0c40. \u0c32\u0c3e \u0c15\u0c3e\u0c32\u0c47\u0c1c\u0c4d","amenity":"college","from_area":true},"geometry":{"type":"Point","coordinates":[83.35593,17.79259]}},{"type":"Feature","properties":{"osm":"w1478725005","name":"Government Polytechnic For Women, Bheemunipatnam","amenity":"college","from_area":true},"geometry":{"type":"Point","coordinates":[83.43966,17.8844]}},{"type":"Feature","properties":{"osm":"w1493958819","name":"St. Anns High School","amenity":"school","from_area":true},"geometry":{"type":"Point","coordinates":[83.18571,17.86816]}},{"type":"Feature","properties":{"osm":"w1494525232","amenity":"school","from_area":true},"geometry":{"type":"Point","coordinates":[83.31784,17.76844]}},{"type":"Feature","properties":{"osm":"w1497996653","name":"Bharat Defence Academy","amenity":"school","from_area":true},"geometry":{"type":"Point","coordinates":[83.1932,17.9049]}},{"type":"Feature","properties":{"osm":"w1509506776","name":"Mandal Parishad Primary School","amenity":"school","from_area":true},"geometry":{"type":"Point","coordinates":[83.24527,17.77343]}},{"type":"Feature","properties":{"osm":"w1512706607","amenity":"school","from_area":true},"geometry":{"type":"Point","coordinates":[83.31338,17.73666]}},{"type":"Feature","properties":{"osm":"w1518081088","amenity":"college","from_area":true},"geometry":{"type":"Point","coordinates":[83.32487,17.88102]}},{"type":"Feature","properties":{"osm":"w1530110434","name":"AU Marine Sciences","amenity":"college","from_area":true},"geometry":{"type":"Point","coordinates":[83.32561,17.71939]}},{"type":"Feature","properties":{"osm":"w1544074448","name":"Vizag Town Hall","amenity":"community_centre","building":"yes","from_area":true},"geometry":{"type":"Point","coordinates":[83.29857,17.69743]}}]}