{"type":"FeatureCollection","features":[{"type":"Feature","properties":{"osm":"w241951853","name":"Vizag B2B HVDC Station","power":"substation","voltage":"400000;220000","substation":"converter","from_area":true},"geometry":{"type":"Point","coordinates":[83.13244,17.63983]}},{"type":"Feature","properties":{"osm":"w241951867","name:en":"Vizag Steel Captive Power Plant-I","power":"plant","from_area":true},"geometry":{"type":"Point","coordinates":[83.1958,17.60465]}},{"type":"Feature","properties":{"osm":"w241951885","name":"Pendurthi Sub Station","power":"substation","voltage":"220000;132000","substation":"transmission","from_area":true},"geometry":{"type":"Point","coordinates":[83.22826,17.82946]}},{"type":"Feature","properties":{"osm":"w241951895","name":"Gajuwaka Sub Station","power":"substation","voltage":"220000;132000","building":"substation","substation":"transmission","from_area":true},"geometry":{"type":"Point","coordinates":[83.20796,17.69356]}},{"type":"Feature","properties":{"osm":"w241951896","name":"Kalpaka","power":"substation","voltage":"400000;220000","substation":"transmission","from_area":true},"geometry":{"type":"Point","coordinates":[83.12049,17.61278]}},{"type":"Feature","properties":{"osm":"w241951908","power":"substation","voltage":"132000","substation":"traction","from_area":true},"geometry":{"type":"Point","coordinates":[83.21131,17.75151]}},{"type":"Feature","properties":{"osm":"w241951909","power":"substation","from_area":true},"geometry":{"type":"Point","coordinates":[83.23771,17.84586]}},{"type":"Feature","properties":{"osm":"w241951912","power":"substation","from_area":true},"geometry":{"type":"Point","coordinates":[83.19637,17.60343]}},{"type":"Feature","properties":{"osm":"w241951917","power":"substation","voltage":"220000","from_area":true},"geometry":{"type":"Point","coordinates":[83.18062,17.61814]}},{"type":"Feature","properties":{"osm":"w241951919","power":"substation","from_area":true},"geometry":{"type":"Point","coordinates":[83.18481,17.62532]}},{"type":"Feature","properties":{"osm":"w241951935","power":"substation","voltage":"220000","from_area":true},"geometry":{"type":"Point","coordinates":[83.16904,17.62647]}},{"type":"Feature","properties":{"osm":"w241951937","name":"Simhachalam Sub Station","power":"substation","voltage":"220000;132000","substation":"transmission","from_area":true},"geometry":{"type":"Point","coordinates":[83.21985,17.75946]}},{"type":"Feature","properties":{"osm":"w241951944","power":"substation","from_area":true},"geometry":{"type":"Point","coordinates":[83.19492,17.62005]}},{"type":"Feature","properties":{"osm":"w241951946","power":"substation","from_area":true},"geometry":{"type":"Point","coordinates":[83.28141,17.72774]}},{"type":"Feature","properties":{"osm":"w241988320","power":"substation","from_area":true},"geometry":{"type":"Point","coordinates":[83.3756,17.87926]}},{"type":"Feature","properties":{"osm":"w308274024","power":"substation","voltage":"220000","from_area":true},"geometry":{"type":"Point","coordinates":[83.17853,17.61298]}},{"type":"Feature","properties":{"osm":"w323507080","power":"substation","voltage":"132000","from_area":true},"geometry":{"type":"Point","coordinates":[83.24147,17.69945]}},{"type":"Feature","properties":{"osm":"w323507081","power":"substation","from_area":true},"geometry":{"type":"Point","coordinates":[83.25002,17.7023]}},{"type":"Feature","properties":{"osm":"w323507082","power":"substation","from_area":true},"geometry":{"type":"Point","coordinates":[83.26296,17.71487]}},{"type":"Feature","properties":{"osm":"w323507083","power":"substation","voltage":"132000","from_area":true},"geometry":{"type":"Point","coordinates":[83.23231,17.69696]}},{"type":"Feature","properties":{"osm":"w323507084","power":"substation","voltage":"132000","from_area":true},"geometry":{"type":"Point","coordinates":[83.21405,17.6959]}},{"type":"Feature","properties":{"osm":"w323507093","power":"substation","voltage":"132000","from_area":true},"geometry":{"type":"Point","coordinates":[83.27358,17.71733]}},{"type":"Feature","properties":{"osm":"w323507094","power":"substation","voltage":"132000","from_area":true},"geometry":{"type":"Point","coordinates":[83.27148,17.71503]}},{"type":"Feature","properties":{"osm":"w323507095","power":"substation","voltage":"132000","from_area":true},"geometry":{"type":"Point","coordinates":[83.25705,17.69967]}},{"type":"Feature","properties":{"osm":"w385123921","power":"substation","voltage":"132000","from_area":true},"geometry":{"type":"Point","coordinates":[83.21335,17.75802]}},{"type":"Feature","properties":{"osm":"w385123922","name:en":"Vizag Steel Captive Power Plant-II","power":"plant","from_area":true},"geometry":{"type":"Point","coordinates":[83.16566,17.61765]}},{"type":"Feature","properties":{"osm":"w385123929","power":"substation","from_area":true},"geometry":{"type":"Point","coordinates":[83.2002,17.60838]}},{"type":"Feature","properties":{"osm":"w385123931","power":"substation","from_area":true},"geometry":{"type":"Point","coordinates":[83.18978,17.85427]}},{"type":"Feature","properties":{"osm":"w402008336","power":"substation","from_area":true},"geometry":{"type":"Point","coordinates":[83.33643,17.74108]}},{"type":"Feature","properties":{"osm":"w430692467","power":"substation","from_area":true},"geometry":{"type":"Point","coordinates":[83.30709,17.7152]}},{"type":"Feature","properties":{"osm":"w471361772","name":"Pedda Waltair","power":"substation","substation":"distribution","from_area":true},"geometry":{"type":"Point","coordinates":[83.33579,17.73059]}},{"type":"Feature","properties":{"osm":"w487131991","power":"substation","from_area":true},"geometry":{"type":"Point","coordinates":[83.36047,17.84221]}},{"type":"Feature","properties":{"osm":"w661901429","power":"substation","from_area":true},"geometry":{"type":"Point","coordinates":[83.10296,17.65725]}},{"type":"Feature","properties":{"osm":"w801380979","power":"plant","from_area":true},"geometry":{"type":"Point","coordinates":[83.1924,17.5989]}},{"type":"Feature","properties":{"osm":"w801380991","power":"substation","from_area":true},"geometry":{"type":"Point","coordinates":[83.16691,17.61924]}},{"type":"Feature","properties":{"osm":"w801381007","power":"substation","from_area":true},"geometry":{"type":"Point","coordinates":[83.17587,17.70781]}},{"type":"Feature","properties":{"osm":"w801381010","power":"substation","from_area":true},"geometry":{"type":"Point","coordinates":[83.17085,17.69928]}},{"type":"Feature","properties":{"osm":"w801381013","power":"substation","from_area":true},"geometry":{"type":"Point","coordinates":[83.17482,17.69687]}},{"type":"Feature","properties":{"osm":"w801381018","power":"substation","from_area":true},"geometry":{"type":"Point","coordinates":[83.15768,17.70933]}},{"type":"Feature","properties":{"osm":"w801381019","power":"substation","from_area":true},"geometry":{"type":"Point","coordinates":[83.15447,17.70638]}},{"type":"Feature","properties":{"osm":"w801381020","power":"substation","voltage":"132000","from_area":true},"geometry":{"type":"Point","coordinates":[83.15368,17.70727]}},{"type":"Feature","properties":{"osm":"w866303074","name":"Bhimannadorapalem Sub Station","power":"substation","voltage":"220000","substation":"transmission","from_area":true},"geometry":{"type":"Point","coordinates":[83.23848,17.89201]}},{"type":"Feature","properties":{"osm":"w976874610","name":"Sub Station No.6","power":"substation","building":"yes","substation":"yes","from_area":true},"geometry":{"type":"Point","coordinates":[83.15537,17.65442]}},{"type":"Feature","properties":{"osm":"w976874611","power":"substation","building":"yes","from_area":true},"geometry":{"type":"Point","coordinates":[83.15554,17.65433]}},{"type":"Feature","properties":{"osm":"w976874615","power":"substation","building":"yes","from_area":true},"geometry":{"type":"Point","coordinates":[83.15313,17.65107]}},{"type":"Feature","properties":{"osm":"w1007116398","power":"plant","from_area":true},"geometry":{"type":"Point","coordinates":[83.27165,17.77438]}},{"type":"Feature","properties":{"osm":"w1007116601","power":"plant","from_area":true},"geometry":{"type":"Point","coordinates":[83.18325,17.66577]}},{"type":"Feature","properties":{"osm":"w1088347266","name":"Visakhapatnam Port","power":"plant","from_area":true},"geometry":{"type":"Point","coordinates":[83.25504,17.71951]}},{"type":"Feature","properties":{"osm":"w1105894455","name":"Gangavaram Port","power":"substation","voltage":"220000","substation":"industrial","from_area":true},"geometry":{"type":"Point","coordinates":[83.20754,17.659]}},{"type":"Feature","properties":{"osm":"w1106494052","power":"substation","voltage":"132000","from_area":true},"geometry":{"type":"Point","coordinates":[83.29105,17.70437]}},{"type":"Feature","properties":{"osm":"w1234105093","power":"substation","from_area":true},"geometry":{"type":"Point","coordinates":[83.18866,17.88589]}},{"type":"Feature","properties":{"osm":"w1247537902","name":"Floating Solar Plant","power":"plant","from_area":true},"geometry":{"type":"Point","coordinates":[83.18579,17.75877]}},{"type":"Feature","properties":{"osm":"w1262252845","power":"substation","from_area":true},"geometry":{"type":"Point","coordinates":[83.18363,17.91013]}},{"type":"Feature","properties":{"osm":"w1264578955","power":"plant","from_area":true},"geometry":{"type":"Point","coordinates":[83.29767,17.76575]}},{"type":"Feature","properties":{"osm":"w1266360189","power":"plant","from_area":true},"geometry":{"type":"Point","coordinates":[83.29267,17.77051]}},{"type":"Feature","properties":{"osm":"w1318810245","power":"substation","from_area":true},"geometry":{"type":"Point","coordinates":[83.19875,17.78431]}},{"type":"Feature","properties":{"osm":"w1324984983","name":"Dairy Farm Sub Station","power":"substation","voltage":"220000","substation":"transmission","from_area":true},"geometry":{"type":"Point","coordinates":[83.31407,17.76313]}},{"type":"Feature","properties":{"osm":"w1329170689","power":"plant","from_area":true},"geometry":{"type":"Point","coordinates":[83.23731,17.71476]}},{"type":"Feature","properties":{"osm":"w1329185733","power":"plant","from_area":true},"geometry":{"type":"Point","coordinates":[83.1621,17.6288]}},{"type":"Feature","properties":{"osm":"w1344514584","power":"substation","from_area":true},"geometry":{"type":"Point","coordinates":[83.292,17.73988]}},{"type":"Feature","properties":{"osm":"w1345392743","power":"substation","from_area":true},"geometry":{"type":"Point","coordinates":[83.24467,17.75094]}},{"type":"Feature","properties":{"osm":"w1346113386","power":"substation","from_area":true},"geometry":{"type":"Point","coordinates":[83.22313,17.77607]}},{"type":"Feature","properties":{"osm":"w1346836335","power":"substation","from_area":true},"geometry":{"type":"Point","coordinates":[83.34547,17.79877]}},{"type":"Feature","properties":{"osm":"w1347064525","name":"Electeical Substation , Gajuwaka","power":"substation","from_area":true},"geometry":{"type":"Point","coordinates":[83.19325,17.68312]}},{"type":"Feature","properties":{"osm":"w1355165944","power":"substation","from_area":true},"geometry":{"type":"Point","coordinates":[83.21541,17.80057]}},{"type":"Feature","properties":{"osm":"w1355303449","power":"substation","from_area":true},"geometry":{"type":"Point","coordinates":[83.18746,17.7571]}},{"type":"Feature","properties":{"osm":"w1355305865","power":"substation","from_area":true},"geometry":{"type":"Point","coordinates":[83.21428,17.73828]}},{"type":"Feature","properties":{"osm":"w1356109262","power":"substation","from_area":true},"geometry":{"type":"Point","coordinates":[83.27953,17.86236]}},{"type":"Feature","properties":{"osm":"w1367384249","power":"plant","from_area":true},"geometry":{"type":"Point","coordinates":[83.10073,17.65975]}},{"type":"Feature","properties":{"osm":"w1376322282","power":"substation","voltage":"132000","from_area":true},"geometry":{"type":"Point","coordinates":[83.27273,17.68577]}},{"type":"Feature","properties":{"osm":"w1376324157","power":"substation","voltage":"132000","substation":"traction","from_area":true},"geometry":{"type":"Point","coordinates":[83.14674,17.70089]}},{"type":"Feature","properties":{"osm":"w1423815465","name":"132/33 KV Hybrid Substation","power":"substation","voltage":"132000;33000","from_area":true},"geometry":{"type":"Point","coordinates":[83.32985,17.73001]}},{"type":"Feature","properties":{"osm":"w1457673745","name":"33/11KV Indoor Substation","power":"substation","operator":"APEPDCL","from_area":true},"geometry":{"type":"Point","coordinates":[83.33871,17.72443]}},{"type":"Feature","properties":{"osm":"w1466860389","power":"substation","from_area":true},"geometry":{"type":"Point","coordinates":[83.19059,17.69102]}},{"type":"Feature","properties":{"osm":"w1466860390","power":"substation","from_area":true},"geometry":{"type":"Point","coordinates":[83.1047,17.65801]}},{"type":"Feature","properties":{"osm":"w1466860391","power":"substation","from_area":true},"geometry":{"type":"Point","coordinates":[83.26716,17.67978]}},{"type":"Feature","properties":{"osm":"w1466860392","power":"substation","from_area":true},"geometry":{"type":"Point","coordinates":[83.25258,17.68838]}},{"type":"Feature","properties":{"osm":"w1468089877","power":"substation","from_area":true},"geometry":{"type":"Point","coordinates":[83.13393,17.91157]}},{"type":"Feature","properties":{"osm":"w1485962623","power":"substation","from_area":true},"geometry":{"type":"Point","coordinates":[83.35856,17.78246]}},{"type":"Feature","properties":{"osm":"w1494416268","power":"plant","from_area":true},"geometry":{"type":"Point","coordinates":[83.36166,17.88339]}},{"type":"Feature","properties":{"osm":"w1494525176","power":"substation","from_area":true},"geometry":{"type":"Point","coordinates":[83.219,17.81532]}},{"type":"Feature","properties":{"osm":"w1495790916","power":"substation","from_area":true},"geometry":{"type":"Point","coordinates":[83.31049,17.7151]}},{"type":"Feature","properties":{"osm":"w1495857719","power":"substation","operator":"APEPDCL","building":"yes","substation":"minor_distribution","from_area":true},"geometry":{"type":"Point","coordinates":[83.19885,17.68375]}},{"type":"Feature","properties":{"osm":"w1504085684","power":"plant","from_area":true},"geometry":{"type":"Point","coordinates":[83.24064,17.6906]}},{"type":"Feature","properties":{"osm":"w1509782639","power":"substation","from_area":true},"geometry":{"type":"Point","coordinates":[83.30834,17.7384]}},{"type":"Feature","properties":{"osm":"w1512706608","name":"APEPDCL Indoor Substation","power":"substation","building":"yes","from_area":true},"geometry":{"type":"Point","coordinates":[83.31309,17.73722]}},{"type":"Feature","properties":{"osm":"w1528603437","name:en":"LVS power station","power":"plant","from_area":true},"geometry":{"type":"Point","coordinates":[83.23679,17.84622]}},{"type":"Feature","properties":{"osm":"w1536305295","power":"plant","from_area":true},"geometry":{"type":"Point","coordinates":[83.3646,17.88027]}}]}