{"type":"FeatureCollection","features":[{"type":"Feature","properties":{"osm":"n2815695777","amenity":"hospital"},"geometry":{"type":"Point","coordinates":[86.09763,19.89057]}},{"type":"Feature","properties":{"osm":"n7051182992","name":"Swapu Care","amenity":"hospital","healthcare":"hospital"},"geometry":{"type":"Point","coordinates":[85.83252,19.80174]}},{"type":"Feature","properties":{"osm":"n7053747524","name":"Sanjeevani Hospital (Puri)","amenity":"hospital"},"geometry":{"type":"Point","coordinates":[85.84035,19.81469]}},{"type":"Feature","properties":{"osm":"n7078980391","name":"District Headquarter Hospital ,Puri","amenity":"hospital"},"geometry":{"type":"Point","coordinates":[85.82995,19.81427]}},{"type":"Feature","properties":{"osm":"n7079200342","name":"I.D.H, Puri","amenity":"hospital","healthcare":"hospital"},"geometry":{"type":"Point","coordinates":[85.83523,19.81121]}},{"type":"Feature","properties":{"osm":"n7079268126","name":"Government Hospital, Puri","amenity":"hospital"},"geometry":{"type":"Point","coordinates":[85.8296,19.8144]}},{"type":"Feature","properties":{"osm":"n7079268127","name":"K.D.M.M , Puri","amenity":"hospital","healthcare":"hospital"},"geometry":{"type":"Point","coordinates":[85.83599,19.80504]}},{"type":"Feature","properties":{"osm":"n7079268134","name":"Nilachal Nursing Home","amenity":"clinic","healthcare":"clinic"},"geometry":{"type":"Point","coordinates":[85.83304,19.80763]}},{"type":"Feature","properties":{"osm":"n7210926185","name":"UPHC, Swargadwar","amenity":"clinic","healthcare":"clinic"},"geometry":{"type":"Point","coordinates":[85.81857,19.8003]}},{"type":"Feature","properties":{"osm":"n7210929853","name":"Arogyadham Clinic","amenity":"clinic","healthcare":"clinic"},"geometry":{"type":"Point","coordinates":[85.83042,19.81114]}},{"type":"Feature","properties":{"osm":"n7211707604","name":"Government Hospital, Sukal","amenity":"hospital"},"geometry":{"type":"Point","coordinates":[85.70785,19.92966]}},{"type":"Feature","properties":{"osm":"n7212078646","name":"Government Hospital, Chalisbatia","amenity":"hospital"},"geometry":{"type":"Point","coordinates":[85.85014,19.88784]}},{"type":"Feature","properties":{"osm":"n7212185450","name":"Chandan Hazuri Paediatric Hospital","amenity":"hospital","healthcare":"hospital"},"geometry":{"type":"Point","coordinates":[85.83315,19.80039]}},{"type":"Feature","properties":{"osm":"n7701568083","name":"Patanjali Hospital","amenity":"hospital"},"geometry":{"type":"Point","coordinates":[85.8257,19.8109]}},{"type":"Feature","properties":{"osm":"n7701568088","name":"Sharada Nursing Home","amenity":"clinic","healthcare":"clinic"},"geometry":{"type":"Point","coordinates":[85.82561,19.81132]}},{"type":"Feature","properties":{"osm":"n7701568091","name":"Kalara Hospital","amenity":"hospital","healthcare":"hospital"},"geometry":{"type":"Point","coordinates":[85.8346,19.81249]}},{"type":"Feature","properties":{"osm":"n7701568096","name":"Girish Chandra Behra Clinic","amenity":"clinic","healthcare":"clinic"},"geometry":{"type":"Point","coordinates":[85.8348,19.81186]}},{"type":"Feature","properties":{"osm":"n7701568106","name":"Maa Harijana Seka Clinic","amenity":"clinic","healthcare":"clinic"},"geometry":{"type":"Point","coordinates":[85.83125,19.81207]}},{"type":"Feature","properties":{"osm":"n7701568110","name":"E-24 Hospital","amenity":"hospital","healthcare":"hospital"},"geometry":{"type":"Point","coordinates":[85.82413,19.80169]}},{"type":"Feature","properties":{"osm":"n7701568112","name":"Ramamani Multi Speciality Hospital","amenity":"hospital","healthcare":"hospital"},"geometry":{"type":"Point","coordinates":[85.85277,19.82478]}},{"type":"Feature","properties":{"osm":"n7701568113","name":"Samuka Hospital","amenity":"hospital","healthcare":"hospital"},"geometry":{"type":"Point","coordinates":[85.74165,19.81581]}},{"type":"Feature","properties":{"osm":"n7701568115","name":"Mental Hospital","amenity":"hospital"},"geometry":{"type":"Point","coordinates":[85.862,19.83152]}},{"type":"Feature","properties":{"osm":"n7701568120","name":"Gupta Clinic","amenity":"clinic"},"geometry":{"type":"Point","coordinates":[85.84058,19.81719]}},{"type":"Feature","properties":{"osm":"n7701568124","name":"Sri Krishna Clinic","amenity":"clinic"},"geometry":{"type":"Point","coordinates":[85.83904,19.82054]}},{"type":"Feature","properties":{"osm":"n7701568130","name":"Sarala Pantholab","amenity":"clinic","healthcare":"clinic"},"geometry":{"type":"Point","coordinates":[85.83198,19.81317]}},{"type":"Feature","properties":{"osm":"n7701568135","name":"Sahoo Clinic","amenity":"clinic"},"geometry":{"type":"Point","coordinates":[85.84137,19.81617]}},{"type":"Feature","properties":{"osm":"n7701568144","name":"Healthcare Centre","amenity":"clinic"},"geometry":{"type":"Point","coordinates":[85.95589,19.85873]}},{"type":"Feature","properties":{"osm":"n7701568148","name":"Sri Krishna Hospital","amenity":"hospital"},"geometry":{"type":"Point","coordinates":[85.84059,19.81769]}},{"type":"Feature","properties":{"osm":"n7701568161","name":"Apollo Hospital","amenity":"hospital","healthcare":"hospital"},"geometry":{"type":"Point","coordinates":[85.83079,19.81212]}},{"type":"Feature","properties":{"osm":"n7701568163","name":"Nandalaya Arogya Ashrama Clinic and Surgic Centre","amenity":"clinic"},"geometry":{"type":"Point","coordinates":[85.84221,19.81275]}},{"type":"Feature","properties":{"osm":"n7701568166","name":"Sai Saudamini Nursing Home","amenity":"clinic"},"geometry":{"type":"Point","coordinates":[85.8406,19.81732]}},{"type":"Feature","properties":{"osm":"n7701568168","name":"Keya Fertility and Test Tube Baby centre","amenity":"hospital","healthcare":"hospital"},"geometry":{"type":"Point","coordinates":[85.82865,19.82371]}},{"type":"Feature","properties":{"osm":"n7701568170","name":"Om Sai Eye Care Hospitals","amenity":"hospital","healthcare":"hospital"},"geometry":{"type":"Point","coordinates":[85.82993,19.81125]}},{"type":"Feature","properties":{"osm":"w229144770","name":"CHC, Chandanpur","amenity":"hospital","healthcare":"hospital","operator":"Government Of Odisha","from_area":true},"geometry":{"type":"Point","coordinates":[85.80802,19.89557]}},{"type":"Feature","properties":{"osm":"w1409419179","name":"Fahther Marian Lepra Centre","amenity":"hospital","healthcare":"hospital","from_area":true},"geometry":{"type":"Point","coordinates":[85.80527,19.80374]}}]}