{"type":"FeatureCollection","features":[{"type":"Feature","properties":{"osm":"n245685894","name":"Puri","name:en":"Puri","place":"city","population":"200500"},"geometry":{"type":"Point","coordinates":[85.82525,19.80761]}},{"type":"Feature","properties":{"osm":"n481077178","name":"Konark","place":"town","population":"16779"},"geometry":{"type":"Point","coordinates":[86.09738,19.89041]}},{"type":"Feature","properties":{"osm":"n1051797070","name":"Swargadwara","place":"suburb"},"geometry":{"type":"Point","coordinates":[85.81776,19.79446]}},{"type":"Feature","properties":{"osm":"n1051829963","name":"Alipada","place":"hamlet"},"geometry":{"type":"Point","coordinates":[85.76151,19.81267]}},{"type":"Feature","properties":{"osm":"n1686954572","name":"Batagaon","place":"village"},"geometry":{"type":"Point","coordinates":[85.83234,19.85542]}},{"type":"Feature","properties":{"osm":"n2456503868","name":"Balighai","place":"village"},"geometry":{"type":"Point","coordinates":[85.94331,19.86153]}},{"type":"Feature","properties":{"osm":"n3306257775","name":"Sakhigopal","place":"town"},"geometry":{"type":"Point","coordinates":[85.81453,19.94831]}},{"type":"Feature","properties":{"osm":"n4156997236","name":"Chandanpur","place":"town","population":"90000"},"geometry":{"type":"Point","coordinates":[85.81737,19.89049]}},{"type":"Feature","properties":{"osm":"n4156997240","name":"Raghurajpur","place":"village"},"geometry":{"type":"Point","coordinates":[85.82654,19.88537]}}]}