{"type":"FeatureCollection","features":[{"type":"Feature","properties":{"osm":"w201428228","power":"line","voltage":"132000"},"geometry":{"type":"LineString","coordinates":[[85.8548,19.82466],[85.85401,19.82604],[85.85489,19.82763],[85.85525,19.82828],[85.85652,19.83023],[85.8566,19.83032],[85.85677,19.83058],[85.85839,19.83296],[85.85857,19.83538],[85.85848,19.83549],[85.85632,19.83705],[85.8543,19.83855],[85.8522,19.8401],[85.85006,19.84167],[85.84794,19.84326],[85.84677,19.84413],[85.84464,19.84468],[85.84247,19.84525],[85.83863,19.84628],[85.837,19.8464],[85.83524,19.84861],[85.83354,19.85071],[85.8321,19.85249],[85.83043,19.85454],[85.82872,19.85666],[85.82702,19.85878],[85.82516,19.86106],[85.82343,19.86322],[85.82138,19.86458],[85.81891,19.86623],[85.81648,19.8678],[85.81401,19.86942],[85.81168,19.87094],[85.80922,19.87254],[85.80691,19.87404],[85.80465,19.87553],[85.80425,19.87741],[85.80383,19.8793],[85.80437,19.88165],[85.80412,19.88395],[85.80391,19.88594],[85.80365,19.88831],[85.80524,19.89003],[85.80727,19.89356],[85.80686,19.89631],[85.80652,19.89859],[85.80616,19.90128],[85.80579,19.90399],[85.80539,19.90689],[85.80496,19.91016],[85.80456,19.91303],[85.80217,19.91435],[85.79991,19.91322],[85.79728,19.9119],[85.7945,19.91268],[85.79151,19.91353],[85.78851,19.91438],[85.78574,19.91516],[85.78403,19.91709],[85.7822,19.91919],[85.77981,19.92189],[85.77791,19.92407],[85.77625,19.92593],[85.77454,19.92786],[85.77317,19.92943],[85.77164,19.93118],[85.76903,19.93201],[85.76618,19.93292],[85.76331,19.93384],[85.76046,19.93475],[85.7576,19.93566],[85.75509,19.93649],[85.75222,19.9374],[85.7491,19.93839],[85.74634,19.9393],[85.74307,19.94033],[85.74008,19.94131],[85.73926,19.94408],[85.73841,19.94694],[85.73751,19.94999],[85.73658,19.95304],[85.7352,19.95516],[85.73357,19.95765],[85.73232,19.95954],[85.73166,19.96074],[85.73224,19.96382],[85.73323,19.96657],[85.73428,19.96888],[85.73546,19.97142],[85.73655,19.97383],[85.7377,19.97632],[85.73884,19.97881],[85.74,19.98128],[85.74114,19.98376],[85.74238,19.98648],[85.7433,19.98852],[85.74275,19.99119],[85.74219,19.99395],[85.74162,19.99664],[85.74106,19.99933],[85.74051,20.00206],[85.73997,20.00476],[85.73944,20.00748],[85.73886,20.01018],[85.73827,20.01296],[85.73785,20.01546],[85.7373,20.01817],[85.73673,20.02093],[85.73623,20.02338],[85.73638,20.02562],[85.73654,20.02814],[85.7367,20.03056],[85.73691,20.03331],[85.73708,20.03603],[85.73728,20.03875],[85.73747,20.0413],[85.73764,20.04408],[85.73762,20.04667],[85.7376,20.05],[85.73759,20.05319],[85.73757,20.05582],[85.73756,20.05864],[85.73559,20.06102],[85.73354,20.06351],[85.73181,20.06563],[85.73,20.0678],[85.72822,20.06996],[85.72641,20.07215],[85.72368,20.07212],[85.72084,20.07211],[85.71796,20.07207],[85.71514,20.07205],[85.71214,20.07203],[85.7092,20.07198],[85.70647,20.07196],[85.70439,20.07348],[85.7019,20.07528],[85.69927,20.07721],[85.69727,20.07867],[85.69536,20.08005],[85.69244,20.0806],[85.6897,20.08111],[85.68689,20.08161],[85.68406,20.08215],[85.68131,20.08265],[85.67858,20.08317],[85.67608,20.08497],[85.67331,20.08698],[85.67041,20.08908],[85.66974,20.08959],[85.66975,20.09081],[85.66979,20.0913],[85.66909,20.09316],[85.66833,20.09564],[85.66638,20.09763],[85.66461,20.09947],[85.66251,20.10165],[85.66051,20.10373],[85.65848,20.10584],[85.65643,20.10796],[85.65439,20.11007],[85.6521,20.11246],[85.65119,20.11339],[85.64912,20.11556],[85.64716,20.11763],[85.64528,20.11964],[85.64348,20.12157],[85.64177,20.12337],[85.64016,20.12574],[85.6384,20.12827],[85.63669,20.13078],[85.63493,20.1333],[85.63332,20.13566],[85.63153,20.13824],[85.62979,20.14082],[85.62886,20.14217],[85.62776,20.14406],[85.62785,20.14533],[85.6256,20.14693],[85.62399,20.14923],[85.62274,20.15101],[85.62001,20.15218],[85.61717,20.15336],[85.61384,20.15474],[85.61015,20.15628],[85.60762,20.15733],[85.60514,20.15837],[85.60366,20.16035],[85.60246,20.16198],[85.60252,20.16435],[85.60257,20.16713],[85.60262,20.16958],[85.60267,20.17258],[85.60269,20.1747],[85.60274,20.17721],[85.60275,20.17773],[85.60281,20.17979],[85.60433,20.18185],[85.60558,20.18353],[85.60776,20.1836],[85.60841,20.18277]]}},{"type":"Feature","properties":{"osm":"w665270295","power":"line","voltage":"132000"},"geometry":{"type":"LineString","coordinates":[[86.00614,20.02554],[86.00563,20.02535],[86.00418,20.02369],[86.00243,20.02179],[86.00109,20.02029],[86.00007,20.01913],[85.99783,20.01786],[85.9958,20.01672],[85.99382,20.01562],[85.99184,20.0145],[85.98958,20.01324],[85.98887,20.01082],[85.98812,20.00839],[85.98735,20.00589],[85.9866,20.00343],[85.98586,20.00102],[85.98511,19.99856],[85.98442,19.9961],[85.98372,19.99367],[85.98302,19.99121],[85.98228,19.98857],[85.98161,19.9862],[85.9809,19.98373],[85.9802,19.98122],[85.97951,19.97875],[85.9788,19.97625],[85.97816,19.97401],[85.97719,19.97161],[85.97628,19.96926],[85.97537,19.96694],[85.97435,19.96433],[85.97336,19.96173],[85.97411,19.95962],[85.97483,19.95754],[85.97574,19.95498],[85.97667,19.95219],[85.97677,19.94948],[85.97687,19.94728],[85.97697,19.94518],[85.97706,19.94273],[85.97685,19.94177],[85.97642,19.93986],[85.97589,19.93751],[85.97537,19.93532],[85.97484,19.93305],[85.97433,19.93086],[85.97249,19.92877],[85.97084,19.9269],[85.96895,19.92479],[85.96705,19.92268],[85.96532,19.92074],[85.96363,19.91882],[85.96185,19.91654],[85.96021,19.9145],[85.9587,19.91245],[85.95713,19.91031],[85.95552,19.90816],[85.95404,19.90614],[85.95244,19.90398],[85.9509,19.90193],[85.94949,19.90003],[85.94796,19.89798],[85.94636,19.89579],[85.94514,19.89381],[85.94398,19.89187],[85.94264,19.88969],[85.94137,19.88763],[85.94008,19.88557],[85.93887,19.88354],[85.93763,19.88149],[85.93643,19.87947],[85.93527,19.87749],[85.93355,19.87588],[85.93213,19.87411],[85.9305,19.87207],[85.9287,19.86988],[85.92721,19.86801],[85.92562,19.86605],[85.92384,19.86423],[85.92206,19.86239],[85.92025,19.86057],[85.91849,19.85877],[85.91667,19.85692],[85.91493,19.85515],[85.91347,19.85365],[85.91161,19.85171],[85.90959,19.84967],[85.90785,19.84789],[85.90611,19.84608],[85.90372,19.84498],[85.90157,19.84401],[85.89899,19.84281],[85.89727,19.84084],[85.89586,19.83927],[85.89452,19.83871],[85.89442,19.83868],[85.89421,19.83859],[85.89344,19.83826],[85.89297,19.83807],[85.89272,19.83797],[85.89206,19.83771],[85.89201,19.8377],[85.89103,19.83731],[85.88863,19.83632],[85.8876,19.83589],[85.88627,19.83536],[85.88364,19.83428],[85.88091,19.8332],[85.87847,19.83221],[85.87593,19.83119],[85.8733,19.83013],[85.87079,19.82913],[85.87074,19.82911],[85.86874,19.8283],[85.8682,19.82808],[85.86751,19.82781],[85.86637,19.82638],[85.86319,19.8242],[85.86058,19.82351],[85.85824,19.82287],[85.85504,19.82346]]}},{"type":"Feature","properties":{"osm":"w665299069","power":"line","voltage":"220000"},"geometry":{"type":"LineString","coordinates":[[85.87582,19.84151],[85.87669,19.8427],[85.87554,19.84524],[85.87437,19.84776],[85.87324,19.85024],[85.87208,19.85265],[85.87088,19.85521],[85.86969,19.8578],[85.86854,19.86021],[85.86748,19.86243],[85.86631,19.86488],[85.86515,19.86733],[85.864,19.86973],[85.8629,19.87208],[85.86234,19.87354],[85.86142,19.87597],[85.86049,19.87839],[85.85961,19.88076],[85.85857,19.88345],[85.85889,19.88662],[85.85916,19.88934],[85.86046,19.89134],[85.86174,19.89324],[85.86319,19.89538],[85.86308,19.89718],[85.86201,19.8997],[85.86196,19.90227],[85.86182,19.90473],[85.86169,19.90696],[85.86159,19.90958],[85.86144,19.9126],[85.85982,19.9142],[85.85793,19.91609],[85.85616,19.91787],[85.85481,19.91827],[85.85369,19.91727],[85.85003,19.91687],[85.84767,19.91687],[85.84515,19.91683],[85.84274,19.9161],[85.83999,19.91527],[85.8372,19.91445],[85.83479,19.91374],[85.83206,19.91294],[85.82948,19.91215],[85.82677,19.91137],[85.8242,19.9106],[85.82189,19.90989],[85.82022,19.90972],[85.818,19.90945],[85.81551,19.90984],[85.81391,19.90939],[85.81124,19.90898],[85.80888,19.90864],[85.80584,19.90819],[85.80436,19.90797],[85.80169,19.90675],[85.79949,19.90575],[85.79664,19.90637],[85.79432,19.90769],[85.79227,19.90881],[85.78997,19.9101],[85.78794,19.91124],[85.78578,19.91246],[85.78361,19.91368],[85.78112,19.91415],[85.77914,19.91452],[85.77701,19.91492],[85.77439,19.91541],[85.7719,19.91591],[85.76926,19.9164],[85.76634,19.91694],[85.76467,19.91725],[85.76205,19.9176],[85.75943,19.91788],[85.75666,19.91822],[85.75442,19.9181],[85.75168,19.9179],[85.74899,19.91775],[85.74635,19.91757],[85.74312,19.91741],[85.74086,19.9171],[85.73839,19.91681],[85.73596,19.91651],[85.73328,19.9162],[85.73128,19.91808],[85.72917,19.92001],[85.72725,19.9218],[85.72536,19.92356],[85.72313,19.92553],[85.72142,19.92714],[85.71952,19.9289],[85.71755,19.93075],[85.7155,19.93267],[85.71371,19.93433],[85.71193,19.936],[85.71014,19.93768],[85.70826,19.93946],[85.70646,19.94116],[85.70444,19.943],[85.70289,19.94433],[85.70142,19.94558],[85.70051,19.94791],[85.6996,19.95028],[85.69868,19.95267],[85.69787,19.95475],[85.69692,19.95721],[85.69602,19.95952],[85.69511,19.9619],[85.69418,19.96428],[85.69339,19.96639],[85.69247,19.96876],[85.69168,19.97078],[85.6907,19.97332],[85.68986,19.97554],[85.68887,19.97807],[85.68801,19.98029],[85.68782,19.98238],[85.68755,19.98496],[85.68733,19.98731],[85.6871,19.98974],[85.68538,19.99223],[85.68488,19.99457],[85.68444,19.99651],[85.68389,19.99905],[85.68338,20.00133],[85.68287,20.00365],[85.6823,20.00618],[85.6817,20.00879],[85.68116,20.01122],[85.68062,20.01368],[85.68005,20.01615],[85.67953,20.01843],[85.67896,20.02105],[85.67841,20.02313],[85.67778,20.02558],[85.6771,20.02824],[85.67645,20.03078],[85.6758,20.03332],[85.6752,20.03564],[85.67465,20.0382],[85.67352,20.04018],[85.6725,20.04195],[85.6716,20.04351],[85.67172,20.04614],[85.67189,20.04893],[85.67205,20.0516],[85.67217,20.05432],[85.67231,20.05705],[85.67246,20.05961],[85.67261,20.06228],[85.67168,20.06452],[85.67039,20.06754],[85.66923,20.07031],[85.66813,20.07281],[85.66836,20.07532],[85.66858,20.07785],[85.66878,20.08],[85.67005,20.08243],[85.66886,20.08499],[85.66875,20.08526]]}},{"type":"Feature","properties":{"osm":"w665299077","power":"line","voltage":"132000"},"geometry":{"type":"LineString","coordinates":[[85.8876,19.83589],[85.88748,19.83625],[85.88686,19.83773],[85.88606,19.83809],[85.88557,19.83796],[85.88391,19.83755],[85.88134,19.83704],[85.8795,19.83628],[85.87791,19.83564],[85.87694,19.83536],[85.87528,19.83634],[85.8743,19.83674],[85.87392,19.8381],[85.87413,19.83893],[85.87434,19.83924]]}}]}