{"type":"FeatureCollection","features":[{"type":"Feature","properties":{"osm":"n4183385009","amenity":"school"},"geometry":{"type":"Point","coordinates":[85.84329,19.80533]}},{"type":"Feature","properties":{"osm":"n6160648527","name":"Bhargabi High School","amenity":"school"},"geometry":{"type":"Point","coordinates":[85.80156,19.89474]}},{"type":"Feature","properties":{"osm":"n8073270483","amenity":"shelter"},"geometry":{"type":"Point","coordinates":[85.82736,19.79665]}},{"type":"Feature","properties":{"osm":"n11780668018","name":"Konark Bhagabati Mahavidhyalaya","amenity":"college","operator":"Govt Of Odisha"},"geometry":{"type":"Point","coordinates":[86.08594,19.89586]}},{"type":"Feature","properties":{"osm":"n11861498324","name":"Girl's High School","amenity":"school","operator":"Education Department"},"geometry":{"type":"Point","coordinates":[85.80893,19.8968]}},{"type":"Feature","properties":{"osm":"w90630352","name":"Sanskrit College","amenity":"college","from_area":true},"geometry":{"type":"Point","coordinates":[85.82688,19.80164]}},{"type":"Feature","properties":{"osm":"w488168362","name":"Konark High School","amenity":"school","from_area":true},"geometry":{"type":"Point","coordinates":[86.08897,19.89026]}},{"type":"Feature","properties":{"osm":"w488168363","name":"Sevashram School","amenity":"school","from_area":true},"geometry":{"type":"Point","coordinates":[86.09095,19.89093]}},{"type":"Feature","properties":{"osm":"w488168364","name":"Vinoba Bhabe Vidyamandir","amenity":"school","from_area":true},"geometry":{"type":"Point","coordinates":[86.08716,19.89267]}},{"type":"Feature","properties":{"osm":"w488168365","name":"Xavier College","amenity":"college","from_area":true},"geometry":{"type":"Point","coordinates":[86.08869,19.89213]}},{"type":"Feature","properties":{"osm":"w657874438","name":"S C S Collage","amenity":"college","from_area":true},"geometry":{"type":"Point","coordinates":[85.8296,19.80443]}}]}