{"type":"FeatureCollection","features":[{"type":"Feature","properties":{"osm":"w230766612","name":"Puri","power":"substation","voltage":"132000","from_area":true},"geometry":{"type":"Point","coordinates":[85.85401,19.82264]}},{"type":"Feature","properties":{"osm":"w665299075","name":"Samangara","power":"substation","voltage":"220000;132000","substation":"transmission","from_area":true},"geometry":{"type":"Point","coordinates":[85.87447,19.84012]}},{"type":"Feature","properties":{"osm":"w1467361004","power":"substation","from_area":true},"geometry":{"type":"Point","coordinates":[85.75497,19.85072]}},{"type":"Feature","properties":{"osm":"w1467361015","power":"substation","from_area":true},"geometry":{"type":"Point","coordinates":[86.00862,19.93975]}}]}